{
  "type": "FeatureCollection",
  "features": [
    {
      "type": "Feature",
      "geometry": {
        "type": "MultiPolygon",
        "coordinates": [
          [
            [
              [
                -78.868974164896,
                42.902205438423
              ],
              [
                -78.870731187353,
                42.89681250784
              ],
              [
                -78.87125915004,
                42.895194486334
              ],
              [
                -78.871876773649,
                42.893332556917
              ],
              [
                -78.873052172161,
                42.893533517406
              ],
              [
                -78.877267112859,
                42.894256430309
              ],
              [
                -78.878233117513,
                42.894421472731
              ],
              [
                -78.878922178175,
                42.89454044148
              ],
              [
                -78.880121127245,
                42.895780441234
              ],
              [
                -78.881617183106,
                42.897343477289
              ],
              [
                -78.880949135534,
                42.897684441506
              ],
              [
                -78.883407149353,
                42.898743445129
              ],
              [
                -78.883069178809,
                42.898915463264
              ],
              [
                -78.884559207545,
                42.90048145456
              ],
              [
                -78.883531204853,
                42.901009428666
              ],
              [
                -78.882065455088,
                42.901765347889
              ],
              [
                -78.881689201963,
                42.902351511559
              ],
              [
                -78.88032316038,
                42.90228543505
              ],
              [
                -78.877140204094,
                42.902263514866
              ],
              [
                -78.873025167137,
                42.90224049631
              ],
              [
                -78.868974164896,
                42.902205438423
              ]
            ]
          ]
        ]
      },
      "properties": {
        ":id": "row-g99x-jvpd~ke2k",
        ":version": "rv-26wi-g773_2hks",
        ":created_at": "2025-09-12T14:36:58.132Z",
        ":updated_at": "2025-09-12T14:36:58.132Z",
        "nbhdname": "Allentown",
        "nbhdnum": "3",
        "calcacres": "213.46750796",
        "sqmiles": "0.33354298",
        "objectid_1": "24"
      }
    }
  ]
}