{
  "type": "FeatureCollection",
  "features": [
    {
      "type": "Feature",
      "geometry": {
        "type": "MultiPolygon",
        "coordinates": [
          [
            [
              [
                -78.896008855595,
                42.943813136618
              ],
              [
                -78.897623380232,
                42.928049111817
              ],
              [
                -78.899103893658,
                42.927630914047
              ],
              [
                -78.899101222968,
                42.927703551716
              ],
              [
                -78.899154412518,
                42.928134307612
              ],
              [
                -78.89923367231,
                42.928677399627
              ],
              [
                -78.899338523404,
                42.929239156178
              ],
              [
                -78.899442705798,
                42.929669770149
              ],
              [
                -78.899661042604,
                42.929987659624
              ],
              [
                -78.899814972007,
                42.930174583381
              ],
              [
                -78.899981362327,
                42.930305266617
              ],
              [
                -78.900378315988,
                42.930650763398
              ],
              [
                -78.900890100155,
                42.931014673774
              ],
              [
                -78.900977514013,
                42.931003088542
              ],
              [
                -78.901106666143,
                42.930985970796
              ],
              [
                -78.901335836596,
                42.930929129478
              ],
              [
                -78.902897355811,
                42.932142546995
              ],
              [
                -78.9037676175,
                42.932795834442
              ],
              [
                -78.903590017247,
                42.932964944377
              ],
              [
                -78.903697631231,
                42.933054623336
              ],
              [
                -78.905472195968,
                42.93453339072
              ],
              [
                -78.905651456476,
                42.934682764651
              ],
              [
                -78.905894754039,
                42.934888162768
              ],
              [
                -78.906266125583,
                42.935205608014
              ],
              [
                -78.906393905841,
                42.935261451463
              ],
              [
                -78.906560470748,
                42.935420227409
              ],
              [
                -78.907060463793,
                42.935952757802
              ],
              [
                -78.907624751933,
                42.936588145059
              ],
              [
                -78.908061216541,
                42.937158320528
              ],
              [
                -78.908601210478,
                42.938018589389
              ],
              [
                -78.908819920072,
                42.938392664695
              ],
              [
                -78.908961939589,
                42.938729487231
              ],
              [
                -78.909103860676,
                42.939047575501
              ],
              [
                -78.909349163753,
                42.939627657277
              ],
              [
                -78.909735953914,
                42.9404415194
              ],
              [
                -78.909814430985,
                42.940815992407
              ],
              [
                -78.90986760801,
                42.941228007092
              ],
              [
                -78.909947078427,
                42.941789825037
              ],
              [
                -78.909961956697,
                42.942192580356
              ],
              [
                -78.909966611502,
                42.943073104379
              ],
              [
                -78.909956833355,
                42.94363517586
              ],
              [
                -78.909949179811,
                42.943818965398
              ],
              [
                -78.89537545449,
                42.948193673017
              ],
              [
                -78.896008855595,
                42.943813136618
              ]
            ]
          ]
        ]
      },
      "properties": {
        ":id": "row-z6cd.447w_rwwc",
        ":version": "rv-izhy~vktr~qk9s",
        ":created_at": "2025-09-12T14:36:58.132Z",
        ":updated_at": "2025-09-12T14:36:58.132Z",
        "nbhdname": "Black Rock",
        "nbhdnum": "8",
        "calcacres": "388.28755895",
        "sqmiles": "0.60669931",
        "objectid_1": "9"
      }
    }
  ]
}