{
  "type": "FeatureCollection",
  "features": [
    {
      "type": "Feature",
      "geometry": {
        "type": "MultiPolygon",
        "coordinates": [
          [
            [
              [
                -78.825468081762,
                42.895426438203
              ],
              [
                -78.825639111617,
                42.884473479746
              ],
              [
                -78.825653134088,
                42.88272150528
              ],
              [
                -78.826878138413,
                42.88100544161
              ],
              [
                -78.827652503622,
                42.879916425241
              ],
              [
                -78.828172637481,
                42.879185747632
              ],
              [
                -78.828463149522,
                42.878779490571
              ],
              [
                -78.828730171342,
                42.878447492151
              ],
              [
                -78.829212960881,
                42.878243695309
              ],
              [
                -78.831181161945,
                42.877592495668
              ],
              [
                -78.832932180398,
                42.877035441934
              ],
              [
                -78.833429054979,
                42.876403841575
              ],
              [
                -78.837347186252,
                42.87786342977
              ],
              [
                -78.839848095867,
                42.878175440207
              ],
              [
                -78.840152086032,
                42.878250495448
              ],
              [
                -78.841038153919,
                42.878409446453
              ],
              [
                -78.842564116214,
                42.87866645426
              ],
              [
                -78.844088145121,
                42.878937462598
              ],
              [
                -78.845674203092,
                42.879217438584
              ],
              [
                -78.848937100313,
                42.879789483086
              ],
              [
                -78.85391517305,
                42.880646487913
              ],
              [
                -78.853921126573,
                42.881863504588
              ],
              [
                -78.853931180171,
                42.883356438652
              ],
              [
                -78.853939204278,
                42.885160430164
              ],
              [
                -78.853956166327,
                42.887828481058
              ],
              [
                -78.853968122656,
                42.889799449431
              ],
              [
                -78.853971132288,
                42.891051498739
              ],
              [
                -78.853972198621,
                42.893022473738
              ],
              [
                -78.853970256334,
                42.893358085365
              ],
              [
                -78.853967783372,
                42.893785419075
              ],
              [
                -78.853966204219,
                42.894852007602
              ],
              [
                -78.853971149172,
                42.896787515124
              ],
              [
                -78.853985795284,
                42.896856894727
              ],
              [
                -78.852565717649,
                42.897383959139
              ],
              [
                -78.850994945779,
                42.898492090634
              ],
              [
                -78.848574203154,
                42.900162429421
              ],
              [
                -78.846710358633,
                42.902129584239
              ],
              [
                -78.845649763961,
                42.903723106654
              ],
              [
                -78.844647161482,
                42.903699520014
              ],
              [
                -78.841550872269,
                42.90365522764
              ],
              [
                -78.835513115972,
                42.903611454218
              ],
              [
                -78.829947182901,
                42.903553438708
              ],
              [
                -78.828975088123,
                42.90354143477
              ],
              [
                -78.828961145542,
                42.900907491786
              ],
              [
                -78.828725076308,
                42.894979713837
              ],
              [
                -78.828723486781,
                42.894939804135
              ],
              [
                -78.828258194644,
                42.895009440571
              ],
              [
                -78.82811211871,
                42.895031440214
              ],
              [
                -78.827248146724,
                42.895161481091
              ],
              [
                -78.826353186474,
                42.895295433277
              ],
              [
                -78.825940114057,
                42.895356438738
              ],
              [
                -78.825468081762,
                42.895426438203
              ]
            ]
          ]
        ]
      },
      "properties": {
        ":id": "row-ikur.wstt~rxkh",
        ":version": "rv-cwgt.zpxf-3puq",
        ":created_at": "2025-09-12T14:36:58.132Z",
        ":updated_at": "2025-09-12T14:36:58.132Z",
        "nbhdname": "Broadway Fillmore",
        "nbhdnum": "27",
        "calcacres": "1440.23521316",
        "sqmiles": "2.25036752",
        "objectid_1": "32"
      }
    }
  ]
}