{
  "type": "FeatureCollection",
  "features": [
    {
      "type": "Feature",
      "geometry": {
        "type": "MultiPolygon",
        "coordinates": [
          [
            [
              [
                -78.836482449735,
                42.958383807418
              ],
              [
                -78.836443815335,
                42.958348474042
              ],
              [
                -78.826078366981,
                42.940108446266
              ],
              [
                -78.831507147478,
                42.940181495951
              ],
              [
                -78.84332912152,
                42.940313482038
              ],
              [
                -78.844162150807,
                42.940320492818
              ],
              [
                -78.843968102636,
                42.950291513859
              ],
              [
                -78.84380410064,
                42.958468519106
              ],
              [
                -78.843806808452,
                42.958495346438
              ],
              [
                -78.843803962372,
                42.958495306104
              ],
              [
                -78.842461827368,
                42.958477087452
              ],
              [
                -78.838964520188,
                42.958427673344
              ],
              [
                -78.838285978307,
                42.958417525319
              ],
              [
                -78.836859757159,
                42.958390853722
              ],
              [
                -78.836482449735,
                42.958383807418
              ]
            ]
          ]
        ]
      },
      "properties": {
        ":id": "row-peg2_6j7h-jjaw",
        ":version": "rv-ydka-tiqk~h4nv",
        ":created_at": "2025-09-12T14:36:58.132Z",
        ":updated_at": "2025-09-12T14:36:58.132Z",
        "nbhdname": "Central Park",
        "nbhdnum": "14",
        "calcacres": "517.047038",
        "sqmiles": "0.807886",
        "objectid_1": "3"
      }
    }
  ]
}