{
  "type": "FeatureCollection",
  "features": [
    {
      "type": "Feature",
      "geometry": {
        "type": "MultiPolygon",
        "coordinates": [
          [
            [
              [
                -78.902092039252,
                42.902047174295
              ],
              [
                -78.902078497833,
                42.902142101455
              ],
              [
                -78.901865244242,
                42.901944431509
              ],
              [
                -78.901624303191,
                42.902079715089
              ],
              [
                -78.90175772565,
                42.902339514755
              ],
              [
                -78.901685844058,
                42.902348064201
              ],
              [
                -78.9007511333,
                42.902512499291
              ],
              [
                -78.900018144926,
                42.901255472898
              ],
              [
                -78.898521485975,
                42.899047834582
              ],
              [
                -78.897795162905,
                42.898265443899
              ],
              [
                -78.896392388964,
                42.896806118677
              ],
              [
                -78.896382186153,
                42.896795500568
              ],
              [
                -78.895334988452,
                42.89568481239
              ],
              [
                -78.893313204532,
                42.893631450543
              ],
              [
                -78.892573177663,
                42.89291744834
              ],
              [
                -78.890337163091,
                42.890559502827
              ],
              [
                -78.889092045929,
                42.889509343295
              ],
              [
                -78.883547134938,
                42.883929451592
              ],
              [
                -78.880184167019,
                42.885253482724
              ],
              [
                -78.878333663523,
                42.890902025253
              ],
              [
                -78.877267112859,
                42.894256430309
              ],
              [
                -78.873052172161,
                42.893533517406
              ],
              [
                -78.869654163132,
                42.892952516462
              ],
              [
                -78.865598126258,
                42.892398440374
              ],
              [
                -78.866707171698,
                42.889004427751
              ],
              [
                -78.867401194049,
                42.886863450547
              ],
              [
                -78.869110167129,
                42.881578498234
              ],
              [
                -78.869887188901,
                42.878833425211
              ],
              [
                -78.870709193994,
                42.876297511391
              ],
              [
                -78.871447187807,
                42.874004477288
              ],
              [
                -78.871786181455,
                42.873015459116
              ],
              [
                -78.871820141885,
                42.872918994618
              ],
              [
                -78.871877595789,
                42.872736662404
              ],
              [
                -78.871917846797,
                42.872613902664
              ],
              [
                -78.871990110918,
                42.872393505767
              ],
              [
                -78.872079177925,
                42.872142436299
              ],
              [
                -78.872110812571,
                42.872093350986
              ],
              [
                -78.872197110717,
                42.871959447232
              ],
              [
                -78.872282163776,
                42.871855453815
              ],
              [
                -78.872348522683,
                42.871803427982
              ],
              [
                -78.872350086019,
                42.871802202431
              ],
              [
                -78.872375308964,
                42.871701346904
              ],
              [
                -78.872252853336,
                42.871616900731
              ],
              [
                -78.872236161424,
                42.871609498894
              ],
              [
                -78.87219314953,
                42.871620500138
              ],
              [
                -78.872158131832,
                42.871616463651
              ],
              [
                -78.872107113553,
                42.871593431361
              ],
              [
                -78.871963153462,
                42.871456498398
              ],
              [
                -78.871771110898,
                42.871341452028
              ],
              [
                -78.871523328809,
                42.8711306204
              ],
              [
                -78.871322707364,
                42.870996889093
              ],
              [
                -78.871256916258,
                42.870891177324
              ],
              [
                -78.871150095997,
                42.87079344563
              ],
              [
                -78.871022152236,
                42.870640482306
              ],
              [
                -78.870853128223,
                42.870390499445
              ],
              [
                -78.87073812027,
                42.870254475247
              ],
              [
                -78.8707012036,
                42.870157493958
              ],
              [
                -78.87068515288,
                42.870059446635
              ],
              [
                -78.87062720424,
                42.869933465142
              ],
              [
                -78.8705701415,
                42.869847247933
              ],
              [
                -78.870451186308,
                42.869667511208
              ],
              [
                -78.870232859862,
                42.869245687322
              ],
              [
                -78.869865969324,
                42.86865613044
              ],
              [
                -78.86945646876,
                42.86777948354
              ],
              [
                -78.869444176006,
                42.867754448386
              ],
              [
                -78.869441144183,
                42.867746678916
              ],
              [
                -78.869413037608,
                42.867686506971
              ],
              [
                -78.868970561979,
                42.86673923866
              ],
              [
                -78.868862202231,
                42.866563500457
              ],
              [
                -78.868822177529,
                42.86652046596
              ],
              [
                -78.86874496576,
                42.866470142306
              ],
              [
                -78.868687174242,
                42.866432475983
              ],
              [
                -78.86864710133,
                42.866396466904
              ],
              [
                -78.868616576828,
                42.866354398008
              ],
              [
                -78.86799839144,
                42.866459795684
              ],
              [
                -78.867925674866,
                42.866376575962
              ],
              [
                -78.868649247464,
                42.866028067654
              ],
              [
                -78.868623150102,
                42.865696424754
              ],
              [
                -78.868545201636,
                42.864884492043
              ],
              [
                -78.868589882495,
                42.864579271707
              ],
              [
                -78.868575770407,
                42.8643566117
              ],
              [
                -78.868537371357,
                42.863750791415
              ],
              [
                -78.868455143966,
                42.86288231142
              ],
              [
                -78.868071472395,
                42.862562517457
              ],
              [
                -78.867641178837,
                42.862203858174
              ],
              [
                -78.867604194802,
                42.862184499718
              ],
              [
                -78.867591126634,
                42.862180755714
              ],
              [
                -78.867424696998,
                42.862183730833
              ],
              [
                -78.867392097514,
                42.862190504898
              ],
              [
                -78.866798202317,
                42.862250480693
              ],
              [
                -78.866645118552,
                42.862272495629
              ],
              [
                -78.866561212606,
                42.862314499821
              ],
              [
                -78.865945164136,
                42.862709440724
              ],
              [
                -78.865748178687,
                42.86285547984
              ],
              [
                -78.864370128362,
                42.863758507956
              ],
              [
                -78.864177117265,
                42.863864433124
              ],
              [
                -78.863108145749,
                42.864086488388
              ],
              [
                -78.862726151116,
                42.864141443737
              ],
              [
                -78.862295188384,
                42.864137456909
              ],
              [
                -78.861748174288,
                42.86416647033
              ],
              [
                -78.861581098316,
                42.864162479781
              ],
              [
                -78.861103188305,
                42.864104430555
              ],
              [
                -78.860582106666,
                42.864017494804
              ],
              [
                -78.860184888422,
                42.863964942048
              ],
              [
                -78.860082272854,
                42.864006339458
              ],
              [
                -78.859926054986,
                42.863982424354
              ],
              [
                -78.859834216232,
                42.860579118579
              ],
              [
                -78.86010301606,
                42.86057701526
              ],
              [
                -78.860105495011,
                42.860684903212
              ],
              [
                -78.860198158124,
                42.860702486558
              ],
              [
                -78.860249307127,
                42.860752295723
              ],
              [
                -78.860334103848,
                42.861545511444
              ],
              [
                -78.860339406032,
                42.861744480142
              ],
              [
                -78.860412343934,
                42.861711302259
              ],
              [
                -78.860723739864,
                42.861484755288
              ],
              [
                -78.860991001257,
                42.861230214834
              ],
              [
                -78.861169339681,
                42.860947119225
              ],
              [
                -78.86131126615,
                42.860625153533
              ],
              [
                -78.861423208112,
                42.860308297246
              ],
              [
                -78.861489214541,
                42.860040247493
              ],
              [
                -78.861578894516,
                42.859717624238
              ],
              [
                -78.861607970434,
                42.859432646246
              ],
              [
                -78.861620204972,
                42.858998377759
              ],
              [
                -78.861613366169,
                42.858883981864
              ],
              [
                -78.861576433843,
                42.85854878936
              ],
              [
                -78.861431159968,
                42.858058589795
              ],
              [
                -78.861275343425,
                42.857699952256
              ],
              [
                -78.86109391641,
                42.857159909753
              ],
              [
                -78.861030869325,
                42.856983520059
              ],
              [
                -78.860999860425,
                42.856714251824
              ],
              [
                -78.860936557303,
                42.856548831953
              ],
              [
                -78.866394960498,
                42.85313631718
              ],
              [
                -78.866541659342,
                42.853093942593
              ],
              [
                -78.871663447987,
                42.851728696865
              ],
              [
                -78.871755856643,
                42.851704290306
              ],
              [
                -78.871773547494,
                42.851697465225
              ],
              [
                -78.872063884465,
                42.852170654763
              ],
              [
                -78.872289858615,
                42.852538941301
              ],
              [
                -78.87215523109,
                42.85257387763
              ],
              [
                -78.871780795107,
                42.852673581013
              ],
              [
                -78.86940396894,
                42.85337021678
              ],
              [
                -78.869226463549,
                42.853603818174
              ],
              [
                -78.86933681436,
                42.853711441152
              ],
              [
                -78.869525512093,
                42.854066507293
              ],
              [
                -78.869581195751,
                42.854171285104
              ],
              [
                -78.869649230772,
                42.854151684484
              ],
              [
                -78.872745296808,
                42.853259704251
              ],
              [
                -78.872832852129,
                42.853234477285
              ],
              [
                -78.872914483257,
                42.853351513794
              ],
              [
                -78.872937447687,
                42.853384438248
              ],
              [
                -78.874753376858,
                42.855987847828
              ],
              [
                -78.87495605529,
                42.856280436729
              ],
              [
                -78.875075957462,
                42.856453525811
              ],
              [
                -78.875210712941,
                42.856699452977
              ],
              [
                -78.875424741311,
                42.85710420376
              ],
              [
                -78.875684407609,
                42.857669742342
              ],
              [
                -78.875793520553,
                42.858026345108
              ],
              [
                -78.875968799045,
                42.85841777407
              ],
              [
                -78.876113617961,
                42.85871075532
              ],
              [
                -78.876100313123,
                42.85896301665
              ],
              [
                -78.875940914629,
                42.859076284636
              ],
              [
                -78.875188102067,
                42.859346830982
              ],
              [
                -78.873455876589,
                42.860000344453
              ],
              [
                -78.873604935938,
                42.860074926711
              ],
              [
                -78.873780454851,
                42.860168990975
              ],
              [
                -78.873838123452,
                42.860257507074
              ],
              [
                -78.873717056411,
                42.860327344079
              ],
              [
                -78.873816458303,
                42.860548076816
              ],
              [
                -78.874017845254,
                42.860556056642
              ],
              [
                -78.874179735464,
                42.860701220227
              ],
              [
                -78.874394296331,
                42.860986978481
              ],
              [
                -78.87448873484,
                42.861176489873
              ],
              [
                -78.874644962108,
                42.861200375194
              ],
              [
                -78.874713915343,
                42.861124401579
              ],
              [
                -78.874796872763,
                42.860999330838
              ],
              [
                -78.874876004606,
                42.860810545453
              ],
              [
                -78.874910037541,
                42.860715267952
              ],
              [
                -78.874927632631,
                42.860600248028
              ],
              [
                -78.8748573198,
                42.860412801888
              ],
              [
                -78.874919838679,
                42.860378110002
              ],
              [
                -78.875273274569,
                42.860181987152
              ],
              [
                -78.875717430069,
                42.860022857739
              ],
              [
                -78.876213700468,
                42.859869857977
              ],
              [
                -78.876385360426,
                42.859871980787
              ],
              [
                -78.876659348789,
                42.859968656685
              ],
              [
                -78.876935726647,
                42.860284860423
              ],
              [
                -78.877486928664,
                42.861193961591
              ],
              [
                -78.87765416804,
                42.861500987886
              ],
              [
                -78.877675045387,
                42.861643374312
              ],
              [
                -78.877724108358,
                42.861767416373
              ],
              [
                -78.87810771047,
                42.862450309605
              ],
              [
                -78.878531913615,
                42.863006284658
              ],
              [
                -78.878788079239,
                42.863298451213
              ],
              [
                -78.879018481409,
                42.863571420682
              ],
              [
                -78.879664418615,
                42.864280355686
              ],
              [
                -78.880268259358,
                42.86510625893
              ],
              [
                -78.880862352676,
                42.865798857192
              ],
              [
                -78.88128345962,
                42.866200613927
              ],
              [
                -78.881645968501,
                42.866461521266
              ],
              [
                -78.881946681287,
                42.866690109401
              ],
              [
                -78.882231598961,
                42.866968091927
              ],
              [
                -78.88236861753,
                42.86717830045
              ],
              [
                -78.882499687878,
                42.867322588242
              ],
              [
                -78.882647836759,
                42.867373796552
              ],
              [
                -78.882718690682,
                42.86753929236
              ],
              [
                -78.879261505491,
                42.868698553786
              ],
              [
                -78.87999819311,
                42.869557879993
              ],
              [
                -78.883661763152,
                42.868412423791
              ],
              [
                -78.884009199843,
                42.868888616786
              ],
              [
                -78.880430601967,
                42.870069137968
              ],
              [
                -78.880867719725,
                42.870588713605
              ],
              [
                -78.881134738378,
                42.87049949218
              ],
              [
                -78.881213504441,
                42.870530887869
              ],
              [
                -78.881489885249,
                42.870641051852
              ],
              [
                -78.881604368388,
                42.870608386981
              ],
              [
                -78.88462412434,
                42.869746731299
              ],
              [
                -78.884804932419,
                42.870001374585
              ],
              [
                -78.884794694133,
                42.870121971357
              ],
              [
                -78.884747507771,
                42.870225653854
              ],
              [
                -78.884633268308,
                42.870323026687
              ],
              [
                -78.88449030319,
                42.870370656526
              ],
              [
                -78.884309761842,
                42.870428800573
              ],
              [
                -78.883882072477,
                42.870506137108
              ],
              [
                -78.883626812401,
                42.870579541455
              ],
              [
                -78.883491061734,
                42.870638237391
              ],
              [
                -78.883458676291,
                42.870747587069
              ],
              [
                -78.883542550102,
                42.871064882737
              ],
              [
                -78.883826009669,
                42.871657533912
              ],
              [
                -78.884290565312,
                42.871432898667
              ],
              [
                -78.885275780754,
                42.870956485818
              ],
              [
                -78.88555026304,
                42.870964136408
              ],
              [
                -78.885627452242,
                42.871079619606
              ],
              [
                -78.886350444655,
                42.871871120475
              ],
              [
                -78.886631235035,
                42.872320090445
              ],
              [
                -78.887227616587,
                42.873032285275
              ],
              [
                -78.888848022046,
                42.874845131177
              ],
              [
                -78.889413104232,
                42.875474978698
              ],
              [
                -78.889887868767,
                42.875654641794
              ],
              [
                -78.89039018742,
                42.875982785766
              ],
              [
                -78.888376071322,
                42.876924219794
              ],
              [
                -78.888122042325,
                42.876930222056
              ],
              [
                -78.888080392085,
                42.877209901005
              ],
              [
                -78.889243364958,
                42.877280012933
              ],
              [
                -78.889315021199,
                42.876989601031
              ],
              [
                -78.88952697212,
                42.876906550486
              ],
              [
                -78.890110806642,
                42.876677779219
              ],
              [
                -78.890581072847,
                42.877540280121
              ],
              [
                -78.889753115288,
                42.877960047055
              ],
              [
                -78.888585442901,
                42.877867469764
              ],
              [
                -78.888513730661,
                42.877953676403
              ],
              [
                -78.8879488276,
                42.878766733195
              ],
              [
                -78.887902427964,
                42.878833512783
              ],
              [
                -78.887833364866,
                42.878843526925
              ],
              [
                -78.887898825503,
                42.878985810464
              ],
              [
                -78.888148852372,
                42.879509364053
              ],
              [
                -78.888675500126,
                42.880612129536
              ],
              [
                -78.889018426219,
                42.881218330314
              ],
              [
                -78.88946218015,
                42.882165664591
              ],
              [
                -78.889905947726,
                42.883112995149
              ],
              [
                -78.890405014754,
                42.884140902079
              ],
              [
                -78.890579689637,
                42.884185334751
              ],
              [
                -78.890700637476,
                42.88437520013
              ],
              [
                -78.89089207465,
                42.88437679524
              ],
              [
                -78.890573277735,
                42.884866975256
              ],
              [
                -78.889792584079,
                42.884573868488
              ],
              [
                -78.889775951315,
                42.884448463397
              ],
              [
                -78.889754264011,
                42.884284955504
              ],
              [
                -78.889674606606,
                42.883941259332
              ],
              [
                -78.889610168756,
                42.8837148808
              ],
              [
                -78.889463971537,
                42.883272240707
              ],
              [
                -78.889387911875,
                42.883109726994
              ],
              [
                -78.889261138834,
                42.882838854796
              ],
              [
                -78.889175029373,
                42.88265486776
              ],
              [
                -78.889163920437,
                42.882650160463
              ],
              [
                -78.889134871006,
                42.882570164136
              ],
              [
                -78.888801682172,
                42.881783984204
              ],
              [
                -78.888415011166,
                42.881280484333
              ],
              [
                -78.887945625553,
                42.8806964775
              ],
              [
                -78.887587103448,
                42.880334168264
              ],
              [
                -78.887119118912,
                42.880032691995
              ],
              [
                -78.886321551792,
                42.879671542863
              ],
              [
                -78.885805218347,
                42.879499148822
              ],
              [
                -78.885678328606,
                42.879552625068
              ],
              [
                -78.885585635066,
                42.879502967734
              ],
              [
                -78.885380455337,
                42.879526364992
              ],
              [
                -78.885413306342,
                42.879632417354
              ],
              [
                -78.885183031004,
                42.879689608237
              ],
              [
                -78.884274796425,
                42.88003018336
              ],
              [
                -78.884162673496,
                42.880098176616
              ],
              [
                -78.884248618743,
                42.880329507083
              ],
              [
                -78.88450264499,
                42.880309675188
              ],
              [
                -78.884688010873,
                42.880332526614
              ],
              [
                -78.884800412953,
                42.880356098318
              ],
              [
                -78.884926062448,
                42.880434022902
              ],
              [
                -78.885013887889,
                42.880544572083
              ],
              [
                -78.885047760818,
                42.880613421015
              ],
              [
                -78.885078991768,
                42.880676897165
              ],
              [
                -78.885160346404,
                42.880697611109
              ],
              [
                -78.885067387815,
                42.880737518168
              ],
              [
                -78.88480256388,
                42.880837123316
              ],
              [
                -78.883997200135,
                42.881140029987
              ],
              [
                -78.884150553637,
                42.881355455645
              ],
              [
                -78.884207373033,
                42.881332850276
              ],
              [
                -78.884343842006,
                42.881300154646
              ],
              [
                -78.884690002926,
                42.881217221086
              ],
              [
                -78.884816763214,
                42.881223774067
              ],
              [
                -78.884935888145,
                42.881241244223
              ],
              [
                -78.885010075524,
                42.881269320271
              ],
              [
                -78.88509129606,
                42.881324906556
              ],
              [
                -78.885179724063,
                42.881397027983
              ],
              [
                -78.885245341842,
                42.881496411534
              ],
              [
                -78.885353931903,
                42.881711460276
              ],
              [
                -78.885406451319,
                42.881831965105
              ],
              [
                -78.885493140244,
                42.882030869272
              ],
              [
                -78.885548479086,
                42.882157841891
              ],
              [
                -78.885576189769,
                42.882295341709
              ],
              [
                -78.885592119719,
                42.882306224759
              ],
              [
                -78.885506028187,
                42.882516329981
              ],
              [
                -78.884926817999,
                42.882717818337
              ],
              [
                -78.884830065155,
                42.882766785126
              ],
              [
                -78.884991144613,
                42.882965800692
              ],
              [
                -78.885651525303,
                42.882729739805
              ],
              [
                -78.886133118551,
                42.882953403082
              ],
              [
                -78.886642152524,
                42.882527236001
              ],
              [
                -78.886685068094,
                42.882491306933
              ],
              [
                -78.886886529034,
                42.882492993812
              ],
              [
                -78.887104235436,
                42.882670361638
              ],
              [
                -78.887097670994,
                42.882708399967
              ],
              [
                -78.887083391041,
                42.882791139526
              ],
              [
                -78.886364644391,
                42.883422052336
              ],
              [
                -78.886985630006,
                42.883800617876
              ],
              [
                -78.887769543656,
                42.88314049846
              ],
              [
                -78.887824956044,
                42.883093836589
              ],
              [
                -78.88805034149,
                42.88307024885
              ],
              [
                -78.888246542952,
                42.883164392111
              ],
              [
                -78.888345060256,
                42.883240939398
              ],
              [
                -78.888357687284,
                42.883389293973
              ],
              [
                -78.88835417816,
                42.883420453729
              ],
              [
                -78.888035922769,
                42.883725269478
              ],
              [
                -78.887548039408,
                42.884107308868
              ],
              [
                -78.887717789055,
                42.884229523824
              ],
              [
                -78.888098338865,
                42.884232703783
              ],
              [
                -78.888370395981,
                42.88447156539
              ],
              [
                -78.890264150187,
                42.886134181446
              ],
              [
                -78.889911793738,
                42.886370489547
              ],
              [
                -78.889839490196,
                42.886418980063
              ],
              [
                -78.889522690902,
                42.886709926167
              ],
              [
                -78.88998634808,
                42.887131083856
              ],
              [
                -78.890280513521,
                42.88693037693
              ],
              [
                -78.890553725467,
                42.88711933712
              ],
              [
                -78.890214465562,
                42.887349109565
              ],
              [
                -78.890661321451,
                42.88774443082
              ],
              [
                -78.890821625965,
                42.887766734598
              ],
              [
                -78.89158305956,
                42.887872669556
              ],
              [
                -78.891944619523,
                42.887922969456
              ],
              [
                -78.892301026152,
                42.88797255204
              ],
              [
                -78.892947161342,
                42.888516583145
              ],
              [
                -78.893264526187,
                42.888783792509
              ],
              [
                -78.893349988858,
                42.888855747208
              ],
              [
                -78.893466422456,
                42.888953779296
              ],
              [
                -78.893730838304,
                42.889176402347
              ],
              [
                -78.894167497902,
                42.88955400395
              ],
              [
                -78.894640874087,
                42.889955520143
              ],
              [
                -78.89547228229,
                42.890618348219
              ],
              [
                -78.896674246135,
                42.891495609283
              ],
              [
                -78.899346389202,
                42.893361762779
              ],
              [
                -78.90048432815,
                42.894154852589
              ],
              [
                -78.90049624732,
                42.894157737186
              ],
              [
                -78.90049711537,
                42.894164184864
              ],
              [
                -78.900689034866,
                42.894322900307
              ],
              [
                -78.900692379773,
                42.894329101659
              ],
              [
                -78.900946289853,
                42.894799928729
              ],
              [
                -78.901216145157,
                42.895248819355
              ],
              [
                -78.901224159648,
                42.895254249738
              ],
              [
                -78.901550622075,
                42.895875511439
              ],
              [
                -78.901616156044,
                42.895974285123
              ],
              [
                -78.901750670604,
                42.89623785847
              ],
              [
                -78.901961387602,
                42.896624768562
              ],
              [
                -78.901133384139,
                42.897079176969
              ],
              [
                -78.901891205326,
                42.897799195239
              ],
              [
                -78.901933247899,
                42.898014805253
              ],
              [
                -78.901950895079,
                42.898087712697
              ],
              [
                -78.90189330295,
                42.898094652524
              ],
              [
                -78.901963628086,
                42.89865633381
              ],
              [
                -78.901810959371,
                42.8986550788
              ],
              [
                -78.901861777579,
                42.898748837593
              ],
              [
                -78.901905219456,
                42.898837043624
              ],
              [
                -78.901986226342,
                42.898909090559
              ],
              [
                -78.902051808354,
                42.898947008921
              ],
              [
                -78.902029875061,
                42.899097316728
              ],
              [
                -78.902031158049,
                42.899346433779
              ],
              [
                -78.90201443582,
                42.899349557281
              ],
              [
                -78.90195188706,
                42.899574550546
              ],
              [
                -78.902006566566,
                42.900295694259
              ],
              [
                -78.902038857597,
                42.900373751567
              ],
              [
                -78.902043243029,
                42.900428068533
              ],
              [
                -78.902032966636,
                42.90047360326
              ],
              [
                -78.902010860135,
                42.901129387674
              ],
              [
                -78.90203759832,
                42.901372867717
              ],
              [
                -78.902077704778,
                42.901738087753
              ],
              [
                -78.902092039252,
                42.902047174295
              ]
            ]
          ]
        ]
      },
      "properties": {
        ":id": "row-hmm9.kqvp~2z7d",
        ":version": "rv-jj5x_a3em-6h6j",
        ":created_at": "2025-09-12T14:36:58.132Z",
        ":updated_at": "2025-09-12T14:36:58.132Z",
        "nbhdname": "Central",
        "nbhdnum": "1",
        "calcacres": "1473.49462724",
        "sqmiles": "2.30233536",
        "objectid_1": "26"
      }
    }
  ]
}