{
  "type": "FeatureCollection",
  "features": [
    {
      "type": "Feature",
      "geometry": {
        "type": "MultiPolygon",
        "coordinates": [
          [
            [
              [
                -78.843418986751,
                42.914677396177
              ],
              [
                -78.843582208373,
                42.92299945866
              ],
              [
                -78.843621208669,
                42.923171984751
              ],
              [
                -78.841482089306,
                42.924340482709
              ],
              [
                -78.839750111708,
                42.92542050932
              ],
              [
                -78.837320100932,
                42.92707650363
              ],
              [
                -78.834756741454,
                42.928337764636
              ],
              [
                -78.832376733092,
                42.929315291161
              ],
              [
                -78.830065074846,
                42.929718651328
              ],
              [
                -78.824826919594,
                42.929764352711
              ],
              [
                -78.822535721208,
                42.92991223358
              ],
              [
                -78.821318165712,
                42.930008469292
              ],
              [
                -78.82112492855,
                42.930085092118
              ],
              [
                -78.817185456918,
                42.922641352413
              ],
              [
                -78.819526136629,
                42.922621456687
              ],
              [
                -78.82153215825,
                42.922607441087
              ],
              [
                -78.823742100962,
                42.92258846119
              ],
              [
                -78.824293097753,
                42.92257552071
              ],
              [
                -78.824416198866,
                42.918886438781
              ],
              [
                -78.824276112269,
                42.914458490092
              ],
              [
                -78.829080108021,
                42.914508449086
              ],
              [
                -78.83241714585,
                42.914551482751
              ],
              [
                -78.835418171344,
                42.914586516535
              ],
              [
                -78.839122091098,
                42.914631449493
              ],
              [
                -78.843418986751,
                42.914677396177
              ]
            ]
          ]
        ]
      },
      "properties": {
        ":id": "row-zxsq-rpgn_ewxp",
        ":version": "rv-7u8q_u4eg_nmb4",
        ":created_at": "2025-09-12T14:36:58.132Z",
        ":updated_at": "2025-09-12T14:36:58.132Z",
        "nbhdname": "Delavan Grider",
        "nbhdnum": "19",
        "calcacres": "654.53761256",
        "sqmiles": "1.02271502",
        "objectid_1": "18"
      }
    }
  ]
}