{
  "type": "FeatureCollection",
  "features": [
    {
      "type": "Feature",
      "geometry": {
        "type": "MultiPolygon",
        "coordinates": [
          [
            [
              [
                -78.845983878162,
                42.868480440763
              ],
              [
                -78.845998146366,
                42.868483469697
              ],
              [
                -78.847553146346,
                42.868760469454
              ],
              [
                -78.854874149084,
                42.870063469317
              ],
              [
                -78.861634150875,
                42.871241470115
              ],
              [
                -78.864426152766,
                42.871729469695
              ],
              [
                -78.868014207445,
                42.87235342897
              ],
              [
                -78.869210155191,
                42.872558489138
              ],
              [
                -78.869860199398,
                42.872672443117
              ],
              [
                -78.871786181455,
                42.873015459116
              ],
              [
                -78.871447187807,
                42.874004477288
              ],
              [
                -78.870709193994,
                42.876297511391
              ],
              [
                -78.869887188901,
                42.878833425211
              ],
              [
                -78.869110167129,
                42.881578498234
              ],
              [
                -78.864776169939,
                42.880827429378
              ],
              [
                -78.859946103581,
                42.879992463436
              ],
              [
                -78.857518167123,
                42.879571467226
              ],
              [
                -78.854349132219,
                42.879021444802
              ],
              [
                -78.854097173902,
                42.879779502556
              ],
              [
                -78.85391517305,
                42.880646487913
              ],
              [
                -78.848937100313,
                42.879789483086
              ],
              [
                -78.845674203092,
                42.879217438584
              ],
              [
                -78.844088145121,
                42.878937462598
              ],
              [
                -78.844078718688,
                42.876350993182
              ],
              [
                -78.844094141754,
                42.874309503301
              ],
              [
                -78.844956090696,
                42.871653486585
              ],
              [
                -78.845983878162,
                42.868480440763
              ]
            ]
          ]
        ]
      },
      "properties": {
        ":id": "row-wz3u-gzph~ssnb",
        ":version": "rv-h5x6-zuqj.j5tk",
        ":created_at": "2025-09-12T14:36:58.132Z",
        ":updated_at": "2025-09-12T14:36:58.132Z",
        "nbhdname": "Ellicott",
        "nbhdnum": "30",
        "calcacres": "559.55770281",
        "sqmiles": "0.87430891",
        "objectid_1": "29"
      }
    }
  ]
}