{
  "type": "FeatureCollection",
  "features": [
    {
      "type": "Feature",
      "geometry": {
        "type": "MultiPolygon",
        "coordinates": [
          [
            [
              [
                -78.870239649606,
                42.915414886714
              ],
              [
                -78.869977217244,
                42.91540776353
              ],
              [
                -78.864485155757,
                42.915357477668
              ],
              [
                -78.864262792623,
                42.915347361374
              ],
              [
                -78.864641125078,
                42.914975505665
              ],
              [
                -78.865916195666,
                42.911257431396
              ],
              [
                -78.867592174997,
                42.905820471941
              ],
              [
                -78.868378156169,
                42.904027435624
              ],
              [
                -78.868974164896,
                42.902205438423
              ],
              [
                -78.873025167137,
                42.90224049631
              ],
              [
                -78.877140204094,
                42.902263514866
              ],
              [
                -78.88032316038,
                42.90228543505
              ],
              [
                -78.881689201963,
                42.902351511559
              ],
              [
                -78.881694044066,
                42.902343969502
              ],
              [
                -78.882021102081,
                42.903004445098
              ],
              [
                -78.881906184304,
                42.905430436691
              ],
              [
                -78.88267316327,
                42.905440492266
              ],
              [
                -78.883048186133,
                42.905892435688
              ],
              [
                -78.884498128695,
                42.907474463711
              ],
              [
                -78.885974171996,
                42.909053515103
              ],
              [
                -78.88543318423,
                42.909330491902
              ],
              [
                -78.886940134557,
                42.910928467649
              ],
              [
                -78.886141199704,
                42.911332437536
              ],
              [
                -78.887485105225,
                42.912989520984
              ],
              [
                -78.887296193558,
                42.913084452003
              ],
              [
                -78.888744901412,
                42.914619028241
              ],
              [
                -78.888153909518,
                42.914955130602
              ],
              [
                -78.88815713543,
                42.914974489297
              ],
              [
                -78.888154037138,
                42.915356259181
              ],
              [
                -78.886800163226,
                42.915389476837
              ],
              [
                -78.885669162697,
                42.91541947677
              ],
              [
                -78.882604161283,
                42.915497476269
              ],
              [
                -78.880833030483,
                42.915504217129
              ],
              [
                -78.877050159757,
                42.915473477194
              ],
              [
                -78.873518158266,
                42.915437477337
              ],
              [
                -78.870239649606,
                42.915414886714
              ]
            ]
          ]
        ]
      },
      "properties": {
        ":id": "row-iz49.yu2c.y42y",
        ":version": "rv-rkn6_rbgz~unbh",
        ":created_at": "2025-09-12T14:36:58.132Z",
        ":updated_at": "2025-09-12T14:36:58.132Z",
        "nbhdname": "Elmwood Bryant",
        "nbhdnum": "5",
        "calcacres": "543.31010802",
        "sqmiles": "0.84892204",
        "objectid_1": "22"
      }
    }
  ]
}