{
  "type": "FeatureCollection",
  "features": [
    {
      "type": "Feature",
      "geometry": {
        "type": "MultiPolygon",
        "coordinates": [
          [
            [
              [
                -78.873791160726,
                42.932947480144
              ],
              [
                -78.873197642413,
                42.932580813688
              ],
              [
                -78.87230616026,
                42.93270148004
              ],
              [
                -78.87178115972,
                42.932790480554
              ],
              [
                -78.870866159502,
                42.932719480648
              ],
              [
                -78.869876234502,
                42.932482519096
              ],
              [
                -78.868838600837,
                42.932167153002
              ],
              [
                -78.868618158136,
                42.932076480176
              ],
              [
                -78.868011158078,
                42.931681480679
              ],
              [
                -78.867326158307,
                42.931422480644
              ],
              [
                -78.866981158224,
                42.931224480243
              ],
              [
                -78.866929164916,
                42.93097842897
              ],
              [
                -78.866910157954,
                42.930888480624
              ],
              [
                -78.866539288334,
                42.930475449978
              ],
              [
                -78.866365863116,
                42.930248514169
              ],
              [
                -78.866097697695,
                42.929831446264
              ],
              [
                -78.865782157402,
                42.929492480276
              ],
              [
                -78.859883183383,
                42.927302571269
              ],
              [
                -78.853999129939,
                42.925312463508
              ],
              [
                -78.853998583477,
                42.925312155126
              ],
              [
                -78.857284147637,
                42.922205489164
              ],
              [
                -78.864262792623,
                42.915347361374
              ],
              [
                -78.864485155757,
                42.915357477668
              ],
              [
                -78.869977217244,
                42.91540776353
              ],
              [
                -78.870239649606,
                42.915414886714
              ],
              [
                -78.873518158266,
                42.915437477337
              ],
              [
                -78.877050159757,
                42.915473477194
              ],
              [
                -78.880833030483,
                42.915504217129
              ],
              [
                -78.882604161283,
                42.915497476269
              ],
              [
                -78.885669162697,
                42.91541947677
              ],
              [
                -78.886800163226,
                42.915389476837
              ],
              [
                -78.888154037138,
                42.915356259181
              ],
              [
                -78.88814217052,
                42.916818506096
              ],
              [
                -78.887911144977,
                42.9201824927
              ],
              [
                -78.886669132609,
                42.937030481101
              ],
              [
                -78.886610134079,
                42.937265636558
              ],
              [
                -78.885956991262,
                42.93732277866
              ],
              [
                -78.883764203344,
                42.937270492499
              ],
              [
                -78.882220163629,
                42.936969480514
              ],
              [
                -78.881192197583,
                42.936456498173
              ],
              [
                -78.880379162765,
                42.935575480558
              ],
              [
                -78.879841130589,
                42.934966518203
              ],
              [
                -78.879359162225,
                42.934695480329
              ],
              [
                -78.878501838511,
                42.93435999656
              ],
              [
                -78.8774772173,
                42.934195435225
              ],
              [
                -78.876048246355,
                42.934030801997
              ],
              [
                -78.874678165754,
                42.93393245762
              ],
              [
                -78.87397316037,
                42.933328480711
              ],
              [
                -78.873791160726,
                42.932947480144
              ]
            ]
          ]
        ]
      },
      "properties": {
        ":id": "row-brsu~77fd~me4x",
        ":version": "rv-46n5.hwm6.swj7",
        ":created_at": "2025-09-12T14:36:58.132Z",
        ":updated_at": "2025-09-12T14:36:58.132Z",
        "nbhdname": "Elmwood Bidwell",
        "nbhdnum": "7",
        "calcacres": "1118.87303566",
        "sqmiles": "1.74823912",
        "objectid_1": "16"
      }
    }
  ]
}