{
  "type": "FeatureCollection",
  "features": [
    {
      "type": "Feature",
      "geometry": {
        "type": "MultiPolygon",
        "coordinates": [
          [
            [
              [
                -78.834756741454,
                42.928337764636
              ],
              [
                -78.837320100932,
                42.92707650363
              ],
              [
                -78.839750111708,
                42.92542050932
              ],
              [
                -78.841482089306,
                42.924340482709
              ],
              [
                -78.842700364738,
                42.923675007543
              ],
              [
                -78.842707879429,
                42.925637390461
              ],
              [
                -78.842715125712,
                42.927529484445
              ],
              [
                -78.845607147067,
                42.927582496668
              ],
              [
                -78.846135166054,
                42.927587510718
              ],
              [
                -78.849589577366,
                42.927635685655
              ],
              [
                -78.850602635753,
                42.92764905442
              ],
              [
                -78.850616415367,
                42.927645798574
              ],
              [
                -78.850639097875,
                42.927640437939
              ],
              [
                -78.851057041965,
                42.92765152056
              ],
              [
                -78.851508152447,
                42.927663479994
              ],
              [
                -78.851510408182,
                42.927663872605
              ],
              [
                -78.851294182246,
                42.927867500968
              ],
              [
                -78.850970206168,
                42.928173468061
              ],
              [
                -78.849554204143,
                42.929511488259
              ],
              [
                -78.848516131252,
                42.93049948702
              ],
              [
                -78.848157122391,
                42.930837509126
              ],
              [
                -78.847485178107,
                42.931472471195
              ],
              [
                -78.846660151059,
                42.932252500101
              ],
              [
                -78.846412207935,
                42.932487467323
              ],
              [
                -78.845831119275,
                42.933035447943
              ],
              [
                -78.844799205777,
                42.933988451962
              ],
              [
                -78.843914102001,
                42.934800463768
              ],
              [
                -78.842870123941,
                42.935755476964
              ],
              [
                -78.842122161145,
                42.936448516285
              ],
              [
                -78.841576128265,
                42.936956490987
              ],
              [
                -78.8403230891,
                42.938111456668
              ],
              [
                -78.839308150049,
                42.939046464333
              ],
              [
                -78.839077109997,
                42.939258518471
              ],
              [
                -78.837995855904,
                42.94025409023
              ],
              [
                -78.837619742956,
                42.940249892333
              ],
              [
                -78.831507147478,
                42.940181495951
              ],
              [
                -78.826364237471,
                42.940112299371
              ],
              [
                -78.824902804024,
                42.937221661697
              ],
              [
                -78.82112492855,
                42.930085092118
              ],
              [
                -78.821318165712,
                42.930008469292
              ],
              [
                -78.822535721208,
                42.92991223358
              ],
              [
                -78.824826919594,
                42.929764352711
              ],
              [
                -78.830065074846,
                42.929718651328
              ],
              [
                -78.832376733092,
                42.929315291161
              ],
              [
                -78.834756741454,
                42.928337764636
              ]
            ]
          ]
        ]
      },
      "properties": {
        ":id": "row-ahvf~w5gm~mixg",
        ":version": "rv-ahnr~p6xw.93wd",
        ":created_at": "2025-09-12T14:36:58.132Z",
        ":updated_at": "2025-09-12T14:36:58.132Z",
        "nbhdname": "Fillmore-Leroy",
        "nbhdnum": "17",
        "calcacres": "575.85549312",
        "sqmiles": "0.89977421",
        "objectid_1": "35"
      }
    }
  ]
}