{
  "type": "FeatureCollection",
  "features": [
    {
      "type": "Feature",
      "geometry": {
        "type": "MultiPolygon",
        "coordinates": [
          [
            [
              [
                -78.84818159001,
                42.860334546516
              ],
              [
                -78.848201664653,
                42.860368920242
              ],
              [
                -78.848451861817,
                42.860797333339
              ],
              [
                -78.848551286927,
                42.861012601095
              ],
              [
                -78.848642078812,
                42.861277150053
              ],
              [
                -78.848729115691,
                42.861700784835
              ],
              [
                -78.848770392106,
                42.861849467762
              ],
              [
                -78.848820688552,
                42.861932415933
              ],
              [
                -78.848972487297,
                42.862142864444
              ],
              [
                -78.849332687223,
                42.862696171459
              ],
              [
                -78.850100584995,
                42.863057106709
              ],
              [
                -78.850272764358,
                42.863037338845
              ],
              [
                -78.850319477189,
                42.863047343067
              ],
              [
                -78.850535649604,
                42.86312115965
              ],
              [
                -78.850639137141,
                42.863156497727
              ],
              [
                -78.850665139571,
                42.863151480372
              ],
              [
                -78.850719197029,
                42.863113464524
              ],
              [
                -78.850760381758,
                42.863126733093
              ],
              [
                -78.85066353387,
                42.863245326394
              ],
              [
                -78.850786783701,
                42.863400532812
              ],
              [
                -78.850985579603,
                42.863518289554
              ],
              [
                -78.851215650592,
                42.863576078938
              ],
              [
                -78.851505430843,
                42.863634623747
              ],
              [
                -78.851886068733,
                42.86363944441
              ],
              [
                -78.85225281672,
                42.863600190757
              ],
              [
                -78.852378172389,
                42.863607433852
              ],
              [
                -78.852745099501,
                42.863593448447
              ],
              [
                -78.853338158001,
                42.86352943169
              ],
              [
                -78.853549183479,
                42.863484503191
              ],
              [
                -78.853760194171,
                42.863414106943
              ],
              [
                -78.853843166527,
                42.863364476824
              ],
              [
                -78.853949175364,
                42.863323447873
              ],
              [
                -78.854050142165,
                42.863315451939
              ],
              [
                -78.854342203066,
                42.863337479109
              ],
              [
                -78.854633157866,
                42.863304439526
              ],
              [
                -78.854986200645,
                42.86324247438
              ],
              [
                -78.855055202478,
                42.863218448351
              ],
              [
                -78.855166133409,
                42.86319751044
              ],
              [
                -78.855231537229,
                42.863201349443
              ],
              [
                -78.855295736918,
                42.863214951521
              ],
              [
                -78.855406094526,
                42.863206435159
              ],
              [
                -78.855843801941,
                42.863118648416
              ],
              [
                -78.856059107633,
                42.863075465944
              ],
              [
                -78.856347109566,
                42.863028475533
              ],
              [
                -78.856506013713,
                42.862968075737
              ],
              [
                -78.856638275698,
                42.862905757923
              ],
              [
                -78.856835050593,
                42.862809968496
              ],
              [
                -78.856974169361,
                42.862736488213
              ],
              [
                -78.857116129168,
                42.862616450269
              ],
              [
                -78.857185121758,
                42.862529487263
              ],
              [
                -78.857244159092,
                42.862408465466
              ],
              [
                -78.857288133505,
                42.862277507872
              ],
              [
                -78.857291176061,
                42.862157474326
              ],
              [
                -78.85725114493,
                42.861833429226
              ],
              [
                -78.85728818114,
                42.861414494105
              ],
              [
                -78.85733114184,
                42.861308511178
              ],
              [
                -78.857346132342,
                42.861199510099
              ],
              [
                -78.857324200835,
                42.86107545737
              ],
              [
                -78.857196200966,
                42.860773468463
              ],
              [
                -78.85709817498,
                42.86045948243
              ],
              [
                -78.857021214882,
                42.860304070364
              ],
              [
                -78.85604417612,
                42.858900469087
              ],
              [
                -78.855982115107,
                42.858835484581
              ],
              [
                -78.855800146469,
                42.858692429707
              ],
              [
                -78.855494161194,
                42.858507456862
              ],
              [
                -78.855239119479,
                42.858295465244
              ],
              [
                -78.854958200544,
                42.857978461756
              ],
              [
                -78.854892200434,
                42.857836446371
              ],
              [
                -78.854761129496,
                42.857396439042
              ],
              [
                -78.854761187333,
                42.857334491582
              ],
              [
                -78.854790192302,
                42.857279490965
              ],
              [
                -78.854845146946,
                42.857228477128
              ],
              [
                -78.856438104707,
                42.856977480828
              ],
              [
                -78.85675512372,
                42.856911503662
              ],
              [
                -78.857043115379,
                42.85682750675
              ],
              [
                -78.858053154417,
                42.856423460418
              ],
              [
                -78.859475141564,
                42.855884489159
              ],
              [
                -78.859672145218,
                42.855862441714
              ],
              [
                -78.859763151865,
                42.855873504581
              ],
              [
                -78.86023814868,
                42.856062482999
              ],
              [
                -78.860662508679,
                42.856260844537
              ],
              [
                -78.86081381305,
                42.856371692918
              ],
              [
                -78.860936557303,
                42.856548831953
              ],
              [
                -78.860999860425,
                42.856714251824
              ],
              [
                -78.861030869325,
                42.856983520059
              ],
              [
                -78.86109391641,
                42.857159909753
              ],
              [
                -78.861275343425,
                42.857699952256
              ],
              [
                -78.861431159968,
                42.858058589795
              ],
              [
                -78.861576433843,
                42.85854878936
              ],
              [
                -78.861613366169,
                42.858883981864
              ],
              [
                -78.861620204972,
                42.858998377759
              ],
              [
                -78.861607970434,
                42.859432646246
              ],
              [
                -78.861578894516,
                42.859717624238
              ],
              [
                -78.861489214541,
                42.860040247493
              ],
              [
                -78.861423208112,
                42.860308297246
              ],
              [
                -78.86131126615,
                42.860625153533
              ],
              [
                -78.861169339681,
                42.860947119225
              ],
              [
                -78.860991001257,
                42.861230214834
              ],
              [
                -78.860723739864,
                42.861484755288
              ],
              [
                -78.860412343934,
                42.861711302259
              ],
              [
                -78.860339406032,
                42.861744480142
              ],
              [
                -78.860334103848,
                42.861545511444
              ],
              [
                -78.860249307127,
                42.860752295723
              ],
              [
                -78.860198158124,
                42.860702486558
              ],
              [
                -78.860105495011,
                42.860684903212
              ],
              [
                -78.86010301606,
                42.86057701526
              ],
              [
                -78.859834216232,
                42.860579118579
              ],
              [
                -78.859926054986,
                42.863982424354
              ],
              [
                -78.860082272854,
                42.864006339458
              ],
              [
                -78.860184888422,
                42.863964942048
              ],
              [
                -78.860582106666,
                42.864017494804
              ],
              [
                -78.861103188305,
                42.864104430555
              ],
              [
                -78.861581098316,
                42.864162479781
              ],
              [
                -78.861748174288,
                42.86416647033
              ],
              [
                -78.862295188384,
                42.864137456909
              ],
              [
                -78.862726151116,
                42.864141443737
              ],
              [
                -78.863108145749,
                42.864086488388
              ],
              [
                -78.864177117265,
                42.863864433124
              ],
              [
                -78.864370128362,
                42.863758507956
              ],
              [
                -78.865748178687,
                42.86285547984
              ],
              [
                -78.865945164136,
                42.862709440724
              ],
              [
                -78.866561212606,
                42.862314499821
              ],
              [
                -78.866645118552,
                42.862272495629
              ],
              [
                -78.866798202317,
                42.862250480693
              ],
              [
                -78.867392097514,
                42.862190504898
              ],
              [
                -78.867424696998,
                42.862183730833
              ],
              [
                -78.867591126634,
                42.862180755714
              ],
              [
                -78.867604194802,
                42.862184499718
              ],
              [
                -78.867641178837,
                42.862203858174
              ],
              [
                -78.868071472395,
                42.862562517457
              ],
              [
                -78.868455143966,
                42.86288231142
              ],
              [
                -78.868537371357,
                42.863750791415
              ],
              [
                -78.868575770407,
                42.8643566117
              ],
              [
                -78.868589882495,
                42.864579271707
              ],
              [
                -78.868545201636,
                42.864884492043
              ],
              [
                -78.868623150102,
                42.865696424754
              ],
              [
                -78.868649247464,
                42.866028067654
              ],
              [
                -78.867925674866,
                42.866376575962
              ],
              [
                -78.86799839144,
                42.866459795684
              ],
              [
                -78.868616576828,
                42.866354398008
              ],
              [
                -78.86864710133,
                42.866396466904
              ],
              [
                -78.868687174242,
                42.866432475983
              ],
              [
                -78.86874496576,
                42.866470142306
              ],
              [
                -78.868822177529,
                42.86652046596
              ],
              [
                -78.868862202231,
                42.866563500457
              ],
              [
                -78.868970561979,
                42.86673923866
              ],
              [
                -78.869413037608,
                42.867686506971
              ],
              [
                -78.869441144183,
                42.867746678916
              ],
              [
                -78.869444176006,
                42.867754448386
              ],
              [
                -78.86945646876,
                42.86777948354
              ],
              [
                -78.869865969324,
                42.86865613044
              ],
              [
                -78.870232859862,
                42.869245687322
              ],
              [
                -78.870451186308,
                42.869667511208
              ],
              [
                -78.8705701415,
                42.869847247933
              ],
              [
                -78.87062720424,
                42.869933465142
              ],
              [
                -78.87068515288,
                42.870059446635
              ],
              [
                -78.8707012036,
                42.870157493958
              ],
              [
                -78.87073812027,
                42.870254475247
              ],
              [
                -78.870853128223,
                42.870390499445
              ],
              [
                -78.871022152236,
                42.870640482306
              ],
              [
                -78.871150095997,
                42.87079344563
              ],
              [
                -78.871256916258,
                42.870891177324
              ],
              [
                -78.871322707364,
                42.870996889093
              ],
              [
                -78.871523328809,
                42.8711306204
              ],
              [
                -78.871771110898,
                42.871341452028
              ],
              [
                -78.871963153462,
                42.871456498398
              ],
              [
                -78.872107113553,
                42.871593431361
              ],
              [
                -78.872158131832,
                42.871616463651
              ],
              [
                -78.87219314953,
                42.871620500138
              ],
              [
                -78.872236161424,
                42.871609498894
              ],
              [
                -78.872252853336,
                42.871616900731
              ],
              [
                -78.872375308964,
                42.871701346904
              ],
              [
                -78.872350086019,
                42.871802202431
              ],
              [
                -78.872348522683,
                42.871803427982
              ],
              [
                -78.872282163776,
                42.871855453815
              ],
              [
                -78.872197110717,
                42.871959447232
              ],
              [
                -78.872110812571,
                42.872093350986
              ],
              [
                -78.872079177925,
                42.872142436299
              ],
              [
                -78.871990110918,
                42.872393505767
              ],
              [
                -78.871917846797,
                42.872613902664
              ],
              [
                -78.871877595789,
                42.872736662404
              ],
              [
                -78.871820141885,
                42.872918994618
              ],
              [
                -78.871786181455,
                42.873015459116
              ],
              [
                -78.869860199398,
                42.872672443117
              ],
              [
                -78.869210155191,
                42.872558489138
              ],
              [
                -78.868014207445,
                42.87235342897
              ],
              [
                -78.864426152766,
                42.871729469695
              ],
              [
                -78.861634150875,
                42.871241470115
              ],
              [
                -78.854874149084,
                42.870063469317
              ],
              [
                -78.847553146346,
                42.868760469454
              ],
              [
                -78.845998146366,
                42.868483469697
              ],
              [
                -78.845983878162,
                42.868480440763
              ],
              [
                -78.845986139607,
                42.868473460629
              ],
              [
                -78.845746006733,
                42.86842993352
              ],
              [
                -78.843503165068,
                42.868030514146
              ],
              [
                -78.846775145282,
                42.862353468459
              ],
              [
                -78.84818159001,
                42.860334546516
              ]
            ]
          ]
        ]
      },
      "properties": {
        ":id": "row-gprs.k3bt~ekr7",
        ":version": "rv-unwq-hfzb_w7r6",
        ":created_at": "2025-09-12T14:36:58.132Z",
        ":updated_at": "2025-09-12T14:36:58.132Z",
        "nbhdname": "First Ward",
        "nbhdnum": "26",
        "calcacres": "482.61876507",
        "sqmiles": "0.75409182",
        "objectid_1": "28"
      }
    }
  ]
}