{
  "type": "FeatureCollection",
  "features": [
    {
      "type": "Feature",
      "geometry": {
        "type": "MultiPolygon",
        "coordinates": [
          [
            [
              [
                -78.871876773649,
                42.893332556917
              ],
              [
                -78.87125915004,
                42.895194486334
              ],
              [
                -78.870731187353,
                42.89681250784
              ],
              [
                -78.868974164896,
                42.902205438423
              ],
              [
                -78.868378156169,
                42.904027435624
              ],
              [
                -78.867016147847,
                42.904012474028
              ],
              [
                -78.866772196739,
                42.904071507018
              ],
              [
                -78.8660211617,
                42.903971487922
              ],
              [
                -78.862577184364,
                42.903952496965
              ],
              [
                -78.859740166145,
                42.903909488
              ],
              [
                -78.853980179787,
                42.903839480881
              ],
              [
                -78.848086101601,
                42.903775496795
              ],
              [
                -78.847068125456,
                42.903756458106
              ],
              [
                -78.845649763961,
                42.903723106654
              ],
              [
                -78.846710358633,
                42.902129584239
              ],
              [
                -78.848574203154,
                42.900162429421
              ],
              [
                -78.850994945779,
                42.898492090634
              ],
              [
                -78.852565717649,
                42.897383959139
              ],
              [
                -78.858877389489,
                42.895041168056
              ],
              [
                -78.860423911611,
                42.894412273292
              ],
              [
                -78.864376177598,
                42.892917493074
              ],
              [
                -78.865598126258,
                42.892398440374
              ],
              [
                -78.869654163132,
                42.892952516462
              ],
              [
                -78.871876773649,
                42.893332556917
              ]
            ]
          ]
        ]
      },
      "properties": {
        ":id": "row-sxms_6uns_xt3m",
        ":version": "rv-in55~6gst_vcgp",
        ":created_at": "2025-09-12T14:36:58.132Z",
        ":updated_at": "2025-09-12T14:36:58.132Z",
        "nbhdname": "Fruit Belt",
        "nbhdnum": "28",
        "calcacres": "435.2780739",
        "sqmiles": "0.68012199",
        "objectid_1": "25"
      }
    }
  ]
}