{
  "type": "FeatureCollection",
  "features": [
    {
      "type": "Feature",
      "geometry": {
        "type": "MultiPolygon",
        "coordinates": [
          [
            [
              [
                -78.803965800805,
                42.898665255553
              ],
              [
                -78.805963078792,
                42.897781449258
              ],
              [
                -78.806388784109,
                42.897824083298
              ],
              [
                -78.806634043804,
                42.897831800798
              ],
              [
                -78.808743194082,
                42.897623490215
              ],
              [
                -78.809440155547,
                42.897532468245
              ],
              [
                -78.81180951508,
                42.897223326651
              ],
              [
                -78.813996177575,
                42.896935498307
              ],
              [
                -78.815215147157,
                42.896776513534
              ],
              [
                -78.81558018047,
                42.896732456768
              ],
              [
                -78.815910132021,
                42.89668948016
              ],
              [
                -78.816669158746,
                42.896590490356
              ],
              [
                -78.816914124026,
                42.896559441823
              ],
              [
                -78.817690171806,
                42.896460506844
              ],
              [
                -78.818968142288,
                42.896295459462
              ],
              [
                -78.819914141733,
                42.89617444525
              ],
              [
                -78.820057102747,
                42.896155442242
              ],
              [
                -78.820857137596,
                42.89605244281
              ],
              [
                -78.821121145159,
                42.896018498365
              ],
              [
                -78.821770132202,
                42.895936477958
              ],
              [
                -78.822106135327,
                42.895890490253
              ],
              [
                -78.822678158189,
                42.895813469279
              ],
              [
                -78.823628123018,
                42.895689500267
              ],
              [
                -78.824577156107,
                42.895556461008
              ],
              [
                -78.824739156062,
                42.895532493223
              ],
              [
                -78.825468081762,
                42.895426438203
              ],
              [
                -78.825940114057,
                42.895356438738
              ],
              [
                -78.826353186474,
                42.895295433277
              ],
              [
                -78.827248146724,
                42.895161481091
              ],
              [
                -78.82811211871,
                42.895031440214
              ],
              [
                -78.828258194644,
                42.895009440571
              ],
              [
                -78.828723486781,
                42.894939804135
              ],
              [
                -78.828725076308,
                42.894979713837
              ],
              [
                -78.828961145542,
                42.900907491786
              ],
              [
                -78.828975088123,
                42.90354143477
              ],
              [
                -78.828985204324,
                42.906524490751
              ],
              [
                -78.828335150304,
                42.906792515248
              ],
              [
                -78.824236172003,
                42.908434514244
              ],
              [
                -78.824265181571,
                42.910327484116
              ],
              [
                -78.824276112269,
                42.914458490092
              ],
              [
                -78.824416198866,
                42.918886438781
              ],
              [
                -78.824293097753,
                42.92257552071
              ],
              [
                -78.823742100962,
                42.92258846119
              ],
              [
                -78.82153215825,
                42.922607441087
              ],
              [
                -78.819526136629,
                42.922621456687
              ],
              [
                -78.817185456918,
                42.922641352413
              ],
              [
                -78.815992570425,
                42.920386976462
              ],
              [
                -78.812110191363,
                42.913291445397
              ],
              [
                -78.807546472123,
                42.905706854889
              ],
              [
                -78.807546113315,
                42.905706177727
              ],
              [
                -78.805247418711,
                42.901363071978
              ],
              [
                -78.803965800805,
                42.898665255553
              ]
            ]
          ]
        ]
      },
      "properties": {
        ":id": "row-vdx5_a9ne.quy6",
        ":version": "rv-hsu8~8ggf.v5n5",
        ":created_at": "2025-09-12T14:36:58.132Z",
        ":updated_at": "2025-09-12T14:36:58.132Z",
        "nbhdname": "Genesee-Moselle",
        "nbhdnum": "23",
        "calcacres": "946.94187391",
        "sqmiles": "1.47959668",
        "objectid_1": "31"
      }
    }
  ]
}