{
  "type": "FeatureCollection",
  "features": [
    {
      "type": "Feature",
      "geometry": {
        "type": "MultiPolygon",
        "coordinates": [
          [
            [
              [
                -78.87837442343,
                42.944111655514
              ],
              [
                -78.878378219725,
                42.942746858392
              ],
              [
                -78.87857912911,
                42.940573448869
              ],
              [
                -78.878606108037,
                42.938579476513
              ],
              [
                -78.878440294995,
                42.937123752682
              ],
              [
                -78.87829160566,
                42.936342143059
              ],
              [
                -78.878193181114,
                42.935817470744
              ],
              [
                -78.877839056902,
                42.934829969194
              ],
              [
                -78.877476708587,
                42.934195377118
              ],
              [
                -78.8774772173,
                42.934195435225
              ],
              [
                -78.878501838511,
                42.93435999656
              ],
              [
                -78.879359162225,
                42.934695480329
              ],
              [
                -78.879841130589,
                42.934966518203
              ],
              [
                -78.880379162765,
                42.935575480558
              ],
              [
                -78.881192197583,
                42.936456498173
              ],
              [
                -78.882220163629,
                42.936969480514
              ],
              [
                -78.883764203344,
                42.937270492499
              ],
              [
                -78.885956991262,
                42.93732277866
              ],
              [
                -78.887574955145,
                42.937181219901
              ],
              [
                -78.888301164644,
                42.936913480352
              ],
              [
                -78.889267648316,
                42.936274771315
              ],
              [
                -78.890829052282,
                42.935173902402
              ],
              [
                -78.892026165998,
                42.934329479462
              ],
              [
                -78.892655824095,
                42.933741748106
              ],
              [
                -78.892975166436,
                42.933287479873
              ],
              [
                -78.893105937925,
                42.932967759548
              ],
              [
                -78.893350166419,
                42.93232447906
              ],
              [
                -78.89371616644,
                42.931625479446
              ],
              [
                -78.894400228751,
                42.930981040095
              ],
              [
                -78.895103165724,
                42.930482486289
              ],
              [
                -78.895863823279,
                42.929537772351
              ],
              [
                -78.896566174264,
                42.928685916066
              ],
              [
                -78.896924644013,
                42.928439477374
              ],
              [
                -78.89759718517,
                42.928056510587
              ],
              [
                -78.897623380232,
                42.928049111817
              ],
              [
                -78.896008855595,
                42.943813136618
              ],
              [
                -78.878422134624,
                42.944074457251
              ],
              [
                -78.878421946911,
                42.944138803176
              ],
              [
                -78.87837442343,
                42.944111655514
              ]
            ]
          ]
        ]
      },
      "properties": {
        ":id": "row-n24y_zbtv-gitf",
        ":version": "rv-2aa7~59jz_9552",
        ":created_at": "2025-09-12T14:36:58.132Z",
        ":updated_at": "2025-09-12T14:36:58.132Z",
        "nbhdname": "Grant-Amherst",
        "nbhdnum": "9",
        "calcacres": "368.98144881",
        "sqmiles": "0.57653351",
        "objectid_1": "10"
      }
    }
  ]
}