{
  "type": "FeatureCollection",
  "features": [
    {
      "type": "Feature",
      "geometry": {
        "type": "MultiPolygon",
        "coordinates": [
          [
            [
              [
                -78.850602635753,
                42.92764905442
              ],
              [
                -78.849589577366,
                42.927635685655
              ],
              [
                -78.846135166054,
                42.927587510718
              ],
              [
                -78.845607147067,
                42.927582496668
              ],
              [
                -78.842715125712,
                42.927529484445
              ],
              [
                -78.842700364738,
                42.923675007543
              ],
              [
                -78.843621208669,
                42.923171984751
              ],
              [
                -78.843582208373,
                42.92299945866
              ],
              [
                -78.843418986751,
                42.914677396177
              ],
              [
                -78.843618153924,
                42.914679521745
              ],
              [
                -78.849110125435,
                42.914733502384
              ],
              [
                -78.853992156952,
                42.914971472285
              ],
              [
                -78.853997189712,
                42.922135475947
              ],
              [
                -78.853996237723,
                42.922880588521
              ],
              [
                -78.853996135641,
                42.922960522605
              ],
              [
                -78.853996162817,
                42.9237714863
              ],
              [
                -78.853994112832,
                42.924582520507
              ],
              [
                -78.853996174241,
                42.924880474667
              ],
              [
                -78.853997795102,
                42.925117245747
              ],
              [
                -78.854015112185,
                42.925296527899
              ],
              [
                -78.851961151978,
                42.927238446763
              ],
              [
                -78.851904459483,
                42.927302665261
              ],
              [
                -78.851891880438,
                42.9273036454
              ],
              [
                -78.85151096231,
                42.927663969431
              ],
              [
                -78.851508152447,
                42.927663479994
              ],
              [
                -78.850639097875,
                42.927640437939
              ],
              [
                -78.850602635753,
                42.92764905442
              ]
            ]
          ]
        ]
      },
      "properties": {
        ":id": "row-pu5y.ut7w-umqn",
        ":version": "rv-xu77~cwyq~az72",
        ":created_at": "2025-09-12T14:36:58.132Z",
        ":updated_at": "2025-09-12T14:36:58.132Z",
        "nbhdname": "Hamlin Park",
        "nbhdnum": "20",
        "calcacres": "302.76909585",
        "sqmiles": "0.47307671",
        "objectid_1": "17"
      }
    }
  ]
}