{
  "type": "FeatureCollection",
  "features": [
    {
      "type": "Feature",
      "geometry": {
        "type": "MultiPolygon",
        "coordinates": [
          [
            [
              [
                -78.866394960498,
                42.85313631718
              ],
              [
                -78.860936557303,
                42.856548831953
              ],
              [
                -78.86081381305,
                42.856371692918
              ],
              [
                -78.860662508679,
                42.856260844537
              ],
              [
                -78.86023814868,
                42.856062482999
              ],
              [
                -78.859763151865,
                42.855873504581
              ],
              [
                -78.859672145218,
                42.855862441714
              ],
              [
                -78.859475141564,
                42.855884489159
              ],
              [
                -78.858053154417,
                42.856423460418
              ],
              [
                -78.857043115379,
                42.85682750675
              ],
              [
                -78.85675512372,
                42.856911503662
              ],
              [
                -78.856438104707,
                42.856977480828
              ],
              [
                -78.854845146946,
                42.857228477128
              ],
              [
                -78.854790192302,
                42.857279490965
              ],
              [
                -78.854761187333,
                42.857334491582
              ],
              [
                -78.854761129496,
                42.857396439042
              ],
              [
                -78.854892200434,
                42.857836446371
              ],
              [
                -78.854958200544,
                42.857978461756
              ],
              [
                -78.855239119479,
                42.858295465244
              ],
              [
                -78.855494161194,
                42.858507456862
              ],
              [
                -78.855800146469,
                42.858692429707
              ],
              [
                -78.855982115107,
                42.858835484581
              ],
              [
                -78.85604417612,
                42.858900469087
              ],
              [
                -78.857021214882,
                42.860304070364
              ],
              [
                -78.85709817498,
                42.86045948243
              ],
              [
                -78.857196200966,
                42.860773468463
              ],
              [
                -78.857324200835,
                42.86107545737
              ],
              [
                -78.857346132342,
                42.861199510099
              ],
              [
                -78.85733114184,
                42.861308511178
              ],
              [
                -78.85728818114,
                42.861414494105
              ],
              [
                -78.85725114493,
                42.861833429226
              ],
              [
                -78.857291176061,
                42.862157474326
              ],
              [
                -78.857288133505,
                42.862277507872
              ],
              [
                -78.857244159092,
                42.862408465466
              ],
              [
                -78.857185121758,
                42.862529487263
              ],
              [
                -78.857116129168,
                42.862616450269
              ],
              [
                -78.856974169361,
                42.862736488213
              ],
              [
                -78.856835050593,
                42.862809968496
              ],
              [
                -78.856638275698,
                42.862905757923
              ],
              [
                -78.856506013713,
                42.862968075737
              ],
              [
                -78.856347109566,
                42.863028475533
              ],
              [
                -78.856059107633,
                42.863075465944
              ],
              [
                -78.855843801941,
                42.863118648416
              ],
              [
                -78.855406094526,
                42.863206435159
              ],
              [
                -78.855295736918,
                42.863214951521
              ],
              [
                -78.855231537229,
                42.863201349443
              ],
              [
                -78.855166133409,
                42.86319751044
              ],
              [
                -78.855055202478,
                42.863218448351
              ],
              [
                -78.854986200645,
                42.86324247438
              ],
              [
                -78.854633157866,
                42.863304439526
              ],
              [
                -78.854342203066,
                42.863337479109
              ],
              [
                -78.854050142165,
                42.863315451939
              ],
              [
                -78.853949175364,
                42.863323447873
              ],
              [
                -78.853843166527,
                42.863364476824
              ],
              [
                -78.853760194171,
                42.863414106943
              ],
              [
                -78.853549183479,
                42.863484503191
              ],
              [
                -78.853338158001,
                42.86352943169
              ],
              [
                -78.852745099501,
                42.863593448447
              ],
              [
                -78.852378172389,
                42.863607433852
              ],
              [
                -78.85225281672,
                42.863600190757
              ],
              [
                -78.851886068733,
                42.86363944441
              ],
              [
                -78.851505430843,
                42.863634623747
              ],
              [
                -78.851215650592,
                42.863576078938
              ],
              [
                -78.850985579603,
                42.863518289554
              ],
              [
                -78.850786783701,
                42.863400532812
              ],
              [
                -78.85066353387,
                42.863245326394
              ],
              [
                -78.850760381758,
                42.863126733093
              ],
              [
                -78.850719197029,
                42.863113464524
              ],
              [
                -78.850665139571,
                42.863151480372
              ],
              [
                -78.850639137141,
                42.863156497727
              ],
              [
                -78.850535649604,
                42.86312115965
              ],
              [
                -78.850319477189,
                42.863047343067
              ],
              [
                -78.850272764358,
                42.863037338845
              ],
              [
                -78.850100584995,
                42.863057106709
              ],
              [
                -78.849332687223,
                42.862696171459
              ],
              [
                -78.848972487297,
                42.862142864444
              ],
              [
                -78.848820688552,
                42.861932415933
              ],
              [
                -78.848770392106,
                42.861849467762
              ],
              [
                -78.848729115691,
                42.861700784835
              ],
              [
                -78.848642078812,
                42.861277150053
              ],
              [
                -78.848551286927,
                42.861012601095
              ],
              [
                -78.848451861817,
                42.860797333339
              ],
              [
                -78.848201664653,
                42.860368920242
              ],
              [
                -78.84818159001,
                42.860334546516
              ],
              [
                -78.848064426521,
                42.860133925605
              ],
              [
                -78.847896669836,
                42.859967173681
              ],
              [
                -78.847663174168,
                42.859739223744
              ],
              [
                -78.847517161254,
                42.859600183143
              ],
              [
                -78.847134086696,
                42.859068525551
              ],
              [
                -78.84674291198,
                42.858564199046
              ],
              [
                -78.846416695106,
                42.858153983784
              ],
              [
                -78.846249080348,
                42.857981741274
              ],
              [
                -78.84613227608,
                42.857870510016
              ],
              [
                -78.845977766348,
                42.857775255943
              ],
              [
                -78.845815662825,
                42.857685396124
              ],
              [
                -78.845680147721,
                42.857693444163
              ],
              [
                -78.845564175508,
                42.857741464175
              ],
              [
                -78.845444127264,
                42.857818432999
              ],
              [
                -78.845265115847,
                42.857986431619
              ],
              [
                -78.845178088102,
                42.85809848478
              ],
              [
                -78.845142165476,
                42.858162449733
              ],
              [
                -78.845131161225,
                42.858237461099
              ],
              [
                -78.845189160943,
                42.8585465006
              ],
              [
                -78.845298136628,
                42.858858508511
              ],
              [
                -78.845371128963,
                42.859170465426
              ],
              [
                -78.845418106721,
                42.859280442135
              ],
              [
                -78.845455114979,
                42.859330428929
              ],
              [
                -78.845607105832,
                42.859442455274
              ],
              [
                -78.845647200212,
                42.859520430187
              ],
              [
                -78.845636151267,
                42.859608498574
              ],
              [
                -78.845647202551,
                42.859648464028
              ],
              [
                -78.845742161386,
                42.859634464863
              ],
              [
                -78.845771168581,
                42.8596344794
              ],
              [
                -78.84591612393,
                42.859812470261
              ],
              [
                -78.846113146122,
                42.860103507138
              ],
              [
                -78.846218144483,
                42.860284461924
              ],
              [
                -78.846255136078,
                42.860375506023
              ],
              [
                -78.846266105826,
                42.860772474449
              ],
              [
                -78.846258173825,
                42.860924454502
              ],
              [
                -78.846236131891,
                42.861036483392
              ],
              [
                -78.846164092126,
                42.86115145377
              ],
              [
                -78.845962658411,
                42.861302691326
              ],
              [
                -78.845873129221,
                42.861361486091
              ],
              [
                -78.845687114591,
                42.861513425085
              ],
              [
                -78.845560198765,
                42.861641496667
              ],
              [
                -78.84509516813,
                42.862022511221
              ],
              [
                -78.844906203562,
                42.862164463162
              ],
              [
                -78.844390903033,
                42.86246769938
              ],
              [
                -78.844330113305,
                42.862503470726
              ],
              [
                -78.843807655663,
                42.86283844189
              ],
              [
                -78.843575152934,
                42.86298750792
              ],
              [
                -78.843239183078,
                42.863188512884
              ],
              [
                -78.843030151183,
                42.863281435927
              ],
              [
                -78.842678169008,
                42.863439488856
              ],
              [
                -78.842096756567,
                42.863741154892
              ],
              [
                -78.842074152382,
                42.863784465441
              ],
              [
                -78.842111098372,
                42.863829503075
              ],
              [
                -78.842106103944,
                42.863855511992
              ],
              [
                -78.842066065752,
                42.863877346537
              ],
              [
                -78.841908161738,
                42.863963456991
              ],
              [
                -78.841665763589,
                42.864049154749
              ],
              [
                -78.841628145619,
                42.864062454038
              ],
              [
                -78.841165104663,
                42.864182456271
              ],
              [
                -78.840720127405,
                42.864244496382
              ],
              [
                -78.840578198743,
                42.864233507614
              ],
              [
                -78.840406140756,
                42.864204443168
              ],
              [
                -78.840009051371,
                42.864098522238
              ],
              [
                -78.839579150277,
                42.863974441989
              ],
              [
                -78.839210114336,
                42.863814503144
              ],
              [
                -78.838397127931,
                42.8634904749
              ],
              [
                -78.83762808637,
                42.863158481592
              ],
              [
                -78.837526130624,
                42.863085461986
              ],
              [
                -78.837355195574,
                42.863001431643
              ],
              [
                -78.833891191392,
                42.861577462501
              ],
              [
                -78.832680538915,
                42.861060935813
              ],
              [
                -78.832623962518,
                42.86103785387
              ],
              [
                -78.832545450856,
                42.861005822782
              ],
              [
                -78.832443208392,
                42.860954992528
              ],
              [
                -78.832228203652,
                42.860848102693
              ],
              [
                -78.831791678623,
                42.860683359586
              ],
              [
                -78.831474029161,
                42.860585947155
              ],
              [
                -78.831372132252,
                42.860579475661
              ],
              [
                -78.831237118774,
                42.860557438847
              ],
              [
                -78.831087189841,
                42.860553459389
              ],
              [
                -78.830927195987,
                42.860594475923
              ],
              [
                -78.83069710535,
                42.860681509343
              ],
              [
                -78.829545192816,
                42.86106350525
              ],
              [
                -78.82835313928,
                42.861475465677
              ],
              [
                -78.828043150636,
                42.861606496736
              ],
              [
                -78.827881114488,
                42.861719427065
              ],
              [
                -78.827665368279,
                42.861786892427
              ],
              [
                -78.826669537053,
                42.860902663631
              ],
              [
                -78.822385137774,
                42.859499469142
              ],
              [
                -78.822431429085,
                42.859424600539
              ],
              [
                -78.822547099718,
                42.859237521339
              ],
              [
                -78.822581137523,
                42.859182468861
              ],
              [
                -78.822657531482,
                42.858964658639
              ],
              [
                -78.822917392798,
                42.858213040476
              ],
              [
                -78.823150847299,
                42.85753300359
              ],
              [
                -78.82344098993,
                42.856691737207
              ],
              [
                -78.823562924219,
                42.856338183621
              ],
              [
                -78.82360713757,
                42.856372468729
              ],
              [
                -78.823610928465,
                42.856084362808
              ],
              [
                -78.823605081164,
                42.856072444365
              ],
              [
                -78.82369210851,
                42.847745424965
              ],
              [
                -78.823742082163,
                42.843340438954
              ],
              [
                -78.823844077887,
                42.835567454246
              ],
              [
                -78.823899997098,
                42.832052966754
              ],
              [
                -78.823910940616,
                42.832053017581
              ],
              [
                -78.824008039497,
                42.832060502405
              ],
              [
                -78.824819143963,
                42.832029310307
              ],
              [
                -78.825014755026,
                42.832021786675
              ],
              [
                -78.823988278569,
                42.831447308226
              ],
              [
                -78.823942063278,
                42.830465428486
              ],
              [
                -78.823970189749,
                42.829066831772
              ],
              [
                -78.82399730836,
                42.8277690763
              ],
              [
                -78.824014233578,
                42.826966961093
              ],
              [
                -78.824017380669,
                42.826819172394
              ],
              [
                -78.830199137157,
                42.826849038399
              ],
              [
                -78.830197957285,
                42.82655252703
              ],
              [
                -78.831374408271,
                42.826597426878
              ],
              [
                -78.832599438641,
                42.826701511678
              ],
              [
                -78.832611841094,
                42.826692327519
              ],
              [
                -78.832888681663,
                42.826727250356
              ],
              [
                -78.832861605746,
                42.826602418379
              ],
              [
                -78.832911761276,
                42.826038948362
              ],
              [
                -78.834648328811,
                42.826237369267
              ],
              [
                -78.835362745717,
                42.828652457939
              ],
              [
                -78.836095401215,
                42.830501091512
              ],
              [
                -78.836472899693,
                42.831326368334
              ],
              [
                -78.836657945971,
                42.831865521658
              ],
              [
                -78.836703813562,
                42.831869825004
              ],
              [
                -78.836713699342,
                42.831958574921
              ],
              [
                -78.836746170684,
                42.832017805788
              ],
              [
                -78.836916356308,
                42.832019548161
              ],
              [
                -78.852942180531,
                42.83218244649
              ],
              [
                -78.853628230633,
                42.832180829071
              ],
              [
                -78.853731689891,
                42.832193645352
              ],
              [
                -78.860146059142,
                42.832221460047
              ],
              [
                -78.86029263844,
                42.832167074636
              ],
              [
                -78.860523642169,
                42.832984578879
              ],
              [
                -78.860188893037,
                42.832929524026
              ],
              [
                -78.860254724365,
                42.832810181472
              ],
              [
                -78.859796488545,
                42.832846059293
              ],
              [
                -78.856713956464,
                42.833029078361
              ],
              [
                -78.855727242367,
                42.833104965277
              ],
              [
                -78.855362102076,
                42.833208141866
              ],
              [
                -78.854949266501,
                42.833324793464
              ],
              [
                -78.854506985273,
                42.833449763926
              ],
              [
                -78.854606498435,
                42.833635960603
              ],
              [
                -78.854742731263,
                42.833890860387
              ],
              [
                -78.854932110468,
                42.833890411341
              ],
              [
                -78.855074650378,
                42.833879752906
              ],
              [
                -78.855317253742,
                42.833861610696
              ],
              [
                -78.855641880503,
                42.833770079676
              ],
              [
                -78.856156590468,
                42.833670558255
              ],
              [
                -78.85654632286,
                42.833628274189
              ],
              [
                -78.85718700806,
                42.83363460179
              ],
              [
                -78.857478417464,
                42.833637479282
              ],
              [
                -78.857641334728,
                42.833687792804
              ],
              [
                -78.857979174892,
                42.833696325559
              ],
              [
                -78.858151438273,
                42.833700675361
              ],
              [
                -78.858705057102,
                42.833704727768
              ],
              [
                -78.859317330819,
                42.833753455025
              ],
              [
                -78.859884322392,
                42.833825676377
              ],
              [
                -78.860284398328,
                42.833765228462
              ],
              [
                -78.860363089659,
                42.833769173762
              ],
              [
                -78.860490898254,
                42.833775581992
              ],
              [
                -78.860503529055,
                42.833833433552
              ],
              [
                -78.860505924117,
                42.833939110336
              ],
              [
                -78.860544911769,
                42.834386949119
              ],
              [
                -78.860589602772,
                42.834619239042
              ],
              [
                -78.860564778235,
                42.834723192959
              ],
              [
                -78.8604513171,
                42.834974732758
              ],
              [
                -78.860457514859,
                42.83516085752
              ],
              [
                -78.860529224212,
                42.83534749167
              ],
              [
                -78.860654647097,
                42.835714972611
              ],
              [
                -78.860811614394,
                42.836252252217
              ],
              [
                -78.860990615836,
                42.836819580025
              ],
              [
                -78.861102152476,
                42.837270676821
              ],
              [
                -78.861065633009,
                42.837555576615
              ],
              [
                -78.860922337548,
                42.837619631582
              ],
              [
                -78.860386709529,
                42.837865353931
              ],
              [
                -78.859966977356,
                42.837942411194
              ],
              [
                -78.85975125494,
                42.837912270334
              ],
              [
                -78.859621769678,
                42.837907573969
              ],
              [
                -78.859238110395,
                42.837955085085
              ],
              [
                -78.85846220179,
                42.838143054847
              ],
              [
                -78.857849539266,
                42.838364044622
              ],
              [
                -78.858018915809,
                42.838792149685
              ],
              [
                -78.858102101856,
                42.839002401343
              ],
              [
                -78.858102692621,
                42.839135730274
              ],
              [
                -78.858147083356,
                42.83936778312
              ],
              [
                -78.858233485667,
                42.839606243745
              ],
              [
                -78.858284137493,
                42.839746037641
              ],
              [
                -78.858319484919,
                42.839843590778
              ],
              [
                -78.858789592952,
                42.839858184217
              ],
              [
                -78.859618182147,
                42.839615965167
              ],
              [
                -78.859674903751,
                42.83959938379
              ],
              [
                -78.860091194356,
                42.839477687236
              ],
              [
                -78.860272746494,
                42.839365654879
              ],
              [
                -78.860765179391,
                42.839235529179
              ],
              [
                -78.862184999052,
                42.838860325798
              ],
              [
                -78.862358671281,
                42.839092974931
              ],
              [
                -78.86299475599,
                42.83895650566
              ],
              [
                -78.863046720944,
                42.839139183006
              ],
              [
                -78.86031542297,
                42.839978344366
              ],
              [
                -78.860147680278,
                42.840129895887
              ],
              [
                -78.860007231065,
                42.840229688222
              ],
              [
                -78.859722317018,
                42.840594348174
              ],
              [
                -78.859605737698,
                42.840962710002
              ],
              [
                -78.859600773182,
                42.841176794771
              ],
              [
                -78.859598599624,
                42.841270481502
              ],
              [
                -78.859615182581,
                42.841311615288
              ],
              [
                -78.859953562209,
                42.842150969857
              ],
              [
                -78.860116865728,
                42.842570919314
              ],
              [
                -78.860515548589,
                42.843596146901
              ],
              [
                -78.86070556113,
                42.843857268144
              ],
              [
                -78.86069175704,
                42.843869369154
              ],
              [
                -78.860792648611,
                42.84412302263
              ],
              [
                -78.860871486222,
                42.844321225844
              ],
              [
                -78.861001718787,
                42.844400177065
              ],
              [
                -78.861330582246,
                42.844285993435
              ],
              [
                -78.861987268868,
                42.84408392426
              ],
              [
                -78.863385697864,
                42.843726383007
              ],
              [
                -78.86375454204,
                42.843622129465
              ],
              [
                -78.864063008903,
                42.843903456781
              ],
              [
                -78.86621521704,
                42.847029174605
              ],
              [
                -78.868218430507,
                42.849938177794
              ],
              [
                -78.867155819281,
                42.850693203068
              ],
              [
                -78.867029470201,
                42.85066967996
              ],
              [
                -78.866943246198,
                42.850525930002
              ],
              [
                -78.866989171687,
                42.850477113
              ],
              [
                -78.867128024054,
                42.850373880962
              ],
              [
                -78.867695298985,
                42.849952124613
              ],
              [
                -78.867833350345,
                42.84984948515
              ],
              [
                -78.865873499384,
                42.846956730731
              ],
              [
                -78.865515382819,
                42.84645831285
              ],
              [
                -78.865411684932,
                42.846424093206
              ],
              [
                -78.8623705289,
                42.84720377097
              ],
              [
                -78.862232619027,
                42.847355700066
              ],
              [
                -78.86227315595,
                42.847542188989
              ],
              [
                -78.862337624601,
                42.84765334247
              ],
              [
                -78.862435195005,
                42.847786281779
              ],
              [
                -78.862541426782,
                42.847922257958
              ],
              [
                -78.862783364496,
                42.848371699128
              ],
              [
                -78.863662793387,
                42.850005329861
              ],
              [
                -78.863782382405,
                42.850201355154
              ],
              [
                -78.863959061523,
                42.850297141345
              ],
              [
                -78.864106320574,
                42.850376048114
              ],
              [
                -78.864373068266,
                42.850451126271
              ],
              [
                -78.864482753271,
                42.85054049
              ],
              [
                -78.864708131835,
                42.850689082544
              ],
              [
                -78.865390209357,
                42.851962499762
              ],
              [
                -78.865408581064,
                42.852002682083
              ],
              [
                -78.8653733552,
                42.852216297491
              ],
              [
                -78.86533937261,
                42.852380520623
              ],
              [
                -78.865431101412,
                42.852590409613
              ],
              [
                -78.865781166233,
                42.852913684377
              ],
              [
                -78.865906880124,
                42.852959349719
              ],
              [
                -78.866019333172,
                42.852938954749
              ],
              [
                -78.866265097145,
                42.852958838695
              ],
              [
                -78.866394960498,
                42.85313631718
              ]
            ]
          ]
        ]
      },
      "properties": {
        ":id": "row-aex4.73y4-c653",
        ":version": "rv-8hup_rssc.arau",
        ":created_at": "2025-09-12T14:36:58.132Z",
        ":updated_at": "2025-09-12T14:36:58.132Z",
        "nbhdname": "Hopkins-Tifft",
        "nbhdnum": "34",
        "calcacres": "2652.33278904",
        "sqmiles": "4.14426998",
        "objectid_1": "14"
      }
    }
  ]
}