{
  "type": "FeatureCollection",
  "features": [
    {
      "type": "Feature",
      "geometry": {
        "type": "MultiPolygon",
        "coordinates": [
          [
            [
              [
                -78.799523959587,
                42.877736994989
              ],
              [
                -78.799694136224,
                42.87625634572
              ],
              [
                -78.799602794972,
                42.875523713136
              ],
              [
                -78.799825713599,
                42.874797208559
              ],
              [
                -78.799947254803,
                42.871777213289
              ],
              [
                -78.799936578893,
                42.871746141515
              ],
              [
                -78.799897979524,
                42.871745188276
              ],
              [
                -78.799730345547,
                42.871741049122
              ],
              [
                -78.799497980706,
                42.871735310724
              ],
              [
                -78.799500593866,
                42.871618207216
              ],
              [
                -78.799553644101,
                42.869240591446
              ],
              [
                -78.799574478297,
                42.867621611645
              ],
              [
                -78.799577554309,
                42.867285180681
              ],
              [
                -78.799745773028,
                42.867187253164
              ],
              [
                -78.799825373627,
                42.867140913895
              ],
              [
                -78.799977166398,
                42.86671988374
              ],
              [
                -78.799989039082,
                42.866167455669
              ],
              [
                -78.799990759942,
                42.866087373715
              ],
              [
                -78.800002179574,
                42.864820370383
              ],
              [
                -78.800003618115,
                42.86479639824
              ],
              [
                -78.800079501396,
                42.864802556196
              ],
              [
                -78.800932655515,
                42.864866708456
              ],
              [
                -78.802178086731,
                42.864833482162
              ],
              [
                -78.807416449605,
                42.864650718759
              ],
              [
                -78.809780133908,
                42.864206470738
              ],
              [
                -78.810024133886,
                42.863996471051
              ],
              [
                -78.810348134313,
                42.863728470906
              ],
              [
                -78.810474398984,
                42.863662464358
              ],
              [
                -78.810666447872,
                42.863557926119
              ],
              [
                -78.810893061194,
                42.863502794402
              ],
              [
                -78.8111546815,
                42.863442576523
              ],
              [
                -78.811559681175,
                42.863467327365
              ],
              [
                -78.811740637919,
                42.863552636549
              ],
              [
                -78.811886249166,
                42.863692907304
              ],
              [
                -78.812165566013,
                42.863954435859
              ],
              [
                -78.812406676993,
                42.864149124554
              ],
              [
                -78.812802784701,
                42.864490325478
              ],
              [
                -78.813105514563,
                42.86476397133
              ],
              [
                -78.813291419136,
                42.864908381457
              ],
              [
                -78.813552662926,
                42.865055777103
              ],
              [
                -78.813556136702,
                42.865080992651
              ],
              [
                -78.813587081818,
                42.865079516168
              ],
              [
                -78.814180614685,
                42.865313670692
              ],
              [
                -78.814446144059,
                42.865491503089
              ],
              [
                -78.814940162428,
                42.865781508256
              ],
              [
                -78.815431837265,
                42.86604742238
              ],
              [
                -78.816586172926,
                42.866346482045
              ],
              [
                -78.817155245501,
                42.866410010614
              ],
              [
                -78.817279877661,
                42.866504914388
              ],
              [
                -78.817824663179,
                42.866824765519
              ],
              [
                -78.818755139594,
                42.867070439734
              ],
              [
                -78.819109317602,
                42.867115783577
              ],
              [
                -78.819206095605,
                42.867112459558
              ],
              [
                -78.819849125018,
                42.866972486565
              ],
              [
                -78.819933711369,
                42.866911874247
              ],
              [
                -78.821908130831,
                42.869297510349
              ],
              [
                -78.819981084769,
                42.872072507839
              ],
              [
                -78.819531528238,
                42.872697562047
              ],
              [
                -78.817848191215,
                42.875049459988
              ],
              [
                -78.817161124927,
                42.87601050803
              ],
              [
                -78.816701146451,
                42.876650458104
              ],
              [
                -78.816443141816,
                42.877012470519
              ],
              [
                -78.815801129949,
                42.877938512157
              ],
              [
                -78.808468164436,
                42.877817479383
              ],
              [
                -78.80552611632,
                42.87779047758
              ],
              [
                -78.803972180477,
                42.87777646673
              ],
              [
                -78.802945159338,
                42.877764445545
              ],
              [
                -78.801868130279,
                42.877749485858
              ],
              [
                -78.801260110595,
                42.87774251308
              ],
              [
                -78.800225134959,
                42.877734512939
              ],
              [
                -78.799523959587,
                42.877736994989
              ]
            ]
          ]
        ]
      },
      "properties": {
        ":id": "row-urfq_qruy-7wf7",
        ":version": "rv-ktgr.gaks~v4dq",
        ":created_at": "2025-09-12T14:36:58.132Z",
        ":updated_at": "2025-09-12T14:36:58.132Z",
        "nbhdname": "Kaisertown",
        "nbhdnum": "32",
        "calcacres": "563.21996217",
        "sqmiles": "0.88003119",
        "objectid_1": "12"
      }
    }
  ]
}