{
  "type": "FeatureCollection",
  "features": [
    {
      "type": "Feature",
      "geometry": {
        "type": "MultiPolygon",
        "coordinates": [
          [
            [
              [
                -78.799123281835,
                42.922793075617
              ],
              [
                -78.799154182032,
                42.922793523288
              ],
              [
                -78.799862183544,
                42.922787457494
              ],
              [
                -78.805894129906,
                42.922743452883
              ],
              [
                -78.812582116575,
                42.922677519577
              ],
              [
                -78.817119196954,
                42.922642522097
              ],
              [
                -78.817185776454,
                42.922641955806
              ],
              [
                -78.821039410208,
                42.929923523459
              ],
              [
                -78.820961129959,
                42.92992352394
              ],
              [
                -78.819329122186,
                42.930530445141
              ],
              [
                -78.817377191965,
                42.931082480348
              ],
              [
                -78.815794142393,
                42.931788883199
              ],
              [
                -78.813649155367,
                42.932493465836
              ],
              [
                -78.812503142284,
                42.932930469893
              ],
              [
                -78.810570119403,
                42.933080462475
              ],
              [
                -78.806662130077,
                42.93306445237
              ],
              [
                -78.802119161615,
                42.933016488085
              ],
              [
                -78.799034008946,
                42.933231756372
              ],
              [
                -78.799038959795,
                42.933140866701
              ],
              [
                -78.798960638486,
                42.932767505884
              ],
              [
                -78.798958580483,
                42.929902574338
              ],
              [
                -78.798908672319,
                42.925228152323
              ],
              [
                -78.79889983189,
                42.924432447642
              ],
              [
                -78.798897717834,
                42.924228033101
              ],
              [
                -78.798904217339,
                42.924083968172
              ],
              [
                -78.798923673732,
                42.923640797096
              ],
              [
                -78.798935330905,
                42.923370503925
              ],
              [
                -78.79895133877,
                42.923276496531
              ],
              [
                -78.799015368412,
                42.922901838849
              ],
              [
                -78.799123268865,
                42.922794624015
              ],
              [
                -78.799123281835,
                42.922793075617
              ]
            ]
          ]
        ]
      },
      "properties": {
        ":id": "row-6t4f_45rh~3e7g",
        ":version": "rv-a62d~5dia_r2ib",
        ":created_at": "2025-09-12T14:36:58.132Z",
        ":updated_at": "2025-09-12T14:36:58.132Z",
        "nbhdname": "Kenfield",
        "nbhdnum": "18",
        "calcacres": "449.51229339",
        "sqmiles": "0.70236296",
        "objectid_1": "7"
      }
    }
  ]
}