{
  "type": "FeatureCollection",
  "features": [
    {
      "type": "Feature",
      "geometry": {
        "type": "MultiPolygon",
        "coordinates": [
          [
            [
              [
                -78.813693135444,
                42.948953645586
              ],
              [
                -78.813684184169,
                42.948953467353
              ],
              [
                -78.813466139131,
                42.948949487674
              ],
              [
                -78.813456791114,
                42.948963205906
              ],
              [
                -78.813401746247,
                42.949043996323
              ],
              [
                -78.813366898516,
                42.949083195905
              ],
              [
                -78.813303107032,
                42.949145445063
              ],
              [
                -78.813278230256,
                42.949165782232
              ],
              [
                -78.813216187298,
                42.949216503304
              ],
              [
                -78.813161921122,
                42.949243894118
              ],
              [
                -78.813108996687,
                42.949270606153
              ],
              [
                -78.81304891311,
                42.949300932481
              ],
              [
                -78.812954318298,
                42.949343750046
              ],
              [
                -78.812902187552,
                42.94936545521
              ],
              [
                -78.812790180614,
                42.949393884348
              ],
              [
                -78.812678297527,
                42.949420052694
              ],
              [
                -78.812653163975,
                42.949423462641
              ],
              [
                -78.812501191875,
                42.949445458513
              ],
              [
                -78.812062951936,
                42.949447541305
              ],
              [
                -78.811651195909,
                42.949449496682
              ],
              [
                -78.811540178991,
                42.949471450092
              ],
              [
                -78.811449101436,
                42.94948945944
              ],
              [
                -78.811356457986,
                42.949520492511
              ],
              [
                -78.811237158271,
                42.949560452878
              ],
              [
                -78.811176251476,
                42.949598491983
              ],
              [
                -78.81112898924,
                42.949628009497
              ],
              [
                -78.811091512952,
                42.949651414881
              ],
              [
                -78.811129865325,
                42.949619006527
              ],
              [
                -78.803387198831,
                42.949462662027
              ],
              [
                -78.798917087521,
                42.949407125861
              ],
              [
                -78.798932307162,
                42.947758513841
              ],
              [
                -78.798941806133,
                42.944008793123
              ],
              [
                -78.798914243364,
                42.942581966599
              ],
              [
                -78.798952172066,
                42.940507942436
              ],
              [
                -78.798896222485,
                42.938740187965
              ],
              [
                -78.799030692762,
                42.937860666303
              ],
              [
                -78.799022837042,
                42.937348608396
              ],
              [
                -78.799022937282,
                42.936574839406
              ],
              [
                -78.799020849642,
                42.935842918224
              ],
              [
                -78.798861285972,
                42.935464565832
              ],
              [
                -78.799020593291,
                42.935101047923
              ],
              [
                -78.799010278544,
                42.93441887444
              ],
              [
                -78.799002549203,
                42.933809409092
              ],
              [
                -78.799034008946,
                42.933231756372
              ],
              [
                -78.802119161615,
                42.933016488085
              ],
              [
                -78.806662130077,
                42.93306445237
              ],
              [
                -78.810570119403,
                42.933080462475
              ],
              [
                -78.812503142284,
                42.932930469893
              ],
              [
                -78.813649155367,
                42.932493465836
              ],
              [
                -78.815794142393,
                42.931788883199
              ],
              [
                -78.817377191965,
                42.931082480348
              ],
              [
                -78.819329122186,
                42.930530445141
              ],
              [
                -78.820961129959,
                42.92992352394
              ],
              [
                -78.821039410208,
                42.929923523459
              ],
              [
                -78.824902804024,
                42.937221661697
              ],
              [
                -78.826364237471,
                42.940112299371
              ],
              [
                -78.826078366981,
                42.940108446266
              ],
              [
                -78.825011114631,
                42.940094465476
              ],
              [
                -78.82157108768,
                42.940116520053
              ],
              [
                -78.813637190143,
                42.940217452599
              ],
              [
                -78.813651099762,
                42.942504477716
              ],
              [
                -78.813672084288,
                42.947431520602
              ],
              [
                -78.813693135444,
                42.948953645586
              ]
            ]
          ]
        ]
      },
      "properties": {
        ":id": "row-9ime-7f34~6k9y",
        ":version": "rv-h8j9~3bt7~apgt",
        ":created_at": "2025-09-12T14:36:58.132Z",
        ":updated_at": "2025-09-12T14:36:58.132Z",
        "nbhdname": "Kensington-Bailey",
        "nbhdnum": "16",
        "calcacres": "751.43359989",
        "sqmiles": "1.174115",
        "objectid_1": "6"
      }
    }
  ]
}