{
  "type": "FeatureCollection",
  "features": [
    {
      "type": "Feature",
      "geometry": {
        "type": "MultiPolygon",
        "coordinates": [
          [
            [
              [
                -78.799277770006,
                42.89874360305
              ],
              [
                -78.79910021201,
                42.895585046891
              ],
              [
                -78.799399972285,
                42.889783916239
              ],
              [
                -78.799399482304,
                42.884698813541
              ],
              [
                -78.799404987733,
                42.884390934977
              ],
              [
                -78.799523959587,
                42.877736994989
              ],
              [
                -78.800225134959,
                42.877734512939
              ],
              [
                -78.801260110595,
                42.87774251308
              ],
              [
                -78.801868130279,
                42.877749485858
              ],
              [
                -78.802945159338,
                42.877764445545
              ],
              [
                -78.803972180477,
                42.87777646673
              ],
              [
                -78.80552611632,
                42.87779047758
              ],
              [
                -78.808468164436,
                42.877817479383
              ],
              [
                -78.815801129949,
                42.877938512157
              ],
              [
                -78.828730171342,
                42.878447492151
              ],
              [
                -78.828463149522,
                42.878779490571
              ],
              [
                -78.828172637481,
                42.879185747632
              ],
              [
                -78.827652503622,
                42.879916425241
              ],
              [
                -78.826878138413,
                42.88100544161
              ],
              [
                -78.825653134088,
                42.88272150528
              ],
              [
                -78.825639111617,
                42.884473479746
              ],
              [
                -78.825632715066,
                42.884883173915
              ],
              [
                -78.825468081762,
                42.895426438203
              ],
              [
                -78.824739156062,
                42.895532493223
              ],
              [
                -78.824577156107,
                42.895556461008
              ],
              [
                -78.823628123018,
                42.895689500267
              ],
              [
                -78.822678158189,
                42.895813469279
              ],
              [
                -78.822106135327,
                42.895890490253
              ],
              [
                -78.821770132202,
                42.895936477958
              ],
              [
                -78.821121145159,
                42.896018498365
              ],
              [
                -78.820857137596,
                42.89605244281
              ],
              [
                -78.820057102747,
                42.896155442242
              ],
              [
                -78.819914141733,
                42.89617444525
              ],
              [
                -78.818968142288,
                42.896295459462
              ],
              [
                -78.817690171806,
                42.896460506844
              ],
              [
                -78.816914124026,
                42.896559441823
              ],
              [
                -78.816669158746,
                42.896590490356
              ],
              [
                -78.815910132021,
                42.89668948016
              ],
              [
                -78.81558018047,
                42.896732456768
              ],
              [
                -78.815215147157,
                42.896776513534
              ],
              [
                -78.813996177575,
                42.896935498307
              ],
              [
                -78.81180951508,
                42.897223326651
              ],
              [
                -78.809440155547,
                42.897532468245
              ],
              [
                -78.808743194082,
                42.897623490215
              ],
              [
                -78.806634043804,
                42.897831800798
              ],
              [
                -78.806388784109,
                42.897824083298
              ],
              [
                -78.805963078792,
                42.897781449258
              ],
              [
                -78.803965800805,
                42.898665255553
              ],
              [
                -78.799223267577,
                42.90056268628
              ],
              [
                -78.799257790921,
                42.899167912976
              ],
              [
                -78.799274626037,
                42.898810388258
              ],
              [
                -78.799277770006,
                42.89874360305
              ]
            ]
          ]
        ]
      },
      "properties": {
        ":id": "row-vzyj-fci5.iwxy",
        ":version": "rv-p7t2~8dgy~hn2i",
        ":created_at": "2021-09-02T18:13:55.616Z",
        ":updated_at": "2021-09-02T18:13:55.616Z",
        "nbhdname": "Lovejoy",
        "nbhdnum": "25",
        "calcacres": "1156.21284599",
        "sqmiles": "1.80658257",
        "objectid_1": "34"
      }
    }
  ]
}