{
  "type": "FeatureCollection",
  "features": [
    {
      "type": "Feature",
      "geometry": {
        "type": "MultiPolygon",
        "coordinates": [
          [
            [
              [
                -78.890337163091,
                42.890559502827
              ],
              [
                -78.892573177663,
                42.89291744834
              ],
              [
                -78.893313204532,
                42.893631450543
              ],
              [
                -78.895334988452,
                42.89568481239
              ],
              [
                -78.896382186153,
                42.896795500568
              ],
              [
                -78.896392387745,
                42.896806119581
              ],
              [
                -78.896343164328,
                42.896834472485
              ],
              [
                -78.894022202416,
                42.898007505573
              ],
              [
                -78.892989325767,
                42.896908706828
              ],
              [
                -78.892550121279,
                42.896441476741
              ],
              [
                -78.884559207545,
                42.90048145456
              ],
              [
                -78.883069178809,
                42.898915463264
              ],
              [
                -78.883407149353,
                42.898743445129
              ],
              [
                -78.880949135534,
                42.897684441506
              ],
              [
                -78.881617183106,
                42.897343477289
              ],
              [
                -78.880121127245,
                42.895780441234
              ],
              [
                -78.878922178175,
                42.89454044148
              ],
              [
                -78.878233117513,
                42.894421472731
              ],
              [
                -78.877267112859,
                42.894256430309
              ],
              [
                -78.878333663523,
                42.890902025253
              ],
              [
                -78.880184167019,
                42.885253482724
              ],
              [
                -78.883547134938,
                42.883929451592
              ],
              [
                -78.889092045929,
                42.889509343295
              ],
              [
                -78.890337163091,
                42.890559502827
              ]
            ]
          ]
        ]
      },
      "properties": {
        ":id": "row-k95u_qi7b~5y7u",
        ":version": "rv-jxfp.ah4v_4aja",
        ":created_at": "2025-09-12T14:36:58.132Z",
        ":updated_at": "2025-09-12T14:36:58.132Z",
        "nbhdname": "Lower West Side",
        "nbhdnum": "2",
        "calcacres": "359.93654935",
        "sqmiles": "0.56240086",
        "objectid_1": "23"
      }
    }
  ]
}