{
  "type": "FeatureCollection",
  "features": [
    {
      "type": "Feature",
      "geometry": {
        "type": "MultiPolygon",
        "coordinates": [
          [
            [
              [
                -78.845007107565,
                42.904610477289
              ],
              [
                -78.845709517829,
                42.903724511801
              ],
              [
                -78.847068125456,
                42.903756458106
              ],
              [
                -78.848086101601,
                42.903775496795
              ],
              [
                -78.853980179787,
                42.903839480881
              ],
              [
                -78.859740166145,
                42.903909488
              ],
              [
                -78.862577184364,
                42.903952496965
              ],
              [
                -78.8660211617,
                42.903971487922
              ],
              [
                -78.866772196739,
                42.904071507018
              ],
              [
                -78.867016147847,
                42.904012474028
              ],
              [
                -78.868378156169,
                42.904027435624
              ],
              [
                -78.867592174997,
                42.905820471941
              ],
              [
                -78.865916195666,
                42.911257431396
              ],
              [
                -78.864641125078,
                42.914975505665
              ],
              [
                -78.857284147637,
                42.922205489164
              ],
              [
                -78.854015112185,
                42.925296527899
              ],
              [
                -78.853997795102,
                42.925117245747
              ],
              [
                -78.853996174241,
                42.924880474667
              ],
              [
                -78.853994112832,
                42.924582520507
              ],
              [
                -78.853996162817,
                42.9237714863
              ],
              [
                -78.853996135641,
                42.922960522605
              ],
              [
                -78.853996237723,
                42.922880588521
              ],
              [
                -78.853997189712,
                42.922135475947
              ],
              [
                -78.853992156952,
                42.914971472285
              ],
              [
                -78.849110125435,
                42.914733502384
              ],
              [
                -78.843618153924,
                42.914679521745
              ],
              [
                -78.843420190743,
                42.914677408746
              ],
              [
                -78.843317775006,
                42.910714179712
              ],
              [
                -78.843357204177,
                42.908858464577
              ],
              [
                -78.843588176253,
                42.907887478386
              ],
              [
                -78.844496980669,
                42.906014969173
              ],
              [
                -78.845007107565,
                42.904610477289
              ]
            ]
          ]
        ]
      },
      "properties": {
        ":id": "row-z7kw_yzht-2ven",
        ":version": "rv-6n5r~bhhj_qr5k",
        ":created_at": "2025-09-12T14:36:58.132Z",
        ":updated_at": "2025-09-12T14:36:58.132Z",
        "nbhdname": "Masten Park",
        "nbhdnum": "21",
        "calcacres": "683.8988598",
        "sqmiles": "1.06859197",
        "objectid_1": "19"
      }
    }
  ]
}