{
  "type": "FeatureCollection",
  "features": [
    {
      "type": "Feature",
      "geometry": {
        "type": "MultiPolygon",
        "coordinates": [
          [
            [
              [
                -78.845709517829,
                42.903724511801
              ],
              [
                -78.845007107565,
                42.904610477289
              ],
              [
                -78.844496980669,
                42.906014969173
              ],
              [
                -78.843588176253,
                42.907887478386
              ],
              [
                -78.843357204177,
                42.908858464577
              ],
              [
                -78.843317775006,
                42.910714179712
              ],
              [
                -78.843420190743,
                42.914677408746
              ],
              [
                -78.839122091098,
                42.914631449493
              ],
              [
                -78.835418171344,
                42.914586516535
              ],
              [
                -78.83241714585,
                42.914551482751
              ],
              [
                -78.829080108021,
                42.914508449086
              ],
              [
                -78.824276112269,
                42.914458490092
              ],
              [
                -78.824265181571,
                42.910327484116
              ],
              [
                -78.824236172003,
                42.908434514244
              ],
              [
                -78.828335150304,
                42.906792515248
              ],
              [
                -78.828985204324,
                42.906524490751
              ],
              [
                -78.828975088123,
                42.90354143477
              ],
              [
                -78.829947182901,
                42.903553438708
              ],
              [
                -78.835513115972,
                42.903611454218
              ],
              [
                -78.841550872269,
                42.90365522764
              ],
              [
                -78.844647161482,
                42.903699520014
              ],
              [
                -78.845709517829,
                42.903724511801
              ]
            ]
          ]
        ]
      },
      "properties": {
        ":id": "row-2wqu.322e~2qwm",
        ":version": "rv-jeia_iyub-cdtj",
        ":created_at": "2025-09-12T14:36:58.132Z",
        ":updated_at": "2025-09-12T14:36:58.132Z",
        "nbhdname": "MLK Park",
        "nbhdnum": "22",
        "calcacres": "439.60165979",
        "sqmiles": "0.68687759",
        "objectid_1": "20"
      }
    }
  ]
}