{
  "type": "FeatureCollection",
  "features": [
    {
      "type": "Feature",
      "geometry": {
        "type": "MultiPolygon",
        "coordinates": [
          [
            [
              [
                -78.843806808452,
                42.958495346438
              ],
              [
                -78.84380410064,
                42.958468519106
              ],
              [
                -78.843968102636,
                42.950291513859
              ],
              [
                -78.844162150807,
                42.940320492818
              ],
              [
                -78.844772688627,
                42.940718727566
              ],
              [
                -78.845666009832,
                42.941493202969
              ],
              [
                -78.84683766841,
                42.942307898825
              ],
              [
                -78.848453509303,
                42.942917208908
              ],
              [
                -78.849950154122,
                42.943414470353
              ],
              [
                -78.850903641315,
                42.943483679363
              ],
              [
                -78.854576949463,
                42.943883727652
              ],
              [
                -78.85695421408,
                42.943923486671
              ],
              [
                -78.8680811592,
                42.94408248286
              ],
              [
                -78.877664250703,
                42.944079885056
              ],
              [
                -78.878311166573,
                42.944075521037
              ],
              [
                -78.878421946911,
                42.944138803176
              ],
              [
                -78.878379717709,
                42.95864189046
              ],
              [
                -78.875158215199,
                42.958662838958
              ],
              [
                -78.869630479651,
                42.958709381023
              ],
              [
                -78.865559871932,
                42.958697195946
              ],
              [
                -78.861263231327,
                42.958679927458
              ],
              [
                -78.858666348491,
                42.958661851648
              ],
              [
                -78.85607370465,
                42.958651938353
              ],
              [
                -78.854286126478,
                42.958644865256
              ],
              [
                -78.853658501393,
                42.958639832532
              ],
              [
                -78.853147155617,
                42.958635894264
              ],
              [
                -78.852029162446,
                42.958618631168
              ],
              [
                -78.850910246328,
                42.958603760174
              ],
              [
                -78.850125230928,
                42.95859324521
              ],
              [
                -78.847467536155,
                42.958548990539
              ],
              [
                -78.846662430929,
                42.958535754339
              ],
              [
                -78.843806808452,
                42.958495346438
              ]
            ]
          ]
        ]
      },
      "properties": {
        ":id": "row-u99g~ygvb.xw7p",
        ":version": "rv-v457.f436~6qgn",
        ":created_at": "2021-09-02T18:13:55.616Z",
        ":updated_at": "2021-09-02T18:13:55.616Z",
        "nbhdname": "North Park",
        "nbhdnum": "12",
        "calcacres": "1156.81105424",
        "sqmiles": "1.80751727",
        "objectid_1": "2"
      }
    }
  ]
}