{
  "type": "FeatureCollection",
  "features": [
    {
      "type": "Feature",
      "geometry": {
        "type": "MultiPolygon",
        "coordinates": [
          [
            [
              [
                -78.837995855904,
                42.94025409023
              ],
              [
                -78.839077109997,
                42.939258518471
              ],
              [
                -78.839308150049,
                42.939046464333
              ],
              [
                -78.8403230891,
                42.938111456668
              ],
              [
                -78.841576128265,
                42.936956490987
              ],
              [
                -78.842122161145,
                42.936448516285
              ],
              [
                -78.842870123941,
                42.935755476964
              ],
              [
                -78.843914102001,
                42.934800463768
              ],
              [
                -78.844799205777,
                42.933988451962
              ],
              [
                -78.845831119275,
                42.933035447943
              ],
              [
                -78.846412207935,
                42.932487467323
              ],
              [
                -78.846660151059,
                42.932252500101
              ],
              [
                -78.847485178107,
                42.931472471195
              ],
              [
                -78.848157122391,
                42.930837509126
              ],
              [
                -78.848516131252,
                42.93049948702
              ],
              [
                -78.849554204143,
                42.929511488259
              ],
              [
                -78.850970206168,
                42.928173468061
              ],
              [
                -78.851294182246,
                42.927867500968
              ],
              [
                -78.851510408182,
                42.927663872605
              ],
              [
                -78.85151096231,
                42.927663969431
              ],
              [
                -78.851891880438,
                42.9273036454
              ],
              [
                -78.851904459483,
                42.927302665261
              ],
              [
                -78.851961151978,
                42.927238446763
              ],
              [
                -78.853998583477,
                42.925312155126
              ],
              [
                -78.853999129939,
                42.925312463508
              ],
              [
                -78.859883183383,
                42.927302571269
              ],
              [
                -78.865782157402,
                42.929492480276
              ],
              [
                -78.866097697695,
                42.929831446264
              ],
              [
                -78.866365863116,
                42.930248514169
              ],
              [
                -78.866539288334,
                42.930475449978
              ],
              [
                -78.866910157954,
                42.930888480624
              ],
              [
                -78.866929164916,
                42.93097842897
              ],
              [
                -78.866981158224,
                42.931224480243
              ],
              [
                -78.867326158307,
                42.931422480644
              ],
              [
                -78.868011158078,
                42.931681480679
              ],
              [
                -78.868618158136,
                42.932076480176
              ],
              [
                -78.868838600837,
                42.932167153002
              ],
              [
                -78.869876234502,
                42.932482519096
              ],
              [
                -78.870866159502,
                42.932719480648
              ],
              [
                -78.87178115972,
                42.932790480554
              ],
              [
                -78.87230616026,
                42.93270148004
              ],
              [
                -78.873197642413,
                42.932580813688
              ],
              [
                -78.873791160726,
                42.932947480144
              ],
              [
                -78.87397316037,
                42.933328480711
              ],
              [
                -78.874678165754,
                42.93393245762
              ],
              [
                -78.876048246355,
                42.934030801997
              ],
              [
                -78.877476708587,
                42.934195377118
              ],
              [
                -78.877839056902,
                42.934829969194
              ],
              [
                -78.878193181114,
                42.935817470744
              ],
              [
                -78.87829160566,
                42.936342143059
              ],
              [
                -78.878440294995,
                42.937123752682
              ],
              [
                -78.878606108037,
                42.938579476513
              ],
              [
                -78.87857912911,
                42.940573448869
              ],
              [
                -78.878378219725,
                42.942746858392
              ],
              [
                -78.87837442343,
                42.944111655514
              ],
              [
                -78.878311166573,
                42.944075521037
              ],
              [
                -78.877664250703,
                42.944079885056
              ],
              [
                -78.8680811592,
                42.94408248286
              ],
              [
                -78.85695421408,
                42.943923486671
              ],
              [
                -78.854576949463,
                42.943883727652
              ],
              [
                -78.850903641315,
                42.943483679363
              ],
              [
                -78.849950154122,
                42.943414470353
              ],
              [
                -78.848453509303,
                42.942917208908
              ],
              [
                -78.84683766841,
                42.942307898825
              ],
              [
                -78.845666009832,
                42.941493202969
              ],
              [
                -78.844772688627,
                42.940718727566
              ],
              [
                -78.844162150807,
                42.940320492818
              ],
              [
                -78.84332912152,
                42.940313482038
              ],
              [
                -78.837995855904,
                42.94025409023
              ]
            ]
          ]
        ]
      },
      "properties": {
        ":id": "row-fi3j.zgv8_yyq9",
        ":version": "rv-tr36-fn4i.u5tr",
        ":created_at": "2025-09-12T14:36:58.132Z",
        ":updated_at": "2025-09-12T14:36:58.132Z",
        "nbhdname": "Parkside",
        "nbhdnum": "13",
        "calcacres": "1079.85172976",
        "sqmiles": "1.68726833",
        "objectid_1": "8"
      }
    }
  ]
}