{
  "type": "FeatureCollection",
  "features": [
    {
      "type": "Feature",
      "geometry": {
        "type": "MultiPolygon",
        "coordinates": [
          [
            [
              [
                -78.85391517305,
                42.880646487913
              ],
              [
                -78.854097173902,
                42.879779502556
              ],
              [
                -78.854349132219,
                42.879021444802
              ],
              [
                -78.857518167123,
                42.879571467226
              ],
              [
                -78.859946103581,
                42.879992463436
              ],
              [
                -78.864776169939,
                42.880827429378
              ],
              [
                -78.869110167129,
                42.881578498234
              ],
              [
                -78.867401194049,
                42.886863450547
              ],
              [
                -78.866707171698,
                42.889004427751
              ],
              [
                -78.865598126258,
                42.892398440374
              ],
              [
                -78.864376177598,
                42.892917493074
              ],
              [
                -78.860423911611,
                42.894412273292
              ],
              [
                -78.858877389489,
                42.895041168056
              ],
              [
                -78.853985795284,
                42.896856894727
              ],
              [
                -78.853971149172,
                42.896787515124
              ],
              [
                -78.853966204219,
                42.894852007602
              ],
              [
                -78.853967783372,
                42.893785419075
              ],
              [
                -78.853970256334,
                42.893358085365
              ],
              [
                -78.853972198621,
                42.893022473738
              ],
              [
                -78.853971132288,
                42.891051498739
              ],
              [
                -78.853968122656,
                42.889799449431
              ],
              [
                -78.853956166327,
                42.887828481058
              ],
              [
                -78.853939204278,
                42.885160430164
              ],
              [
                -78.853931180171,
                42.883356438652
              ],
              [
                -78.853921126573,
                42.881863504588
              ],
              [
                -78.85391517305,
                42.880646487913
              ]
            ]
          ]
        ]
      },
      "properties": {
        ":id": "row-mv28.6qt5-v4uu",
        ":version": "rv-kwea~7wsp.y6b3",
        ":created_at": "2025-09-12T14:36:58.132Z",
        ":updated_at": "2025-09-12T14:36:58.132Z",
        "nbhdname": "Pratt-Willert",
        "nbhdnum": "29",
        "calcacres": "428.49502884",
        "sqmiles": "0.66952348",
        "objectid_1": "27"
      }
    }
  ]
}