{
  "type": "FeatureCollection",
  "features": [
    {
      "type": "Feature",
      "geometry": {
        "type": "MultiPolygon",
        "coordinates": [
          [
            [
              [
                -78.89537545449,
                42.948193673017
              ],
              [
                -78.909949179811,
                42.943818965398
              ],
              [
                -78.909911575629,
                42.944721924219
              ],
              [
                -78.909851535548,
                42.945424650433
              ],
              [
                -78.909793104055,
                42.945910278439
              ],
              [
                -78.909741695137,
                42.945930804057
              ],
              [
                -78.909344175946,
                42.945931936868
              ],
              [
                -78.909345164566,
                42.946119281826
              ],
              [
                -78.90940002422,
                42.946849783182
              ],
              [
                -78.909427949621,
                42.94730870582
              ],
              [
                -78.909482860853,
                42.948048574448
              ],
              [
                -78.909537971309,
                42.948825911021
              ],
              [
                -78.909579242958,
                42.949397204928
              ],
              [
                -78.909668900335,
                42.94947188843
              ],
              [
                -78.909758705202,
                42.949574673364
              ],
              [
                -78.909682938866,
                42.949715400811
              ],
              [
                -78.909555966659,
                42.949818803715
              ],
              [
                -78.909544303052,
                42.950024919815
              ],
              [
                -78.909495571701,
                42.950455958688
              ],
              [
                -78.909522312415,
                42.950690067247
              ],
              [
                -78.909588296816,
                42.951111412458
              ],
              [
                -78.909718686881,
                42.951654349238
              ],
              [
                -78.909823227885,
                42.952131789021
              ],
              [
                -78.910029837446,
                42.952618303213
              ],
              [
                -78.910262104196,
                42.95313284652
              ],
              [
                -78.910377867026,
                42.953319863375
              ],
              [
                -78.910478217521,
                42.953332969973
              ],
              [
                -78.910518242697,
                42.953338197433
              ],
              [
                -78.910512493162,
                42.9534102668
              ],
              [
                -78.910506283986,
                42.953488109637
              ],
              [
                -78.910494275604,
                42.953628655278
              ],
              [
                -78.910597585156,
                42.95387191219
              ],
              [
                -78.911074296774,
                42.95478855239
              ],
              [
                -78.911163665483,
                42.954807030779
              ],
              [
                -78.911253729323,
                42.954956650792
              ],
              [
                -78.911241275993,
                42.95501289116
              ],
              [
                -78.911318239099,
                42.955096977255
              ],
              [
                -78.911690208764,
                42.955498708584
              ],
              [
                -78.912151603762,
                42.955928283721
              ],
              [
                -78.912356248302,
                42.95604010415
              ],
              [
                -78.912462705584,
                42.956092494665
              ],
              [
                -78.912191475133,
                42.956296703015
              ],
              [
                -78.912047270601,
                42.956663078218
              ],
              [
                -78.908692211575,
                42.95914212748
              ],
              [
                -78.907816289351,
                42.959785987784
              ],
              [
                -78.906866384232,
                42.960484241322
              ],
              [
                -78.906070903912,
                42.961068869057
              ],
              [
                -78.905297771767,
                42.961643481031
              ],
              [
                -78.903727222314,
                42.962800988656
              ],
              [
                -78.898817953454,
                42.966420037049
              ],
              [
                -78.896907666225,
                42.965010491338
              ],
              [
                -78.896798546192,
                42.96492780077
              ],
              [
                -78.894861974164,
                42.963311120839
              ],
              [
                -78.89416696914,
                42.96273337211
              ],
              [
                -78.893451812837,
                42.962139211548
              ],
              [
                -78.892815507711,
                42.961621317865
              ],
              [
                -78.892630399871,
                42.961305589572
              ],
              [
                -78.892625432956,
                42.961301096539
              ],
              [
                -78.89537545449,
                42.948193673017
              ]
            ]
          ]
        ]
      },
      "properties": {
        ":id": "row-ee9b~dyjw.ip5e",
        ":version": "rv-ykfn_hh2n_6ntr",
        ":created_at": "2025-09-12T14:36:58.132Z",
        ":updated_at": "2025-09-12T14:36:58.132Z",
        "nbhdname": "Riverside",
        "nbhdnum": "10",
        "calcacres": "610.64926878",
        "sqmiles": "0.95413948",
        "objectid_1": "11"
      }
    }
  ]
}