{
  "type": "FeatureCollection",
  "features": [
    {
      "type": "Feature",
      "geometry": {
        "type": "MultiPolygon",
        "coordinates": [
          [
            [
              [
                -78.799223267577,
                42.90056268628
              ],
              [
                -78.803965800805,
                42.898665255553
              ],
              [
                -78.805247418711,
                42.901363071978
              ],
              [
                -78.807546472123,
                42.905706854889
              ],
              [
                -78.812110191363,
                42.913291445397
              ],
              [
                -78.815992570425,
                42.920386976462
              ],
              [
                -78.817185776454,
                42.922641955806
              ],
              [
                -78.817119196954,
                42.922642522097
              ],
              [
                -78.812582116575,
                42.922677519577
              ],
              [
                -78.805894129906,
                42.922743452883
              ],
              [
                -78.799862183544,
                42.922787457494
              ],
              [
                -78.799154182032,
                42.922793523288
              ],
              [
                -78.799123281835,
                42.922793075617
              ],
              [
                -78.799127416405,
                42.922295530468
              ],
              [
                -78.798990364148,
                42.919936669464
              ],
              [
                -78.798987685017,
                42.918918734632
              ],
              [
                -78.799006688998,
                42.918734156918
              ],
              [
                -78.798937336717,
                42.918591711982
              ],
              [
                -78.799059420497,
                42.916265366786
              ],
              [
                -78.79898702926,
                42.913705128588
              ],
              [
                -78.799104537439,
                42.912103298624
              ],
              [
                -78.799065929539,
                42.90962484285
              ],
              [
                -78.799115922324,
                42.908075086096
              ],
              [
                -78.799158134283,
                42.90631757019
              ],
              [
                -78.799158133728,
                42.905049478415
              ],
              [
                -78.799158134628,
                42.904543888846
              ],
              [
                -78.799206101532,
                42.904526598807
              ],
              [
                -78.799158837165,
                42.903165585007
              ],
              [
                -78.799223267577,
                42.90056268628
              ]
            ]
          ]
        ]
      },
      "properties": {
        ":id": "row-bf6q_aqrw-a4jh",
        ":version": "rv-3p2d_ph8m~za7s",
        ":created_at": "2025-09-12T14:36:58.132Z",
        ":updated_at": "2025-09-12T14:36:58.132Z",
        "nbhdname": "Schiller Park",
        "nbhdnum": "24",
        "calcacres": "606.03735449",
        "sqmiles": "0.94693337",
        "objectid_1": "5"
      }
    }
  ]
}