{
  "type": "FeatureCollection",
  "features": [
    {
      "type": "Feature",
      "geometry": {
        "type": "MultiPolygon",
        "coordinates": [
          [
            [
              [
                -78.814180614685,
                42.865313670692
              ],
              [
                -78.813587081818,
                42.865079516168
              ],
              [
                -78.813556136702,
                42.865080992651
              ],
              [
                -78.813552662926,
                42.865055777103
              ],
              [
                -78.813291419136,
                42.864908381457
              ],
              [
                -78.813105514563,
                42.86476397133
              ],
              [
                -78.812802784701,
                42.864490325478
              ],
              [
                -78.812406676993,
                42.864149124554
              ],
              [
                -78.812165566013,
                42.863954435859
              ],
              [
                -78.811886249166,
                42.863692907304
              ],
              [
                -78.811740637919,
                42.863552636549
              ],
              [
                -78.811559681175,
                42.863467327365
              ],
              [
                -78.8111546815,
                42.863442576523
              ],
              [
                -78.810893061194,
                42.863502794402
              ],
              [
                -78.810666447872,
                42.863557926119
              ],
              [
                -78.810474398984,
                42.863662464358
              ],
              [
                -78.810348134313,
                42.863728470906
              ],
              [
                -78.810024133886,
                42.863996471051
              ],
              [
                -78.809780133908,
                42.864206470738
              ],
              [
                -78.807416449605,
                42.864650718759
              ],
              [
                -78.802178086731,
                42.864833482162
              ],
              [
                -78.800932655515,
                42.864866708456
              ],
              [
                -78.800079501396,
                42.864802556196
              ],
              [
                -78.800003618115,
                42.86479639824
              ],
              [
                -78.800007282705,
                42.864735335267
              ],
              [
                -78.800058601205,
                42.864465837356
              ],
              [
                -78.800166275071,
                42.861525892799
              ],
              [
                -78.800135279835,
                42.861023335127
              ],
              [
                -78.800223466094,
                42.857735301478
              ],
              [
                -78.800289379817,
                42.85575773618
              ],
              [
                -78.800341675042,
                42.854188679757
              ],
              [
                -78.80038648401,
                42.852759198525
              ],
              [
                -78.800420081054,
                42.851687392551
              ],
              [
                -78.800477762424,
                42.849847116507
              ],
              [
                -78.800509671635,
                42.848829038809
              ],
              [
                -78.800543177722,
                42.847759994137
              ],
              [
                -78.800583760244,
                42.845541995961
              ],
              [
                -78.79934564026,
                42.846398297588
              ],
              [
                -78.799168296133,
                42.846386771506
              ],
              [
                -78.79682786757,
                42.845442316054
              ],
              [
                -78.798479802156,
                42.843067115047
              ],
              [
                -78.79865201691,
                42.84319276495
              ],
              [
                -78.798725303968,
                42.843324820416
              ],
              [
                -78.799104216724,
                42.843384844586
              ],
              [
                -78.799371188254,
                42.843366477925
              ],
              [
                -78.79960402318,
                42.843305300794
              ],
              [
                -78.799890272248,
                42.843314395821
              ],
              [
                -78.800191521194,
                42.843311334732
              ],
              [
                -78.800399973238,
                42.843320942196
              ],
              [
                -78.800638268897,
                42.84333192491
              ],
              [
                -78.801089785722,
                42.843327494097
              ],
              [
                -78.801346932448,
                42.843276985316
              ],
              [
                -78.801803089021,
                42.843211806171
              ],
              [
                -78.802138006148,
                42.843186156475
              ],
              [
                -78.802487448957,
                42.843149760766
              ],
              [
                -78.802807950939,
                42.843167011032
              ],
              [
                -78.803148012926,
                42.843223523272
              ],
              [
                -78.803546578221,
                42.843347804706
              ],
              [
                -78.803750596256,
                42.843375994433
              ],
              [
                -78.804056776281,
                42.843461152376
              ],
              [
                -78.804270759225,
                42.84356077768
              ],
              [
                -78.804479901355,
                42.843663984943
              ],
              [
                -78.804606556969,
                42.843781642399
              ],
              [
                -78.804762522171,
                42.843949261582
              ],
              [
                -78.804884668107,
                42.844163393324
              ],
              [
                -78.805021610182,
                42.844441805964
              ],
              [
                -78.805110091107,
                42.844745321571
              ],
              [
                -78.805314880728,
                42.844987874999
              ],
              [
                -78.805578090287,
                42.845273188087
              ],
              [
                -78.805908892445,
                42.845451185198
              ],
              [
                -78.806151940661,
                42.845529313289
              ],
              [
                -78.806803544192,
                42.845803148923
              ],
              [
                -78.807197790676,
                42.846069146374
              ],
              [
                -78.807494962042,
                42.846343670465
              ],
              [
                -78.807797211645,
                42.846678920462
              ],
              [
                -78.807958449793,
                42.846957281829
              ],
              [
                -78.807949736304,
                42.847232404371
              ],
              [
                -78.807926248337,
                42.847450390449
              ],
              [
                -78.807936605847,
                42.847629009739
              ],
              [
                -78.808058925447,
                42.847886010105
              ],
              [
                -78.808176299543,
                42.848118011687
              ],
              [
                -78.808303152806,
                42.848285683077
              ],
              [
                -78.808396043024,
                42.848460567099
              ],
              [
                -78.808484105089,
                42.84864260655
              ],
              [
                -78.80869364804,
                42.848849416141
              ],
              [
                -78.808810818423,
                42.849024252018
              ],
              [
                -78.808957240683,
                42.849231185395
              ],
              [
                -78.808996878829,
                42.849449047206
              ],
              [
                -78.809026779366,
                42.849659783076
              ],
              [
                -78.809046540127,
                42.849752636899
              ],
              [
                -78.809027689924,
                42.849909876451
              ],
              [
                -78.809081740547,
                42.850084836418
              ],
              [
                -78.809155629467,
                42.850374087134
              ],
              [
                -78.809229271699,
                42.850595454756
              ],
              [
                -78.809166132869,
                42.850883468719
              ],
              [
                -78.809829914422,
                42.851484923396
              ],
              [
                -78.814855917848,
                42.855534670651
              ],
              [
                -78.816283135907,
                42.856583469209
              ],
              [
                -78.817136136502,
                42.857018469538
              ],
              [
                -78.817834650658,
                42.857337539044
              ],
              [
                -78.818669257963,
                42.857681003452
              ],
              [
                -78.819370136285,
                42.857967469567
              ],
              [
                -78.820292083872,
                42.858586852451
              ],
              [
                -78.821512137377,
                42.859240469382
              ],
              [
                -78.822385137774,
                42.859499469142
              ],
              [
                -78.826669537053,
                42.860902663631
              ],
              [
                -78.827665368279,
                42.861786892427
              ],
              [
                -78.827619783612,
                42.861801147557
              ],
              [
                -78.827324264354,
                42.861893557583
              ],
              [
                -78.826813729476,
                42.862053202187
              ],
              [
                -78.826139316031,
                42.86226408646
              ],
              [
                -78.825591893682,
                42.86241260051
              ],
              [
                -78.825231089654,
                42.862507450522
              ],
              [
                -78.825189582295,
                42.862504075038
              ],
              [
                -78.824404723648,
                42.862816801679
              ],
              [
                -78.823726804792,
                42.863070575783
              ],
              [
                -78.823305106104,
                42.863228432862
              ],
              [
                -78.822496091832,
                42.863569447011
              ],
              [
                -78.821975136192,
                42.863715438938
              ],
              [
                -78.821370295134,
                42.86403421949
              ],
              [
                -78.820873347006,
                42.864139087263
              ],
              [
                -78.820545132077,
                42.864495514589
              ],
              [
                -78.820618900747,
                42.864717258454
              ],
              [
                -78.8206901716,
                42.864931493255
              ],
              [
                -78.820753170987,
                42.865087494232
              ],
              [
                -78.820782188092,
                42.865218430441
              ],
              [
                -78.820782121843,
                42.865421468441
              ],
              [
                -78.820626194856,
                42.865772425203
              ],
              [
                -78.820454165149,
                42.866100509736
              ],
              [
                -78.820223159562,
                42.866704460582
              ],
              [
                -78.819849125018,
                42.866972486565
              ],
              [
                -78.819206095605,
                42.867112459558
              ],
              [
                -78.819109317602,
                42.867115783577
              ],
              [
                -78.818755139594,
                42.867070439734
              ],
              [
                -78.817824663179,
                42.866824765519
              ],
              [
                -78.817279877661,
                42.866504914388
              ],
              [
                -78.817155245501,
                42.866410010614
              ],
              [
                -78.816586172926,
                42.866346482045
              ],
              [
                -78.815431837265,
                42.86604742238
              ],
              [
                -78.814940162428,
                42.865781508256
              ],
              [
                -78.814446144059,
                42.865491503089
              ],
              [
                -78.814180614685,
                42.865313670692
              ]
            ]
          ]
        ]
      },
      "properties": {
        ":id": "row-k3q5_sfv4~yvk4",
        ":version": "rv-8v8c.takv_ch8j",
        ":created_at": "2025-09-12T14:36:58.132Z",
        ":updated_at": "2025-09-12T14:36:58.132Z",
        "nbhdname": "Seneca-Cazenovia",
        "nbhdnum": "33",
        "calcacres": "718.58632307",
        "sqmiles": "1.12279113",
        "objectid_1": "30"
      }
    }
  ]
}