{
  "type": "FeatureCollection",
  "features": [
    {
      "type": "Feature",
      "geometry": {
        "type": "MultiPolygon",
        "coordinates": [
          [
            [
              [
                -78.828730171342,
                42.878447492151
              ],
              [
                -78.815801129949,
                42.877938512157
              ],
              [
                -78.816443141816,
                42.877012470519
              ],
              [
                -78.816701146451,
                42.876650458104
              ],
              [
                -78.817161124927,
                42.87601050803
              ],
              [
                -78.817848191215,
                42.875049459988
              ],
              [
                -78.819531528238,
                42.872697562047
              ],
              [
                -78.819981084769,
                42.872072507839
              ],
              [
                -78.821908130831,
                42.869297510349
              ],
              [
                -78.819933711369,
                42.866911874247
              ],
              [
                -78.820223159562,
                42.866704460582
              ],
              [
                -78.820454165149,
                42.866100509736
              ],
              [
                -78.820626194856,
                42.865772425203
              ],
              [
                -78.820782121843,
                42.865421468441
              ],
              [
                -78.820782188092,
                42.865218430441
              ],
              [
                -78.820753170987,
                42.865087494232
              ],
              [
                -78.8206901716,
                42.864931493255
              ],
              [
                -78.820618900747,
                42.864717258454
              ],
              [
                -78.820545132077,
                42.864495514589
              ],
              [
                -78.820873347006,
                42.864139087263
              ],
              [
                -78.821370295134,
                42.86403421949
              ],
              [
                -78.821975136192,
                42.863715438938
              ],
              [
                -78.822496091832,
                42.863569447011
              ],
              [
                -78.823305106104,
                42.863228432862
              ],
              [
                -78.823726804792,
                42.863070575783
              ],
              [
                -78.824404723648,
                42.862816801679
              ],
              [
                -78.825189582295,
                42.862504075038
              ],
              [
                -78.825231089654,
                42.862507450522
              ],
              [
                -78.825591893682,
                42.86241260051
              ],
              [
                -78.826139316031,
                42.86226408646
              ],
              [
                -78.826813729476,
                42.862053202187
              ],
              [
                -78.827619783612,
                42.861801147557
              ],
              [
                -78.827881114488,
                42.861719427065
              ],
              [
                -78.828043150636,
                42.861606496736
              ],
              [
                -78.82835313928,
                42.861475465677
              ],
              [
                -78.829545192816,
                42.86106350525
              ],
              [
                -78.83069710535,
                42.860681509343
              ],
              [
                -78.830927195987,
                42.860594475923
              ],
              [
                -78.831087189841,
                42.860553459389
              ],
              [
                -78.831237118774,
                42.860557438847
              ],
              [
                -78.831372132252,
                42.860579475661
              ],
              [
                -78.831474029161,
                42.860585947155
              ],
              [
                -78.831791678623,
                42.860683359586
              ],
              [
                -78.832228203652,
                42.860848102693
              ],
              [
                -78.832545450856,
                42.861005822782
              ],
              [
                -78.832623962518,
                42.86103785387
              ],
              [
                -78.832680538915,
                42.861060935813
              ],
              [
                -78.833891191392,
                42.861577462501
              ],
              [
                -78.837355195574,
                42.863001431643
              ],
              [
                -78.837526130624,
                42.863085461986
              ],
              [
                -78.83762808637,
                42.863158481592
              ],
              [
                -78.838397127931,
                42.8634904749
              ],
              [
                -78.839210114336,
                42.863814503144
              ],
              [
                -78.839579150277,
                42.863974441989
              ],
              [
                -78.840009051371,
                42.864098522238
              ],
              [
                -78.840406140756,
                42.864204443168
              ],
              [
                -78.840578198743,
                42.864233507614
              ],
              [
                -78.840720127405,
                42.864244496382
              ],
              [
                -78.841165104663,
                42.864182456271
              ],
              [
                -78.841628145619,
                42.864062454038
              ],
              [
                -78.841665763589,
                42.864049154749
              ],
              [
                -78.841908161738,
                42.863963456991
              ],
              [
                -78.842066065752,
                42.863877346537
              ],
              [
                -78.842106103944,
                42.863855511992
              ],
              [
                -78.842111098372,
                42.863829503075
              ],
              [
                -78.842074152382,
                42.863784465441
              ],
              [
                -78.842096756567,
                42.863741154892
              ],
              [
                -78.842678169008,
                42.863439488856
              ],
              [
                -78.843030151183,
                42.863281435927
              ],
              [
                -78.843239183078,
                42.863188512884
              ],
              [
                -78.843575152934,
                42.86298750792
              ],
              [
                -78.843807655663,
                42.86283844189
              ],
              [
                -78.844330113305,
                42.862503470726
              ],
              [
                -78.844390903033,
                42.86246769938
              ],
              [
                -78.844906203562,
                42.862164463162
              ],
              [
                -78.84509516813,
                42.862022511221
              ],
              [
                -78.845560198765,
                42.861641496667
              ],
              [
                -78.845687114591,
                42.861513425085
              ],
              [
                -78.845873129221,
                42.861361486091
              ],
              [
                -78.845962658411,
                42.861302691326
              ],
              [
                -78.846164092126,
                42.86115145377
              ],
              [
                -78.846236131891,
                42.861036483392
              ],
              [
                -78.846258173825,
                42.860924454502
              ],
              [
                -78.846266105826,
                42.860772474449
              ],
              [
                -78.846255136078,
                42.860375506023
              ],
              [
                -78.846218144483,
                42.860284461924
              ],
              [
                -78.846113146122,
                42.860103507138
              ],
              [
                -78.84591612393,
                42.859812470261
              ],
              [
                -78.845771168581,
                42.8596344794
              ],
              [
                -78.845742161386,
                42.859634464863
              ],
              [
                -78.845647202551,
                42.859648464028
              ],
              [
                -78.845636151267,
                42.859608498574
              ],
              [
                -78.845647200212,
                42.859520430187
              ],
              [
                -78.845607105832,
                42.859442455274
              ],
              [
                -78.845455114979,
                42.859330428929
              ],
              [
                -78.845418106721,
                42.859280442135
              ],
              [
                -78.845371128963,
                42.859170465426
              ],
              [
                -78.845298136628,
                42.858858508511
              ],
              [
                -78.845189160943,
                42.8585465006
              ],
              [
                -78.845131161225,
                42.858237461099
              ],
              [
                -78.845142165476,
                42.858162449733
              ],
              [
                -78.845178088102,
                42.85809848478
              ],
              [
                -78.845265115847,
                42.857986431619
              ],
              [
                -78.845444127264,
                42.857818432999
              ],
              [
                -78.845564175508,
                42.857741464175
              ],
              [
                -78.845680147721,
                42.857693444163
              ],
              [
                -78.845815662825,
                42.857685396124
              ],
              [
                -78.845977766348,
                42.857775255943
              ],
              [
                -78.84613227608,
                42.857870510016
              ],
              [
                -78.846249080348,
                42.857981741274
              ],
              [
                -78.846416695106,
                42.858153983784
              ],
              [
                -78.84674291198,
                42.858564199046
              ],
              [
                -78.847134086696,
                42.859068525551
              ],
              [
                -78.847517161254,
                42.859600183143
              ],
              [
                -78.847663174168,
                42.859739223744
              ],
              [
                -78.847896669836,
                42.859967173681
              ],
              [
                -78.848064426521,
                42.860133925605
              ],
              [
                -78.84818159001,
                42.860334546516
              ],
              [
                -78.846775145282,
                42.862353468459
              ],
              [
                -78.843503165068,
                42.868030514146
              ],
              [
                -78.845746006733,
                42.86842993352
              ],
              [
                -78.845986139607,
                42.868473460629
              ],
              [
                -78.844956090696,
                42.871653486585
              ],
              [
                -78.844094141754,
                42.874309503301
              ],
              [
                -78.844078718688,
                42.876350993182
              ],
              [
                -78.844088145121,
                42.878937462598
              ],
              [
                -78.842564116214,
                42.87866645426
              ],
              [
                -78.841038153919,
                42.878409446453
              ],
              [
                -78.840152086032,
                42.878250495448
              ],
              [
                -78.839848095867,
                42.878175440207
              ],
              [
                -78.837347186252,
                42.87786342977
              ],
              [
                -78.833429054979,
                42.876403841575
              ],
              [
                -78.832932180398,
                42.877035441934
              ],
              [
                -78.831181161945,
                42.877592495668
              ],
              [
                -78.829212960881,
                42.878243695309
              ],
              [
                -78.828730171342,
                42.878447492151
              ]
            ]
          ]
        ]
      },
      "properties": {
        ":id": "row-v72y-2i27.ir4z",
        ":version": "rv-cu7q_484r_bzfk",
        ":created_at": "2025-09-12T14:36:58.132Z",
        ":updated_at": "2025-09-12T14:36:58.132Z",
        "nbhdname": "Seneca Babcock",
        "nbhdnum": "31",
        "calcacres": "889.06379807",
        "sqmiles": "1.38916218",
        "objectid_1": "33"
      }
    }
  ]
}