{
  "type": "FeatureCollection",
  "features": [
    {
      "type": "Feature",
      "geometry": {
        "type": "MultiPolygon",
        "coordinates": [
          [
            [
              [
                -78.816283135907,
                42.856583469209
              ],
              [
                -78.814855917848,
                42.855534670651
              ],
              [
                -78.809829914422,
                42.851484923396
              ],
              [
                -78.809166132869,
                42.850883468719
              ],
              [
                -78.809229271699,
                42.850595454756
              ],
              [
                -78.809155629467,
                42.850374087134
              ],
              [
                -78.809081740547,
                42.850084836418
              ],
              [
                -78.809027689924,
                42.849909876451
              ],
              [
                -78.809046540127,
                42.849752636899
              ],
              [
                -78.809026779366,
                42.849659783076
              ],
              [
                -78.808996878829,
                42.849449047206
              ],
              [
                -78.808957240683,
                42.849231185395
              ],
              [
                -78.808810818423,
                42.849024252018
              ],
              [
                -78.80869364804,
                42.848849416141
              ],
              [
                -78.808484105089,
                42.84864260655
              ],
              [
                -78.808396043024,
                42.848460567099
              ],
              [
                -78.808303152806,
                42.848285683077
              ],
              [
                -78.808176299543,
                42.848118011687
              ],
              [
                -78.808058925447,
                42.847886010105
              ],
              [
                -78.807936605847,
                42.847629009739
              ],
              [
                -78.807926248337,
                42.847450390449
              ],
              [
                -78.807949736304,
                42.847232404371
              ],
              [
                -78.807958449793,
                42.846957281829
              ],
              [
                -78.807797211645,
                42.846678920462
              ],
              [
                -78.807494962042,
                42.846343670465
              ],
              [
                -78.807197790676,
                42.846069146374
              ],
              [
                -78.806803544192,
                42.845803148923
              ],
              [
                -78.806151940661,
                42.845529313289
              ],
              [
                -78.805908892445,
                42.845451185198
              ],
              [
                -78.805578090287,
                42.845273188087
              ],
              [
                -78.805314880728,
                42.844987874999
              ],
              [
                -78.805110091107,
                42.844745321571
              ],
              [
                -78.805021610182,
                42.844441805964
              ],
              [
                -78.804884668107,
                42.844163393324
              ],
              [
                -78.804762522171,
                42.843949261582
              ],
              [
                -78.804606556969,
                42.843781642399
              ],
              [
                -78.804479901355,
                42.843663984943
              ],
              [
                -78.804270759225,
                42.84356077768
              ],
              [
                -78.804056776281,
                42.843461152376
              ],
              [
                -78.803750596256,
                42.843375994433
              ],
              [
                -78.803546578221,
                42.843347804706
              ],
              [
                -78.803148012926,
                42.843223523272
              ],
              [
                -78.802807950939,
                42.843167011032
              ],
              [
                -78.802487448957,
                42.843149760766
              ],
              [
                -78.802138006148,
                42.843186156475
              ],
              [
                -78.801803089021,
                42.843211806171
              ],
              [
                -78.801346932448,
                42.843276985316
              ],
              [
                -78.801089785722,
                42.843327494097
              ],
              [
                -78.800638268897,
                42.84333192491
              ],
              [
                -78.800399973238,
                42.843320942196
              ],
              [
                -78.800191521194,
                42.843311334732
              ],
              [
                -78.799890272248,
                42.843314395821
              ],
              [
                -78.79960402318,
                42.843305300794
              ],
              [
                -78.799371188254,
                42.843366477925
              ],
              [
                -78.799104216724,
                42.843384844586
              ],
              [
                -78.798725303968,
                42.843324820416
              ],
              [
                -78.79865201691,
                42.84319276495
              ],
              [
                -78.798479802156,
                42.843067115047
              ],
              [
                -78.797882673789,
                42.84284288552
              ],
              [
                -78.797690999999,
                42.842815049323
              ],
              [
                -78.797560161761,
                42.842796047282
              ],
              [
                -78.797139451006,
                42.842536171252
              ],
              [
                -78.797043300186,
                42.842476778955
              ],
              [
                -78.79679994805,
                42.842014670572
              ],
              [
                -78.79654076796,
                42.8416356166
              ],
              [
                -78.796104343571,
                42.841268751145
              ],
              [
                -78.795749200789,
                42.841103363134
              ],
              [
                -78.795345991801,
                42.841021086731
              ],
              [
                -78.795039323383,
                42.840891187432
              ],
              [
                -78.796444467392,
                42.838671341963
              ],
              [
                -78.796610257517,
                42.838409417349
              ],
              [
                -78.796623130429,
                42.838412798942
              ],
              [
                -78.800332736453,
                42.839387274133
              ],
              [
                -78.800264324258,
                42.841053288401
              ],
              [
                -78.800783003879,
                42.841166862401
              ],
              [
                -78.80081622806,
                42.83960997578
              ],
              [
                -78.80081821829,
                42.839540205966
              ],
              [
                -78.800834904464,
                42.838955175006
              ],
              [
                -78.800858946849,
                42.838102974957
              ],
              [
                -78.800919584014,
                42.837320159824
              ],
              [
                -78.800933864294,
                42.836475523799
              ],
              [
                -78.800950022503,
                42.835502091668
              ],
              [
                -78.800981346124,
                42.834467921672
              ],
              [
                -78.801052802227,
                42.831988833827
              ],
              [
                -78.801659554905,
                42.831990594379
              ],
              [
                -78.805620700821,
                42.832002523412
              ],
              [
                -78.80735895372,
                42.832010111353
              ],
              [
                -78.808512824842,
                42.832016937637
              ],
              [
                -78.809558083181,
                42.832015220284
              ],
              [
                -78.812557785134,
                42.832010111516
              ],
              [
                -78.813706031384,
                42.832007978137
              ],
              [
                -78.81511481362,
                42.832015425656
              ],
              [
                -78.817659745452,
                42.832025508383
              ],
              [
                -78.818559161761,
                42.832028981005
              ],
              [
                -78.819699977253,
                42.832033491502
              ],
              [
                -78.82075691212,
                42.832038335632
              ],
              [
                -78.823899997098,
                42.832052966754
              ],
              [
                -78.823844077887,
                42.835567454246
              ],
              [
                -78.823742082163,
                42.843340438954
              ],
              [
                -78.82369210851,
                42.847745424965
              ],
              [
                -78.823605081164,
                42.856072444365
              ],
              [
                -78.823610928465,
                42.856084362808
              ],
              [
                -78.82360713757,
                42.856372468729
              ],
              [
                -78.823562924219,
                42.856338183621
              ],
              [
                -78.82344098993,
                42.856691737207
              ],
              [
                -78.823150847299,
                42.85753300359
              ],
              [
                -78.822917392798,
                42.858213040476
              ],
              [
                -78.822657531482,
                42.858964658639
              ],
              [
                -78.822581137523,
                42.859182468861
              ],
              [
                -78.822547099718,
                42.859237521339
              ],
              [
                -78.822431429085,
                42.859424600539
              ],
              [
                -78.822385137774,
                42.859499469142
              ],
              [
                -78.821512137377,
                42.859240469382
              ],
              [
                -78.820292083872,
                42.858586852451
              ],
              [
                -78.819370136285,
                42.857967469567
              ],
              [
                -78.818669257963,
                42.857681003452
              ],
              [
                -78.817834650658,
                42.857337539044
              ],
              [
                -78.817136136502,
                42.857018469538
              ],
              [
                -78.816283135907,
                42.856583469209
              ]
            ]
          ]
        ]
      },
      "properties": {
        ":id": "row-yi99~ce2x~pgy7",
        ":version": "rv-vtge_pasm~eezn",
        ":created_at": "2025-09-12T14:36:58.132Z",
        ":updated_at": "2025-09-12T14:36:58.132Z",
        "nbhdname": "South Park",
        "nbhdnum": "35",
        "calcacres": "1065.6809915",
        "sqmiles": "1.66512655",
        "objectid_1": "13"
      }
    }
  ]
}