{
  "type": "FeatureCollection",
  "features": [
    {
      "type": "Feature",
      "geometry": {
        "type": "MultiPolygon",
        "coordinates": [
          [
            [
              [
                -78.807554842127,
                42.959013124577
              ],
              [
                -78.807559503453,
                42.956567315663
              ],
              [
                -78.804316665859,
                42.956605519126
              ],
              [
                -78.803561469224,
                42.956567188795
              ],
              [
                -78.803561332009,
                42.954564521142
              ],
              [
                -78.804385583078,
                42.954595172587
              ],
              [
                -78.808657844992,
                42.954667443161
              ],
              [
                -78.808757416786,
                42.952268091789
              ],
              [
                -78.810470467954,
                42.952248242404
              ],
              [
                -78.810815306607,
                42.950020740733
              ],
              [
                -78.810821910869,
                42.950019145935
              ],
              [
                -78.81084242635,
                42.949923332437
              ],
              [
                -78.810848177776,
                42.949896476664
              ],
              [
                -78.810894164311,
                42.949834266979
              ],
              [
                -78.810967258903,
                42.949757049939
              ],
              [
                -78.811032169739,
                42.949688478569
              ],
              [
                -78.811091512952,
                42.949651414881
              ],
              [
                -78.81112898924,
                42.949628009497
              ],
              [
                -78.811176251476,
                42.949598491983
              ],
              [
                -78.811237158271,
                42.949560452878
              ],
              [
                -78.811356457986,
                42.949520492511
              ],
              [
                -78.811449101436,
                42.94948945944
              ],
              [
                -78.811540178991,
                42.949471450092
              ],
              [
                -78.811651195909,
                42.949449496682
              ],
              [
                -78.812062951936,
                42.949447541305
              ],
              [
                -78.812501191875,
                42.949445458513
              ],
              [
                -78.812653163975,
                42.949423462641
              ],
              [
                -78.812678297527,
                42.949420052694
              ],
              [
                -78.812790180614,
                42.949393884348
              ],
              [
                -78.812902187552,
                42.94936545521
              ],
              [
                -78.812954318298,
                42.949343750046
              ],
              [
                -78.81304891311,
                42.949300932481
              ],
              [
                -78.813108996687,
                42.949270606153
              ],
              [
                -78.813161921122,
                42.949243894118
              ],
              [
                -78.813216187298,
                42.949216503304
              ],
              [
                -78.813278230256,
                42.949165782232
              ],
              [
                -78.813303107032,
                42.949145445063
              ],
              [
                -78.813366898516,
                42.949083195905
              ],
              [
                -78.813401746247,
                42.949043996323
              ],
              [
                -78.813456791114,
                42.948963205906
              ],
              [
                -78.813466139131,
                42.948949487674
              ],
              [
                -78.813684184169,
                42.948953467353
              ],
              [
                -78.813693135444,
                42.948953645586
              ],
              [
                -78.813672084288,
                42.947431520602
              ],
              [
                -78.813651099762,
                42.942504477716
              ],
              [
                -78.813637190143,
                42.940217452599
              ],
              [
                -78.82157108768,
                42.940116520053
              ],
              [
                -78.825011114631,
                42.940094465476
              ],
              [
                -78.826078366981,
                42.940108446266
              ],
              [
                -78.830182029806,
                42.947331054744
              ],
              [
                -78.836443815335,
                42.958348474042
              ],
              [
                -78.836482449735,
                42.958383807418
              ],
              [
                -78.835956578991,
                42.958373985707
              ],
              [
                -78.831915161562,
                42.958298117295
              ],
              [
                -78.831157211518,
                42.958281239819
              ],
              [
                -78.829960745222,
                42.958255013552
              ],
              [
                -78.82886702032,
                42.958230955309
              ],
              [
                -78.827939550959,
                42.958210647232
              ],
              [
                -78.825193102344,
                42.9581502879
              ],
              [
                -78.824903094514,
                42.958144040679
              ],
              [
                -78.823849070098,
                42.958121222621
              ],
              [
                -78.819754401754,
                42.958032688523
              ],
              [
                -78.818880643366,
                42.95801356892
              ],
              [
                -78.818738380412,
                42.957565585105
              ],
              [
                -78.81873619962,
                42.957566436689
              ],
              [
                -78.817377809418,
                42.958096908952
              ],
              [
                -78.815796662175,
                42.95871406689
              ],
              [
                -78.814574992339,
                42.959190541272
              ],
              [
                -78.813946435004,
                42.959436697367
              ],
              [
                -78.813879208084,
                42.959463248582
              ],
              [
                -78.812126503755,
                42.960155465425
              ],
              [
                -78.8109080635,
                42.96063669584
              ],
              [
                -78.808558898109,
                42.961465182771
              ],
              [
                -78.808559019921,
                42.959066030056
              ],
              [
                -78.807554842127,
                42.959013124577
              ]
            ]
          ]
        ]
      },
      "properties": {
        ":id": "row-ukm6.tg5n_5qw8",
        ":version": "rv-e3bv~9rz6.r9nq",
        ":created_at": "2025-09-12T14:36:58.132Z",
        ":updated_at": "2025-09-12T14:36:58.132Z",
        "nbhdname": "University Heights",
        "nbhdnum": "15",
        "calcacres": "854.83465664",
        "sqmiles": "1.33567915",
        "objectid_1": "4"
      }
    }
  ]
}