{
  "type": "FeatureCollection",
  "features": [
    {
      "type": "Feature",
      "geometry": {
        "type": "MultiPolygon",
        "coordinates": [
          [
            [
              [
                -78.888744901412,
                42.914619028241
              ],
              [
                -78.888941162316,
                42.914582734331
              ],
              [
                -78.892704164426,
                42.912668476158
              ],
              [
                -78.896259165627,
                42.912841475429
              ],
              [
                -78.897759165661,
                42.912944475185
              ],
              [
                -78.897935166872,
                42.912955475737
              ],
              [
                -78.899707166851,
                42.913073475783
              ],
              [
                -78.901683167569,
                42.91304047557
              ],
              [
                -78.901766009611,
                42.913051709447
              ],
              [
                -78.901766484305,
                42.913064220257
              ],
              [
                -78.901783423375,
                42.913879142211
              ],
              [
                -78.901812240599,
                42.914525416622
              ],
              [
                -78.901839947694,
                42.914956242248
              ],
              [
                -78.901880208239,
                42.915349563147
              ],
              [
                -78.901806055996,
                42.915799407431
              ],
              [
                -78.901756765672,
                42.916127404661
              ],
              [
                -78.901681744905,
                42.916408636894
              ],
              [
                -78.901543672846,
                42.91682118891
              ],
              [
                -78.901418297196,
                42.917224337792
              ],
              [
                -78.901255358301,
                42.917758735382
              ],
              [
                -78.901167731164,
                42.918068104288
              ],
              [
                -78.901105401475,
                42.918339933154
              ],
              [
                -78.901055961106,
                42.918639828279
              ],
              [
                -78.901055330806,
                42.918652081983
              ],
              [
                -78.90056007872,
                42.919953387672
              ],
              [
                -78.900129991065,
                42.921352505508
              ],
              [
                -78.899861758594,
                42.921884272668
              ],
              [
                -78.899559929169,
                42.922681339343
              ],
              [
                -78.899321872305,
                42.923487596754
              ],
              [
                -78.899323164638,
                42.923740462153
              ],
              [
                -78.899317637489,
                42.923757435685
              ],
              [
                -78.899316900632,
                42.923771206527
              ],
              [
                -78.899310609858,
                42.923778018723
              ],
              [
                -78.89920039189,
                42.924658862198
              ],
              [
                -78.899141061558,
                42.925520829763
              ],
              [
                -78.899132670123,
                42.926373289913
              ],
              [
                -78.899123607401,
                42.927094607452
              ],
              [
                -78.899103893658,
                42.927630914047
              ],
              [
                -78.89759718517,
                42.928056510587
              ],
              [
                -78.896924644013,
                42.928439477374
              ],
              [
                -78.896566174264,
                42.928685916066
              ],
              [
                -78.895863823279,
                42.929537772351
              ],
              [
                -78.895103165724,
                42.930482486289
              ],
              [
                -78.894400228751,
                42.930981040095
              ],
              [
                -78.89371616644,
                42.931625479446
              ],
              [
                -78.893350166419,
                42.93232447906
              ],
              [
                -78.893105937925,
                42.932967759548
              ],
              [
                -78.892975166436,
                42.933287479873
              ],
              [
                -78.892655824095,
                42.933741748106
              ],
              [
                -78.892026165998,
                42.934329479462
              ],
              [
                -78.890829052282,
                42.935173902402
              ],
              [
                -78.889267648316,
                42.936274771315
              ],
              [
                -78.888301164644,
                42.936913480352
              ],
              [
                -78.887574955145,
                42.937181219901
              ],
              [
                -78.886610134079,
                42.937265636558
              ],
              [
                -78.886669132609,
                42.937030481101
              ],
              [
                -78.887911144977,
                42.9201824927
              ],
              [
                -78.88814217052,
                42.916818506096
              ],
              [
                -78.88815713543,
                42.914974489297
              ],
              [
                -78.888153909518,
                42.914955130602
              ],
              [
                -78.888744901412,
                42.914619028241
              ]
            ]
          ]
        ]
      },
      "properties": {
        ":id": "row-x36j-fqe3-e7yw",
        ":version": "rv-nuu8_2q4i-t6y9",
        ":created_at": "2025-09-12T14:36:58.132Z",
        ":updated_at": "2025-09-12T14:36:58.132Z",
        "nbhdname": "Upper West Side",
        "nbhdnum": "6",
        "calcacres": "541.22247677",
        "sqmiles": "0.84566012",
        "objectid_1": "15"
      }
    }
  ]
}