{
  "type": "FeatureCollection",
  "features": [
    {
      "type": "Feature",
      "geometry": {
        "type": "MultiPolygon",
        "coordinates": [
          [
            [
              [
                -78.878379717709,
                42.95864189046
              ],
              [
                -78.878422134624,
                42.944074457251
              ],
              [
                -78.896008855595,
                42.943813136618
              ],
              [
                -78.89537545449,
                42.948193673017
              ],
              [
                -78.892625432956,
                42.961301096539
              ],
              [
                -78.892363476759,
                42.961064166491
              ],
              [
                -78.891419108175,
                42.95991601076
              ],
              [
                -78.890807345835,
                42.958973429114
              ],
              [
                -78.890546642402,
                42.958570783324
              ],
              [
                -78.889130327248,
                42.95856943101
              ],
              [
                -78.885063203203,
                42.958599773796
              ],
              [
                -78.881400424936,
                42.958621374331
              ],
              [
                -78.880948411842,
                42.95862357939
              ],
              [
                -78.878379717709,
                42.95864189046
              ]
            ]
          ]
        ]
      },
      "properties": {
        ":id": "row-e4ix~99uz~s8qj",
        ":version": "rv-4dsw.tcxr~af7n",
        ":created_at": "2025-09-12T14:36:58.132Z",
        ":updated_at": "2025-09-12T14:36:58.132Z",
        "nbhdname": "West Hertel",
        "nbhdnum": "11",
        "calcacres": "543.26694092",
        "sqmiles": "0.8488546",
        "objectid_1": "1"
      }
    }
  ]
}