{
  "type": "FeatureCollection",
  "features": [
    {
      "type": "Feature",
      "geometry": {
        "type": "MultiPolygon",
        "coordinates": [
          [
            [
              [
                -78.896392391409,
                42.89680611777
              ],
              [
                -78.897795162905,
                42.898265443899
              ],
              [
                -78.898521485975,
                42.899047834582
              ],
              [
                -78.900018144926,
                42.901255472898
              ],
              [
                -78.9007511333,
                42.902512499291
              ],
              [
                -78.901685844058,
                42.902348064201
              ],
              [
                -78.901686422413,
                42.902460472121
              ],
              [
                -78.901867750495,
                42.903031383033
              ],
              [
                -78.901884688586,
                42.903846306405
              ],
              [
                -78.901788584333,
                42.904980038139
              ],
              [
                -78.901704160286,
                42.905907651734
              ],
              [
                -78.901631030984,
                42.906554210556
              ],
              [
                -78.901607665434,
                42.906966444372
              ],
              [
                -78.901534293026,
                42.907566166204
              ],
              [
                -78.901561223791,
                42.907847115356
              ],
              [
                -78.901588975286,
                42.908287309101
              ],
              [
                -78.901578352304,
                42.908699507361
              ],
              [
                -78.901645104913,
                42.909289471793
              ],
              [
                -78.901676664887,
                42.910469683885
              ],
              [
                -78.9017075042,
                42.911509386269
              ],
              [
                -78.90175536066,
                42.912771003384
              ],
              [
                -78.901766009611,
                42.913051709447
              ],
              [
                -78.901683167569,
                42.91304047557
              ],
              [
                -78.899707166851,
                42.913073475783
              ],
              [
                -78.897935166872,
                42.912955475737
              ],
              [
                -78.897759165661,
                42.912944475185
              ],
              [
                -78.896259165627,
                42.912841475429
              ],
              [
                -78.892704164426,
                42.912668476158
              ],
              [
                -78.888941162316,
                42.914582734331
              ],
              [
                -78.888744901412,
                42.914619028241
              ],
              [
                -78.887296193558,
                42.913084452003
              ],
              [
                -78.887485105225,
                42.912989520984
              ],
              [
                -78.886141199704,
                42.911332437536
              ],
              [
                -78.886940134557,
                42.910928467649
              ],
              [
                -78.88543318423,
                42.909330491902
              ],
              [
                -78.885974171996,
                42.909053515103
              ],
              [
                -78.884498128695,
                42.907474463711
              ],
              [
                -78.883048186133,
                42.905892435688
              ],
              [
                -78.88267316327,
                42.905440492266
              ],
              [
                -78.881906184304,
                42.905430436691
              ],
              [
                -78.882021102081,
                42.903004445098
              ],
              [
                -78.881694044066,
                42.902343969502
              ],
              [
                -78.882065455088,
                42.901765347889
              ],
              [
                -78.883531204853,
                42.901009428666
              ],
              [
                -78.884559207545,
                42.90048145456
              ],
              [
                -78.892550121279,
                42.896441476741
              ],
              [
                -78.892989325767,
                42.896908706828
              ],
              [
                -78.894022202416,
                42.898007505573
              ],
              [
                -78.896343164328,
                42.896834472485
              ],
              [
                -78.896392391409,
                42.89680611777
              ]
            ]
          ]
        ]
      },
      "properties": {
        ":id": "row-geu6-7ig5.bt4t",
        ":version": "rv-3vgt.rvad.bscg",
        ":created_at": "2025-09-12T14:36:58.132Z",
        ":updated_at": "2025-09-12T14:36:58.132Z",
        "nbhdname": "West Side",
        "nbhdnum": "4",
        "calcacres": "568.54745434",
        "sqmiles": "0.8883554",
        "objectid_1": "21"
      }
    }
  ]
}