{
  "type": "FeatureCollection",
  "features": [
    {
      "type": "Feature",
      "geometry": {
        "type": "Point",
        "coordinates": [
          -78.8344633,
          42.9188085
        ]
      },
      "properties": {
        "name": "Manna @ Northland",
        "url": "Manna Culinary Group",
        "Address": "1786 Main St, Buffalo, NY 14208, USA",
        "category": "diners_not_dennys"
      }
    },
    {
      "type": "Feature",
      "geometry": {
        "type": "Point",
        "coordinates": [
          -78.825134,
          42.9520958
        ]
      },
      "properties": {
        "name": "Amy's Place",
        "url": "Caffe at Amy's",
        "Address": "3234 Main St, Buffalo, NY 14214, USA",
        "category": "diners_not_dennys"
      }
    },
    {
      "type": "Feature",
      "geometry": {
        "type": "Point",
        "coordinates": [
          -78.8647643,
          42.9152424
        ]
      },
      "properties": {
        "name": "Eggsperience Vasilis Main Street",
        "url": "Eggsperience Vasilis Main Street",
        "Address": "1526 Main St, Buffalo, NY 14209, USA",
        "category": "diners_not_dennys"
      }
    },
    {
      "type": "Feature",
      "geometry": {
        "type": "Point",
        "coordinates": [
          -78.8772636,
          42.9109414
        ]
      },
      "properties": {
        "name": "Mythos Restaurant",
        "url": "Mythos Restaurant",
        "Address": "510 Elmwood Ave, Buffalo, NY 14222, USA",
        "category": "diners_not_dennys"
      }
    },
    {
      "type": "Feature",
      "geometry": {
        "type": "Point",
        "coordinates": [
          -78.855175,
          42.947854
        ]
      },
      "properties": {
        "name": "1430 Hertel Ave",
        "url": "1430 Hertel Ave",
        "Address": "1430 Hertel Ave, Buffalo, NY 14216, USA",
        "category": "diners_not_dennys"
      }
    },
    {
      "type": "Feature",
      "geometry": {
        "type": "Point",
        "coordinates": [
          -78.878722,
          42.8967153
        ]
      },
      "properties": {
        "name": "Betty's",
        "url": "Betty's",
        "Address": "370 Virginia St, Buffalo, NY 14201, USA",
        "category": "diners_not_dennys"
      }
    },
    {
      "type": "Feature",
      "geometry": {
        "type": "Point",
        "coordinates": [
          -78.8503172,
          42.9474095
        ]
      },
      "properties": {
        "name": "Kostas Family Restaurant",
        "url": "Kostas Family Restaurant",
        "Address": "1561 Hertel Ave, Buffalo, NY 14216, USA",
        "category": "diners_not_dennys"
      }
    },
    {
      "type": "Feature",
      "geometry": {
        "type": "Point",
        "coordinates": [
          -78.8501113,
          42.8768255
        ]
      },
      "properties": {
        "name": "Swan Street Diner",
        "url": "Swan Street Diner",
        "Address": "700 Swan St, Buffalo, NY 14210, USA",
        "category": "diners_not_dennys"
      }
    },
    {
      "type": "Feature",
      "geometry": {
        "type": "Point",
        "coordinates": [
          -78.9097251,
          42.9602455
        ]
      },
      "properties": {
        "name": "Flavors of Jean",
        "url": "Flavors of Jean",
        "Address": "1187 Tonawanda St, Tonawanda Town, NY 14207, USA",
        "category": "diners_not_dennys"
      }
    },
    {
      "type": "Feature",
      "geometry": {
        "type": "Point",
        "coordinates": [
          -78.8760797,
          42.8862337
        ]
      },
      "properties": {
        "name": "Taki's",
        "url": "Taki's",
        "Address": "45 Court St, Buffalo, NY 14202, USA",
        "category": "diners_not_dennys"
      }
    },
    {
      "type": "Feature",
      "geometry": {
        "type": "Point",
        "coordinates": [
          -78.811959,
          42.872087
        ]
      },
      "properties": {
        "name": "Wiechec's Lounge",
        "url": "Wiechec's Lounge",
        "Address": "1748 Clinton St Suite 1, Buffalo, NY 14206, USA",
        "category": "diners_not_dennys"
      }
    },
    {
      "type": "Feature",
      "geometry": {
        "type": "Point",
        "coordinates": [
          -78.811306,
          42.871691
        ]
      },
      "properties": {
        "name": "The Park Lounge",
        "url": "The Park Lounge",
        "Address": "1761 Clinton St, Buffalo, NY 14206, USA",
        "category": "diners_not_dennys"
      }
    },
    {
      "type": "Feature",
      "geometry": {
        "type": "Point",
        "coordinates": [
          -78.8061695,
          42.8717407
        ]
      },
      "properties": {
        "name": "Lucky's Texas Red Hots",
        "url": "Lucky's Texas Red Hots",
        "Address": "1903 Clinton St, Buffalo, NY 14206, USA",
        "category": "diners_not_dennys"
      }
    },
    {
      "type": "Feature",
      "geometry": {
        "type": "Point",
        "coordinates": [
          -78.8893045,
          42.9568016
        ]
      },
      "properties": {
        "name": "Sophia's Breakfast Bar and Grill",
        "url": "Sophia's Restaurant",
        "Address": "715 Military Rd, Buffalo, NY 14216, USA",
        "category": "diners_not_dennys"
      }
    },
    {
      "type": "Feature",
      "geometry": {
        "type": "Point",
        "coordinates": [
          -78.826519,
          42.950277
        ]
      },
      "properties": {
        "name": "Lake Effect Diner",
        "url": "Lake Effect Diner",
        "Address": "3165 Main St, Buffalo, NY 14214, USA",
        "category": "diners_not_dennys"
      }
    },
    {
      "type": "Feature",
      "geometry": {
        "type": "Point",
        "coordinates": [
          -78.88283969,
          42.91381749
        ]
      },
      "properties": {
        "name": "The Lorax",
        "url": ""
      }
    }
  ]
}