{
  "type": "FeatureCollection",
  "features": [
    {
      "type": "Feature",
      "geometry": {
        "type": "Point",
        "coordinates": [
          -78.8181952,
          42.8259847
        ]
      },
      "properties": {
        "name": "Holy Cross Cemetery",
        "url": "Holy Cross Cemetery",
        "Address": "861-929 Fr. Baker Blvd, Lackawanna, NY 14218, USA",
        "category": "grave_matters"
      }
    },
    {
      "type": "Feature",
      "geometry": {
        "type": "Point",
        "coordinates": [
          -78.8644504,
          42.9925698
        ]
      },
      "properties": {
        "name": "Elmlawn Memorial Park",
        "url": "Elmlawn Memorial Park",
        "Address": "3939 Delaware Ave, Kenmore, NY 14217, USA",
        "category": "grave_matters"
      }
    },
    {
      "type": "Feature",
      "geometry": {
        "type": "Point",
        "coordinates": [
          -78.7895449,
          42.9315433
        ]
      },
      "properties": {
        "name": "St Stanislaus Cemetery",
        "url": "St Stanislaus Cemetery",
        "Address": "700 Pine Ridge Heritage Blvd, Buffalo, NY 14225, USA",
        "category": "grave_matters"
      }
    },
    {
      "type": "Feature",
      "geometry": {
        "type": "Point",
        "coordinates": [
          -78.793959,
          42.926588
        ]
      },
      "properties": {
        "name": "Mount Carmel Lodge Cemetery",
        "url": "Mount Carmel Lodge Cemetery",
        "Address": "540 Pine Ridge Heritage Blvd, Cheektowaga, NY 14225, USA",
        "category": "grave_matters"
      }
    },
    {
      "type": "Feature",
      "geometry": {
        "type": "Point",
        "coordinates": [
          -78.7880277,
          42.9223947
        ]
      },
      "properties": {
        "name": "Buffalo Cemetery",
        "url": "Buffalo Cemetery",
        "Address": "2843 Harlem Rd, Cheektowaga, NY 14225, USA",
        "category": "grave_matters"
      }
    },
    {
      "type": "Feature",
      "geometry": {
        "type": "Point",
        "coordinates": [
          -78.85332,
          42.973
        ]
      },
      "properties": {
        "name": "North Bush Cemetery",
        "url": "North Bush Cemetery",
        "Address": "1083 Englewood Ave, Buffalo, NY 14223, USA",
        "category": "grave_matters"
      }
    },
    {
      "type": "Feature",
      "geometry": {
        "type": "Point",
        "coordinates": [
          -78.9092386,
          42.9547568
        ]
      },
      "properties": {
        "name": "St. Francis Xavier Cemetery",
        "url": "https://www.google.com/maps/place/St.+Francis+Xavier+Cemetery/data=!4m2!3m1!1s0x89d36d1eaf4f763b:0x42000d635929cda1",
        "Address": "St Francis Pl, Buffalo, NY 14207, USA",
        "category": "grave_matters"
      }
    },
    {
      "type": "Feature",
      "geometry": {
        "type": "Point",
        "coordinates": [
          -78.8623267,
          42.9278164
        ]
      },
      "properties": {
        "name": "Forest Lawn",
        "url": "Forest Lawn",
        "Address": "1990 Main St, Buffalo, NY 14208, USA",
        "category": "grave_matters"
      }
    },
    {
      "type": "Feature",
      "geometry": {
        "type": "Point",
        "coordinates": [
          -78.8196657,
          42.9062297
        ]
      },
      "properties": {
        "name": "Concordia Cemetery",
        "url": "Concordia Cemetery",
        "Address": "438 Walden Ave, Buffalo, NY 14211, USA",
        "category": "grave_matters"
      }
    },
    {
      "type": "Feature",
      "geometry": {
        "type": "Point",
        "coordinates": [
          -78.88283969,
          42.91381749
        ]
      },
      "properties": {
        "name": "The Lorax",
        "url": ""
      }
    }
  ]
}