{
  "type": "FeatureCollection",
  "features": [
    {
      "type": "Feature",
      "geometry": {
        "type": "Point",
        "coordinates": [
          -78.8768317,
          42.9003882
        ]
      },
      "properties": {
        "name": "SHACK in Allentown",
        "url": "Shack in Allentown",
        "Address": "125 Elmwood Ave, Buffalo, NY 14201, USA",
        "category": "heathy_options"
      }
    },
    {
      "type": "Feature",
      "geometry": {
        "type": "Point",
        "coordinates": [
          -78.8905153,
          42.9430592
        ]
      },
      "properties": {
        "name": "Bloom & Rose Deli",
        "url": "Bloom & Rose Deli",
        "Address": "27 Chandler St #204a, Buffalo, NY 14207, USA",
        "category": "heathy_options"
      }
    },
    {
      "type": "Feature",
      "geometry": {
        "type": "Point",
        "coordinates": [
          -78.8212836,
          42.8734918
        ]
      },
      "properties": {
        "name": "Snowy Owl Arts & Tea House",
        "url": "Snowy Owl Arts & Tea House",
        "Address": "1500 Clinton St Unit 156, Buffalo, NY 14206, USA",
        "category": "heathy_options"
      }
    },
    {
      "type": "Feature",
      "geometry": {
        "type": "Point",
        "coordinates": [
          -78.8785334,
          42.9130993
        ]
      },
      "properties": {
        "name": "Bicycle Bottle Shop",
        "url": "Bicycle Bottle Shop",
        "Address": "230 Lexington Ave, Buffalo, NY 14222, USA",
        "category": "heathy_options"
      }
    },
    {
      "type": "Feature",
      "geometry": {
        "type": "Point",
        "coordinates": [
          -78.8547971,
          42.9478619
        ]
      },
      "properties": {
        "name": "HER Kitchen",
        "url": "HER Kitchen",
        "Address": "1442 Hertel Ave, Buffalo, NY 14216, USA",
        "category": "heathy_options"
      }
    },
    {
      "type": "Feature",
      "geometry": {
        "type": "Point",
        "coordinates": [
          -78.8789088,
          42.9133616
        ]
      },
      "properties": {
        "name": "Farm Shop",
        "url": "Farm Shop",
        "Address": "235 B Lexington Ave, Buffalo, NY 14222, USA",
        "category": "heathy_options"
      }
    },
    {
      "type": "Feature",
      "geometry": {
        "type": "Point",
        "coordinates": [
          -78.8582142,
          42.9219296
        ]
      },
      "properties": {
        "name": "Salud Market",
        "url": "Salud Market",
        "Address": "1832 Main St, Buffalo, NY 14208, USA",
        "category": "heathy_options"
      }
    },
    {
      "type": "Feature",
      "geometry": {
        "type": "Point",
        "coordinates": [
          -78.8623448,
          42.9370203
        ]
      },
      "properties": {
        "name": "The Juicery",
        "url": "The Juicery",
        "Address": "Meadow Dr, Buffalo, NY 14214, USA",
        "category": "heathy_options"
      }
    },
    {
      "type": "Feature",
      "geometry": {
        "type": "Point",
        "coordinates": [
          -78.853629,
          42.8995351
        ]
      },
      "properties": {
        "name": "Sunshine Vegan Eats",
        "url": "Sunshine Vegan Eats",
        "Address": "893 Jefferson Ave, Buffalo, NY 14204, USA",
        "category": "heathy_options"
      }
    },
    {
      "type": "Feature",
      "geometry": {
        "type": "Point",
        "coordinates": [
          -78.88283969,
          42.91381749
        ]
      },
      "properties": {
        "name": "The Lorax",
        "url": ""
      }
    }
  ]
}