{
  "type": "FeatureCollection",
  "features": [
    {
      "type": "Feature",
      "geometry": {
        "type": "Point",
        "coordinates": [
          -78.8734282,
          42.8934298
        ]
      },
      "properties": {
        "name": "Wxyz Bar+lounge",
        "url": "https://www.google.com/maps/place/Wxyz+Bar%2Blounge/data=!4m2!3m1!1s0x89d31248c896fe1b:0xcce9d298f5049d35",
        "Address": "512 Pearl St, Buffalo, NY 14202, USA",
        "Schedule": "Wednesdays 6-9pm"
      }
    },
    {
      "type": "Feature",
      "geometry": {
        "type": "Point",
        "coordinates": [
          -78.8451433,
          42.8749159
        ]
      },
      "properties": {
        "name": "D.A.Taste",
        "url": "https://www.google.com/maps/place/D.A.Taste/data=!4m2!3m1!1s0x89d31371094cdf53:0xad809dfc5f0b55de",
        "Address": "864 Seneca St, Buffalo, NY 14210, USA",
        "Schedule": "Mondays 6-11pm"
      }
    },
    {
      "type": "Feature",
      "geometry": {
        "type": "Point",
        "coordinates": [
          -78.8743255,
          42.8901265
        ]
      },
      "properties": {
        "name": "Velvet Stone",
        "url": "https://maps.app.goo.gl/NtTx912C1tk7uBew9",
        "Address": "128 Genesee St, Buffalo, NY 14203",
        "Schedule": "Thursdays 10pm-2am"
      }
    },
    {
      "type": "Feature",
      "geometry": {
        "type": "Point",
        "coordinates": [
          -78.9052796,
          42.9410375
        ]
      },
      "properties": {
        "name": "Poize Restaurant & Lounge",
        "url": "https://www.google.com/maps/place/Poize+Restaurant+%26+Lounge/data=!4m2!3m1!1s0x89d313359174834f:0x879c29decbfe72b1",
        "Address": "2081 Niagara St, Buffalo, NY 14207, USA",
        "Schedule": "Tuesdays 8pm-1am"
      }
    },
    {
      "type": "Feature",
      "geometry": {
        "type": "Point",
        "coordinates": [
          -78.8764274,
          42.8904797
        ]
      },
      "properties": {
        "name": "Vintage Room",
        "url": "https://www.google.com/maps/place/Vintage+Room/data=!4m2!3m1!1s0x89d31300076fc475:0x529e8a8e1d440368",
        "Address": "88 W Chippewa St, Buffalo, NY 14202, USA",
        "Schedule": "Tuesdays 11pm-3am"
      }
    },
    {
      "type": "Feature",
      "geometry": {
        "type": "Point",
        "coordinates": [
          -78.8345626,
          42.8586718
        ]
      },
      "properties": {
        "name": "South City Tavern",
        "url": "https://www.google.com/maps/place/South+City+Tavern/data=!4m2!3m1!1s0x89d30f5214a2f7ab:0x69b2d0804183337a",
        "Address": "1345 South Park Ave, Buffalo, NY 14220, USA",
        "Schedule": "Wednesdays 7-11pm"
      }
    },
    {
      "type": "Feature",
      "geometry": {
        "type": "Point",
        "coordinates": [
          -78.8792397,
          42.8995737
        ]
      },
      "properties": {
        "name": "Allen St Hardware Cafe",
        "url": "https://www.google.com/maps/place/Allen+St+Hardware+Cafe/data=!4m2!3m1!1s0x89d3125414c4b179:0xef5e523501d39c37",
        "Address": "245 Allen St, Buffalo, NY 14201, USA",
        "Schedule": "Mondays 10pm-Close"
      }
    },
    {
      "type": "Feature",
      "geometry": {
        "type": "Point",
        "coordinates": [
          -78.8734812,
          42.8877388
        ]
      },
      "properties": {
        "name": "OSB Buffalo/OSB Ciderworks",
        "url": "https://www.google.com/maps/place/OSB+Buffalo%2FOSB+Ciderworks/data=!4m2!3m1!1s0x89d313ea67fbae05:0x92b60a6b51738403",
        "Address": "517 Main St, Buffalo, NY 14203, USA",
        "Schedule": "Thursdays 8pm-12am"
      }
    },
    {
      "type": "Feature",
      "geometry": {
        "type": "Point",
        "coordinates": [
          -78.8899909,
          42.9241776
        ]
      },
      "properties": {
        "name": "The Gypsy Parlor",
        "url": "https://www.google.com/maps/place/The+Gypsy+Parlor/data=!4m2!3m1!1s0x89d313220fdb3d49:0xe9cec42ee4702e4",
        "Address": "376 Grant St, Buffalo, NY 14213, USA",
        "Schedule": "Thursdays 9pm-1am"
      }
    },
    {
      "type": "Feature",
      "geometry": {
        "type": "Point",
        "coordinates": [
          -78.8864674,
          42.9396927
        ]
      },
      "properties": {
        "name": "Casey's Black Rock",
        "url": "https://www.google.com/maps/place/Casey's+Black+Rock/data=!4m2!3m1!1s0x89d3132a54a8576f:0x7847c1db16860bd1",
        "Address": "484 Amherst St, Buffalo, NY 14207, USA",
        "Schedule": "Saturdays 9pm-1am"
      }
    },
    {
      "type": "Feature",
      "geometry": {
        "type": "Point",
        "coordinates": [
          -78.8739315,
          42.8938759
        ]
      },
      "properties": {
        "name": "Tudor Lounge",
        "url": "https://www.google.com/maps/place/Tudor+Lounge/data=!4m2!3m1!1s0x89d312503c59af59:0x558a9ae33f8aa4f",
        "Address": "335 Franklin St, Buffalo, NY 14202, USA",
        "Schedule": "Fridays 11pm-3am"
      }
    },
    {
      "type": "Feature",
      "geometry": {
        "type": "Point",
        "coordinates": [
          -78.8827403,
          42.9132991
        ]
      },
      "properties": {
        "name": "Essex St. Pub",
        "url": "https://www.google.com/maps/place/Essex+St.+Pub/data=!4m2!3m1!1s0x89d312e2ad79c969:0xc62fa66f4d94d919",
        "Address": "530 Rhode Island St, Buffalo, NY 14213, USA",
        "Schedule": "Tuesdays 10pm-3am"
      }
    },
    {
      "type": "Feature",
      "geometry": {
        "type": "Point",
        "coordinates": [
          -78.8772817,
          42.9274485
        ]
      },
      "properties": {
        "name": "Mr. Goodbar",
        "url": "https://www.google.com/maps/place/Mr.+Goodbar/data=!4m2!3m1!1s0x89d312dbf0ddb677:0x4bac4490c8b8ae9e",
        "Address": "1110 Elmwood Ave, Buffalo, NY 14222, USA",
        "Schedule": "Wednesdays 8pm-1am, Last Friday of the Month 9-2am"
      }
    },
    {
      "type": "Feature",
      "geometry": {
        "type": "Point",
        "coordinates": [
          -78.8795165,
          42.9121298
        ]
      },
      "properties": {
        "name": "Thirsty Buffalo",
        "url": "https://maps.app.goo.gl/r5iypwFdy35prgFi6",
        "Address": "555 Elmwood Ave, Buffalo, NY 14222",
        "Schedule": "Fridays 10pm-2am"
      }
    },
    {
      "type": "Feature",
      "geometry": {
        "type": "Point",
        "coordinates": [
          -78.8766596,
          42.8917853
        ]
      },
      "properties": {
        "name": "Underground Niteclub",
        "url": "https://maps.app.goo.gl/Ru9hKzxLUoLkffo66",
        "Address": "274 Delaware Ave #2, Buffalo, NY 14202",
        "Schedule": "Thursdays 10pm-2am"
      }
    },
    {
      "type": "Feature",
      "geometry": {
        "type": "Point",
        "coordinates": [
          -78.8796215,
          42.9010255
        ]
      },
      "properties": {
        "name": "Equal Parts",
        "url": "https://maps.app.goo.gl/dJesQMr3Whj9rKfR6",
        "Address": "149 Elmwood Ave, Buffalo, NY 14201",
        "Schedule": "Thursdays 9pm-12am"
      }
    }
  ]
}