{
  "type": "FeatureCollection",
  "features": [
    {
      "type": "Feature",
      "geometry": {
        "type": "Point",
        "coordinates": [
          -78.8734282,
          42.8934298
        ]
      },
      "properties": {
        "name": "Wxyz Bar+lounge",
        "url": "https://www.google.com/maps/place/Wxyz+Bar%2Blounge/data=!4m2!3m1!1s0x89d31248c896fe1b:0xcce9d298f5049d35",
        "Address": "512 Pearl St, Buffalo, NY 14202, USA",
        "category": "rack_em"
      }
    },
    {
      "type": "Feature",
      "geometry": {
        "type": "Point",
        "coordinates": [
          -78.8239047,
          42.8438407
        ]
      },
      "properties": {
        "name": "Black Dog's Tavern",
        "url": "https://www.google.com/maps/place/Black+Dog's+Tavern/data=!4m2!3m1!1s0x89d30e16df79368d:0x767e26324c83635e",
        "Address": "2015 South Park Ave, Buffalo, NY 14220, USA",
        "category": "rack_em"
      }
    },
    {
      "type": "Feature",
      "geometry": {
        "type": "Point",
        "coordinates": [
          -78.8288751,
          42.8751922
        ]
      },
      "properties": {
        "name": "Old School Tavern",
        "url": "https://www.google.com/maps/place/Old+School+Tavern/data=!4m2!3m1!1s0x89d30df2398403f5:0x3088683bbf294380",
        "Address": "1263 Clinton St, Buffalo, NY 14206, USA",
        "category": "rack_em"
      }
    },
    {
      "type": "Feature",
      "geometry": {
        "type": "Point",
        "coordinates": [
          -78.8355621,
          42.8834924
        ]
      },
      "properties": {
        "name": "Twilight Grill",
        "url": "https://www.google.com/maps/place/Twilight+Grill/data=!4m2!3m1!1s0x89d30d8a351be075:0xd42dce1401e06fab",
        "Address": "494 Howard St, Buffalo, NY 14206, USA",
        "category": "rack_em"
      }
    },
    {
      "type": "Feature",
      "geometry": {
        "type": "Point",
        "coordinates": [
          -78.8246213,
          42.8643761
        ]
      },
      "properties": {
        "name": "Brandys pub",
        "url": "https://www.google.com/maps/place/Brandys+pub/data=!4m2!3m1!1s0x89d30dd6464c0c8d:0xdbe62c4bf0ddd695",
        "Address": "805 Elk St, Buffalo, NY 14210, USA",
        "category": "rack_em"
      }
    },
    {
      "type": "Feature",
      "geometry": {
        "type": "Point",
        "coordinates": [
          -78.8721644,
          42.947606
        ]
      },
      "properties": {
        "name": "Hippodrome Billiards Inc",
        "url": "https://www.google.com/maps/place/Hippodrome+Billiards+Inc/data=!4m2!3m1!1s0x89d36d2e281ec7fb:0x783d30883143fa5e",
        "Address": "975 Hertel Ave # 1, Buffalo, NY 14216, USA",
        "category": "rack_em"
      }
    },
    {
      "type": "Feature",
      "geometry": {
        "type": "Point",
        "coordinates": [
          -78.872745,
          42.8868693
        ]
      },
      "properties": {
        "name": "IL MULINO - Cocktail Bar - Downtown",
        "url": "https://www.google.com/maps/place/IL+MULINO+-+Cocktail+Bar+-+Downtown/data=!4m2!3m1!1s0x89d3130044dfde63:0xb9440b761ef4c013",
        "Address": "465 Washington St, Buffalo, NY 14203, USA",
        "category": "rack_em"
      }
    },
    {
      "type": "Feature",
      "geometry": {
        "type": "Point",
        "coordinates": [
          -78.811306,
          42.871691
        ]
      },
      "properties": {
        "name": "The Park Lounge",
        "url": "https://www.google.com/maps/place/The+Park+Lounge/data=!4m2!3m1!1s0x89d30dc3e9eee68d:0x46ac280ef460e56e",
        "Address": "1761 Clinton St, Buffalo, NY 14206, USA",
        "category": "rack_em"
      }
    },
    {
      "type": "Feature",
      "geometry": {
        "type": "Point",
        "coordinates": [
          -78.7850813,
          42.8719236
        ]
      },
      "properties": {
        "name": "Pocketeer Billiards",
        "url": "https://www.google.com/maps/place/Pocketeer+Billiards/data=!4m2!3m1!1s0x89d30c36f1cb0179:0x9fd37e23bf9e782c",
        "Address": "2444 Clinton St, Buffalo, NY 14224, USA",
        "category": "rack_em"
      }
    },
    {
      "type": "Feature",
      "geometry": {
        "type": "Point",
        "coordinates": [
          -78.8899909,
          42.9241776
        ]
      },
      "properties": {
        "name": "The Gypsy Parlor",
        "url": "https://www.google.com/maps/place/The+Gypsy+Parlor/data=!4m2!3m1!1s0x89d313220fdb3d49:0xe9cec42ee4702e4",
        "Address": "376 Grant St, Buffalo, NY 14213, USA",
        "category": "rack_em"
      }
    },
    {
      "type": "Feature",
      "geometry": {
        "type": "Point",
        "coordinates": [
          -78.8772817,
          42.9274485
        ]
      },
      "properties": {
        "name": "Mr. Goodbar",
        "url": "https://www.google.com/maps/place/Mr.+Goodbar/data=!4m2!3m1!1s0x89d312dbf0ddb677:0x4bac4490c8b8ae9e",
        "Address": "1110 Elmwood Ave, Buffalo, NY 14222, USA",
        "category": "rack_em"
      }
    },
    {
      "type": "Feature",
      "geometry": {
        "type": "Point",
        "coordinates": [
          -78.8723435,
          42.888133
        ]
      },
      "properties": {
        "name": "House Of Charm",
        "url": "https://www.google.com/maps/place/House+Of+Charm/data=!4m2!3m1!1s0x89d3131c460b429d:0x41f7250d592cde07",
        "Address": "517 Washington St, Buffalo, NY 14203, USA",
        "category": "rack_em"
      }
    },
    {
      "type": "Feature",
      "geometry": {
        "type": "Point",
        "coordinates": [
          -78.8771897,
          42.9229337
        ]
      },
      "properties": {
        "name": "McGarrets",
        "url": "https://www.google.com/maps/place/McGarrets/data=!4m2!3m1!1s0x89d312ddefb63d09:0xb9612dd3acd11c72",
        "Address": "946 Elmwood Ave, Buffalo, NY 14222, USA",
        "category": "rack_em"
      }
    },
    {
      "type": "Feature",
      "geometry": {
        "type": "Point",
        "coordinates": [
          -78.8827403,
          42.9132991
        ]
      },
      "properties": {
        "name": "Essex St. Pub",
        "url": "https://www.google.com/maps/place/Essex+St.+Pub/data=!4m2!3m1!1s0x89d312e2ad79c969:0xc62fa66f4d94d919",
        "Address": "530 Rhode Island St, Buffalo, NY 14213, USA",
        "category": "rack_em"
      }
    },
    {
      "type": "Feature",
      "geometry": {
        "type": "Point",
        "coordinates": [
          -78.8739315,
          42.8938759
        ]
      },
      "properties": {
        "name": "Tudor Lounge",
        "url": "https://www.google.com/maps/place/Tudor+Lounge/data=!4m2!3m1!1s0x89d312503c59af59:0x558a9ae33f8aa4f",
        "Address": "335 Franklin St, Buffalo, NY 14202, USA",
        "category": "rack_em"
      }
    },
    {
      "type": "Feature",
      "geometry": {
        "type": "Point",
        "coordinates": [
          -78.88283969,
          42.91381749
        ]
      },
      "properties": {
        "name": "The Lorax",
        "url": ""
      }
    }
  ]
}