{
  "type": "FeatureCollection",
  "features": [
    {
      "type": "Feature",
      "geometry": {
        "type": "Point",
        "coordinates": [
          -78.8968503,
          42.8960888
        ]
      },
      "properties": {
        "name": "LaSalle Skate Park",
        "url": "https://www.google.com/maps/place/LaSalle+Skate+Park/data=!4m2!3m1!1s0x89d313d76e045377:0x9a722a20cf70b81a",
        "Address": "Buffalo, NY 14202, USA",
        "category": "secret_is_out"
      }
    },
    {
      "type": "Feature",
      "geometry": {
        "type": "Point",
        "coordinates": [
          -78.8982779,
          42.9010162
        ]
      },
      "properties": {
        "name": "Fort Porter",
        "url": "https://www.google.com/maps/place/Fort+Porter/data=!4m2!3m1!1s0x89d313a68f9c126d:0xc194b1a4ade7f15a",
        "Address": "952 Busti Ave, Buffalo, NY 14213, USA",
        "category": "secret_is_out"
      }
    },
    {
      "type": "Feature",
      "geometry": {
        "type": "Point",
        "coordinates": [
          -78.8031654,
          42.8500267
        ]
      },
      "properties": {
        "name": "Coffee & Crochet",
        "url": "https://www.google.com/maps/place/Coffee+%26+Crochet/data=!4m2!3m1!1s0x89d30f464ead4233:0x2d123f868d269ce1",
        "Address": "2342 Seneca St, Buffalo, NY 14210, USA",
        "category": "secret_is_out"
      }
    },
    {
      "type": "Feature",
      "geometry": {
        "type": "Point",
        "coordinates": [
          -78.8369276,
          42.8864576
        ]
      },
      "properties": {
        "name": "G & T Inn",
        "url": "https://www.google.com/maps/place/G+%26+T+Inn/data=!4m2!3m1!1s0x89d30dfa8fa882c9:0x33dc41cd1ada5c26",
        "Address": "68 Memorial Dr, Buffalo, NY 14206, USA",
        "category": "secret_is_out"
      }
    },
    {
      "type": "Feature",
      "geometry": {
        "type": "Point",
        "coordinates": [
          -78.836293,
          42.887735
        ]
      },
      "properties": {
        "name": "Eugene V. Debs Hall",
        "url": "https://www.google.com/maps/place/Eugene+V.+Debs+Hall/data=!4m2!3m1!1s0x89d30d6deb9afb4d:0x84f29ef365960f82",
        "Address": "483 Peckham St, Buffalo, NY 14206, USA",
        "category": "secret_is_out"
      }
    },
    {
      "type": "Feature",
      "geometry": {
        "type": "Point",
        "coordinates": [
          -78.8905153,
          42.9430592
        ]
      },
      "properties": {
        "name": "Pacific Cloud Seafoods",
        "url": "https://www.google.com/maps/place/Pacific+Cloud+Seafoods/data=!4m2!3m1!1s0x89d36d6feb1f9371:0xc3b5079a05882a3e",
        "Address": "27 Chandler St suite 302 a, Buffalo, NY 14207, USA",
        "category": "secret_is_out"
      }
    },
    {
      "type": "Feature",
      "geometry": {
        "type": "Point",
        "coordinates": [
          -78.871416,
          42.874901
        ]
      },
      "properties": {
        "name": "The Brick",
        "url": "https://www.google.com/maps/place/The+Brick/data=!4m2!3m1!1s0x89d3130055e696c3:0x15a6aac61cc731c1",
        "Address": "126 Michigan Ave, Buffalo, NY 14204, USA",
        "category": "secret_is_out"
      }
    },
    {
      "type": "Feature",
      "geometry": {
        "type": "Point",
        "coordinates": [
          -78.8458104,
          42.8774044
        ]
      },
      "properties": {
        "name": "Smokey's Tavern",
        "url": "https://www.google.com/maps/place/Smokey's+Tavern/data=!4m2!3m1!1s0x89d3120c440f389d:0xa476d7f40eb626f",
        "Address": "805 S Division St, Buffalo, NY 14210, USA",
        "category": "secret_is_out"
      }
    },
    {
      "type": "Feature",
      "geometry": {
        "type": "Point",
        "coordinates": [
          -78.8698687,
          42.9105482
        ]
      },
      "properties": {
        "name": "Saturn Club",
        "url": "https://www.google.com/maps/place/Saturn+Club/data=!4m2!3m1!1s0x89d312f04b914dc3:0xa70875d25b1442fa",
        "Address": "977 Delaware Ave, Buffalo, NY 14209, USA",
        "category": "secret_is_out"
      }
    },
    {
      "type": "Feature",
      "geometry": {
        "type": "Point",
        "coordinates": [
          -78.8876225,
          42.8788432
        ]
      },
      "properties": {
        "name": "Sully's Harbor Bar @ Harbor Walk | Erie Basin Marina",
        "url": "https://www.google.com/maps/place/Sully's+Harbor+Bar+@+Harbor+Walk+%7C+Erie+Basin+Marina/data=!4m2!3m1!1s0x89d3137d965cd70d:0xcb43e304a03e62ec",
        "Address": "329 Erie St, Buffalo, NY 14202, USA",
        "category": "secret_is_out"
      }
    },
    {
      "type": "Feature",
      "geometry": {
        "type": "Point",
        "coordinates": [
          -78.9131166,
          42.9577105
        ]
      },
      "properties": {
        "name": "The Fire Spot Restaurant",
        "url": "https://www.google.com/maps/place/The+Fire+Spot+Restaurant/data=!4m2!3m1!1s0x89d36d2618fb45c7:0xde574da0ff94dcfb",
        "Address": "2829 River Rd, Tonawanda Town, NY 14207, USA",
        "category": "secret_is_out"
      }
    },
    {
      "type": "Feature",
      "geometry": {
        "type": "Point",
        "coordinates": [
          -78.8394749,
          42.9393618
        ]
      },
      "properties": {
        "name": "Tool Library Little Free Seed Library",
        "url": "https://maps.app.goo.gl/kimJ45oD449jQiiLA",
        "Address": "2626 Main St, Buffalo, NY 14214, USA",
        "category": "secret_is_out"
      }
    },
    {
      "type": "Feature",
      "geometry": {
        "type": "Point",
        "coordinates": [
          -78.8345339,
          42.9453412
        ]
      },
      "properties": {
        "name": "Buffalo Toy Library",
        "url": "https://maps.app.goo.gl/jYjvWYiYUAUQUnxu7",
        "Address": "328 Beard Ave, Buffalo, NY 14214, USA",
        "category": "secret_is_out"
      }
    },
    {
      "type": "Feature",
      "geometry": {
        "type": "Point",
        "coordinates": [
          -78.9020652,
          42.9350337
        ]
      },
      "properties": {
        "name": "Market Square Park Little Library",
        "url": "https://maps.app.goo.gl/z4kPMZhAx2gw4vCf8",
        "Address": "1869 Niagara St, Buffalo, NY 14207, USA",
        "category": "secret_is_out"
      }
    },
    {
      "type": "Feature",
      "geometry": {
        "type": "Point",
        "coordinates": [
          -78.8788896,
          42.8869004
        ]
      },
      "properties": {
        "name": "Rainbow Trinket Library",
        "url": "",
        "Address": "31 Sanders Rd, Buffalo, NY, USA",
        "category": "secret_is_out"
      }
    },
    {
      "type": "Feature",
      "geometry": {
        "type": "Point",
        "coordinates": [
          -78.8788896,
          42.8869004
        ]
      },
      "properties": {
        "name": "Fairy Exchange Buffalo",
        "url": "",
        "Address": "50 St Florian St, Buffalo, New York",
        "category": "secret_is_out"
      }
    },
    {
      "type": "Feature",
      "geometry": {
        "type": "Point",
        "coordinates": [
          -78.8788896,
          42.8869004
        ]
      },
      "properties": {
        "name": "Art Pole",
        "url": "",
        "Address": "Buffalo, NY, USA",
        "category": "secret_is_out"
      }
    },
    {
      "type": "Feature",
      "geometry": {
        "type": "Point",
        "coordinates": [
          -78.8933644,
          42.910161
        ]
      },
      "properties": {
        "name": "Mass Ave and Plymouth Little Free Library",
        "url": "https://maps.app.goo.gl/U5f8osU3cdTbZ3er8",
        "Address": "489 Plymouth Ave, Buffalo, NY 14213, USA",
        "category": "secret_is_out"
      }
    },
    {
      "type": "Feature",
      "geometry": {
        "type": "Point",
        "coordinates": [
          -78.8788896,
          42.8869004
        ]
      },
      "properties": {
        "name": "Buffalo Dino Exchange",
        "url": "",
        "Address": "1215 West Ave, Buffalo, New York",
        "category": "secret_is_out"
      }
    },
    {
      "type": "Feature",
      "geometry": {
        "type": "Point",
        "coordinates": [
          -78.8985592,
          42.9232
        ]
      },
      "properties": {
        "name": "Illinois Alcohol Company Building",
        "url": "https://www.google.com/maps/place/Illinois+Alcohol+Company+Building/data=!4m2!3m1!1s0x89d313001e45b333:0x9deda3167d0111c5",
        "Address": "1432 Niagara St, Buffalo, NY 14213, USA",
        "category": "secret_is_out"
      }
    },
    {
      "type": "Feature",
      "geometry": {
        "type": "Point",
        "coordinates": [
          -78.8788896,
          42.8869004
        ]
      },
      "properties": {
        "name": "Parade Ground Maintenance Barn",
        "url": "",
        "short_desc": "Parade Ground Maintenance Barn",
        "Address": "Buffalo, NY, USA",
        "category": "secret_is_out"
      }
    },
    {
      "type": "Feature",
      "geometry": {
        "type": "Point",
        "coordinates": [
          -78.8905153,
          42.9430592
        ]
      },
      "properties": {
        "name": "27 Chandler St #204a",
        "url": "https://www.google.com/maps/place/27+Chandler+St+%23204a/data=!4m2!3m1!1s0x89d36cd34a44bd97:0x3cd62bd030bf73d6",
        "Address": "27 Chandler St #204a, Buffalo, NY 14207, USA",
        "category": "secret_is_out"
      }
    },
    {
      "type": "Feature",
      "geometry": {
        "type": "Point",
        "coordinates": [
          -78.8768329,
          42.9246689
        ]
      },
      "properties": {
        "name": "The Jade Turtle",
        "url": "https://www.google.com/maps/place/The+Jade+Turtle/data=!4m2!3m1!1s0x89d313beeb962ba3:0x2c85f91c896cb577",
        "Address": "1007 Elmwood Ave, Buffalo, NY 14222, USA",
        "category": "secret_is_out"
      }
    },
    {
      "type": "Feature",
      "geometry": {
        "type": "Point",
        "coordinates": [
          -78.8799245,
          42.8930146
        ]
      },
      "properties": {
        "name": "New Phoenix Theatre On The Park",
        "url": "https://www.google.com/maps/place/New+Phoenix+Theatre+On+The+Park/data=!4m2!3m1!1s0x89d3124d906775d9:0x9fc8afab0fdd9f10",
        "Address": "95 Johnson Park, Buffalo, NY 14201, USA",
        "category": "secret_is_out"
      }
    },
    {
      "type": "Feature",
      "geometry": {
        "type": "Point",
        "coordinates": [
          -78.8905153,
          42.9430592
        ]
      },
      "properties": {
        "name": "Bloom & Rose Deli",
        "url": "https://www.google.com/maps/place/Bloom+%26+Rose+Deli/data=!4m2!3m1!1s0x89d36de77c89a26b:0xf1a64dd8455b9bea",
        "Address": "27 Chandler St #204a, Buffalo, NY 14207, USA",
        "category": "secret_is_out"
      }
    },
    {
      "type": "Feature",
      "geometry": {
        "type": "Point",
        "coordinates": [
          -78.8732948,
          42.8885231
        ]
      },
      "properties": {
        "name": "The Hiker",
        "url": "https://www.google.com/maps/place/The+Hiker/data=!4m2!3m1!1s0x89d3132b7597ad63:0x234fab5a34b461fa",
        "Address": "Main St, Buffalo, NY 14203, USA",
        "category": "secret_is_out"
      }
    },
    {
      "type": "Feature",
      "geometry": {
        "type": "Point",
        "coordinates": [
          -78.8210771,
          42.873677
        ]
      },
      "properties": {
        "name": "LIBBY Projects + Editions",
        "url": "https://www.google.com/maps/place/LIBBY+Projects+%2B+Editions/data=!4m2!3m1!1s0x89d30d98063e1b4b:0x1afb44693f5f1b32",
        "Address": "Niagara Frontier Food Terminal, 1500 Clinton St Unit 156b, Buffalo, NY 14206, USA",
        "category": "secret_is_out"
      }
    },
    {
      "type": "Feature",
      "geometry": {
        "type": "Point",
        "coordinates": [
          -78.8482398,
          42.9367469
        ]
      },
      "properties": {
        "name": "Statler Cafe at the Martin House",
        "url": "https://www.google.com/maps/place/Statler+Cafe+at+the+Martin+House/data=!4m2!3m1!1s0x89d3132823771383:0x5442710163c6c2e3",
        "Address": "122 Summit Ave, Buffalo, NY 14214, USA",
        "category": "secret_is_out"
      }
    },
    {
      "type": "Feature",
      "geometry": {
        "type": "Point",
        "coordinates": [
          -78.8388737,
          42.8909579
        ]
      },
      "properties": {
        "name": "Chua Tu Hieu Buddhist Cultural Center",
        "url": "https://www.google.com/maps/place/Chua+Tu+Hieu+Buddhist+Cultural+Center/data=!4m2!3m1!1s0x89d3127872d21621:0x19cde882950cc5e8",
        "Address": "647 Fillmore Ave, Buffalo, NY 14212, USA",
        "category": "secret_is_out"
      }
    },
    {
      "type": "Feature",
      "geometry": {
        "type": "Point",
        "coordinates": [
          -78.8560676,
          42.9075963
        ]
      },
      "properties": {
        "name": "The Foundry",
        "url": "https://www.google.com/maps/place/The+Foundry/data=!4m2!3m1!1s0x89d3128c300d47f5:0x7396ab29c1332b74",
        "Address": "298 Northampton St, Buffalo, NY 14208, USA",
        "category": "secret_is_out"
      }
    },
    {
      "type": "Feature",
      "geometry": {
        "type": "Point",
        "coordinates": [
          -78.8755834,
          42.8591085
        ]
      },
      "properties": {
        "name": "Roundman Sculpture",
        "url": "https://www.google.com/maps/place/Roundman+Sculpture/data=!4m2!3m1!1s0x89d311676312e9eb:0x10d6a9318162cd64",
        "Address": "Greenway Nature Trail, Buffalo, NY 14203, USA",
        "category": "secret_is_out"
      }
    },
    {
      "type": "Feature",
      "geometry": {
        "type": "Point",
        "coordinates": [
          -78.8745124,
          42.8813557
        ]
      },
      "properties": {
        "name": "Jimmy Griffin statue",
        "url": "https://www.google.com/maps/place/Jimmy+Griffin+statue/data=!4m2!3m1!1s0x89d313005a03a0b3:0xd0c04dc400aff0b",
        "Address": "Downtown, Buffalo, NY 14203, USA",
        "category": "secret_is_out"
      }
    },
    {
      "type": "Feature",
      "geometry": {
        "type": "Point",
        "coordinates": [
          -78.8743006,
          42.9253118
        ]
      },
      "properties": {
        "name": "Sculpture by Larry Griffis Jr",
        "url": "https://www.google.com/maps/place/Sculpture+by+Larry+Griffis+Jr/data=!4m2!3m1!1s0x89d31357271cb7d9:0x1f95bf9558b5406c",
        "Address": "Buffalo, NY 14222, USA",
        "category": "secret_is_out"
      }
    },
    {
      "type": "Feature",
      "geometry": {
        "type": "Point",
        "coordinates": [
          -78.8684551,
          42.8697831
        ]
      },
      "properties": {
        "name": "Hartman's Barrel Room",
        "url": "https://www.google.com/maps/place/Hartman's+Barrel+Room/data=!4m2!3m1!1s0x89d31306b3e48637:0x1b6fc9b6719f1647",
        "Address": "55 Chicago St Ste 110A, Buffalo, NY 14204, USA",
        "category": "secret_is_out"
      }
    },
    {
      "type": "Feature",
      "geometry": {
        "type": "Point",
        "coordinates": [
          -78.8789088,
          42.9133616
        ]
      },
      "properties": {
        "name": "Farm Shop",
        "url": "https://www.google.com/maps/place/Farm+Shop/data=!4m2!3m1!1s0x89d312e34f722c4f:0x5968e25dce91dd20",
        "Address": "235 B Lexington Ave, Buffalo, NY 14222, USA",
        "category": "secret_is_out"
      }
    },
    {
      "type": "Feature",
      "geometry": {
        "type": "Point",
        "coordinates": [
          -78.88563,
          42.9455773
        ]
      },
      "properties": {
        "name": "Emotive Exposure",
        "url": "https://www.google.com/maps/place/Emotive+Exposure/data=!4m2!3m1!1s0x89d36dd400934d9f:0x4ccb1cc61291db2",
        "Address": "51 St Florian St, Buffalo, NY 14207, USA",
        "category": "secret_is_out"
      }
    },
    {
      "type": "Feature",
      "geometry": {
        "type": "Point",
        "coordinates": [
          -78.8648345,
          42.8699792
        ]
      },
      "properties": {
        "name": "The Buffalo Bar & Grill",
        "url": "https://www.google.com/maps/place/The+Buffalo+Bar+%26+Grill/data=!4m2!3m1!1s0x89d31223bcaa89a1:0xab45b613db7a3d80",
        "Address": "307 Louisiana St, Buffalo, NY 14204, USA",
        "category": "secret_is_out"
      }
    },
    {
      "type": "Feature",
      "geometry": {
        "type": "Point",
        "coordinates": [
          -78.852548,
          42.9475214
        ]
      },
      "properties": {
        "name": "Buffalomart",
        "url": "https://www.google.com/maps/place/Buffalomart/data=!4m2!3m1!1s0x89d36d4f0acfeb8d:0xcd06cd97ed5bd01d",
        "Address": "1499 Hertel Ave, Buffalo, NY 14216, USA",
        "category": "secret_is_out"
      }
    },
    {
      "type": "Feature",
      "geometry": {
        "type": "Point",
        "coordinates": [
          -78.8800479,
          42.9034585
        ]
      },
      "properties": {
        "name": "ML' s North Cafe",
        "url": "https://www.google.com/maps/place/ML'+s+North+Cafe/data=!4m2!3m1!1s0x89d3130012ed5d37:0x4c84690f26451f63",
        "Address": "Bryant, Buffalo, NY 14201, USA",
        "category": "secret_is_out"
      }
    },
    {
      "type": "Feature",
      "geometry": {
        "type": "Point",
        "coordinates": [
          -78.8738704,
          42.8940747
        ]
      },
      "properties": {
        "name": "Rue Franklin",
        "url": "https://www.google.com/maps/place/Rue+Franklin/data=!4m2!3m1!1s0x89d312503e755423:0x3ab6fdaa14eb649",
        "Address": "341 Franklin St, Buffalo, NY 14202, USA",
        "category": "secret_is_out"
      }
    },
    {
      "type": "Feature",
      "geometry": {
        "type": "Point",
        "coordinates": [
          -78.8763112,
          42.9424072
        ]
      },
      "properties": {
        "name": "Buffalo Art Movement (BAM!)",
        "url": "https://www.google.com/maps/place/Buffalo+Art+Movement+(BAM!)/data=!4m2!3m1!1s0x89d36dbc5ac66ff3:0x3ad91f9add6be7f0",
        "Address": "255 Great Arrow Ave Suite 200, Buffalo, NY 14207, USA",
        "category": "secret_is_out"
      }
    },
    {
      "type": "Feature",
      "geometry": {
        "type": "Point",
        "coordinates": [
          -78.8765311,
          42.920963
        ]
      },
      "properties": {
        "name": "Kitchen Little Buffalo LLC",
        "url": "https://www.google.com/maps/place/Kitchen+Little+Buffalo+LLC/data=!4m2!3m1!1s0x89d3137b6a94d72f:0x5b12225b8c9dca18",
        "Address": "875 Elmwood Ave, Buffalo, NY 14222, USA",
        "category": "secret_is_out"
      }
    },
    {
      "type": "Feature",
      "geometry": {
        "type": "Point",
        "coordinates": [
          -78.8736089,
          42.9386916
        ]
      },
      "properties": {
        "name": "McKinley Shooting Rock",
        "url": "https://www.google.com/maps/place/McKinley+Shooting+Rock/data=!4m2!3m1!1s0x89d312d26768a8df:0x53fb03ec8f0f9e28",
        "Address": "30 Fordham Dr, Buffalo, NY 14207, USA",
        "category": "secret_is_out"
      }
    },
    {
      "type": "Feature",
      "geometry": {
        "type": "Point",
        "coordinates": [
          -78.8773639,
          42.9164896
        ]
      },
      "properties": {
        "name": "No Fun Lo-Fi Bar",
        "url": "https://www.google.com/maps/place/No+Fun+Lo-Fi+Bar/data=!4m2!3m1!1s0x89d31347f645dfaf:0x99868862b9241654",
        "Address": "712 Elmwood Ave, Buffalo, NY 14222, USA",
        "category": "secret_is_out"
      }
    },
    {
      "type": "Feature",
      "geometry": {
        "type": "Point",
        "coordinates": [
          -78.8773818,
          42.9164887
        ]
      },
      "properties": {
        "name": "High Violet",
        "url": "https://www.google.com/maps/place/High+Violet/data=!4m2!3m1!1s0x89d313cd7797b7e3:0xeef8a7ea5d3aa7c5",
        "Address": "710 Elmwood Ave, Buffalo, NY 14222, USA",
        "category": "secret_is_out"
      }
    },
    {
      "type": "Feature",
      "geometry": {
        "type": "Point",
        "coordinates": [
          -78.8806636,
          42.8822261
        ]
      },
      "properties": {
        "name": "Saint Joseph Pocket Park",
        "url": "",
        "category": "secret_is_out"
      }
    },
    {
      "type": "Feature",
      "geometry": {
        "type": "Point",
        "coordinates": [
          -78.8409038,
          42.8645415
        ]
      },
      "properties": {
        "name": "Chemical No 2",
        "url": "https://www.google.com/maps/place/Chemical+No+2/data=!4m2!3m1!1s0x89d31300ae18d123:0x1d8d08d6e19cbc53",
        "Address": "260 Plymouth Ave, Buffalo, NY 14213, USA",
        "category": "secret_is_out"
      }
    },
    {
      "type": "Feature",
      "geometry": {
        "type": "Point",
        "coordinates": [
          -78.8849907,
          42.9187428
        ]
      },
      "properties": {
        "name": "Autark Brewhouse",
        "url": "https://www.google.com/maps/place/Autark+Brewhouse/data=!4m2!3m1!1s0x89d313b277a54cfb:0xaafb69c608c040af",
        "Address": "420 Auburn Ave, Buffalo, NY 14213, USA",
        "category": "secret_is_out"
      }
    },
    {
      "type": "Feature",
      "geometry": {
        "type": "Point",
        "coordinates": [
          -78.8752576,
          42.9258328
        ]
      },
      "properties": {
        "name": "William R. Heath House",
        "url": "https://www.google.com/maps/place/William+R.+Heath+House/data=!4m2!3m1!1s0x89d313c37af40985:0x7cc45cf2cd045ad3",
        "Address": "William R. Heath House, 76 Soldiers Pl, Buffalo, NY 14222, USA",
        "category": "secret_is_out"
      }
    },
    {
      "type": "Feature",
      "geometry": {
        "type": "Point",
        "coordinates": [
          -78.8633202,
          42.8620942
        ]
      },
      "properties": {
        "name": "Silo City",
        "url": "https://www.google.com/maps/place/Silo+City/data=!4m2!3m1!1s0x89d3118a8b58bc1d:0x8e1fcbe33b52272f",
        "Address": "85 Silo City Row, Buffalo, NY 14203, USA",
        "category": "secret_is_out"
      }
    },
    {
      "type": "Feature",
      "geometry": {
        "type": "Point",
        "coordinates": [
          -78.8636138,
          42.8611987
        ]
      },
      "properties": {
        "name": "Duende at Silo City",
        "url": "https://www.google.com/maps/place/Duende+at+Silo+City/data=!4m2!3m1!1s0x89d3118a3576b86b:0x7931de81ecdfad60",
        "Address": "85 Silo City Row, Buffalo, NY 14203, USA",
        "category": "secret_is_out"
      }
    },
    {
      "type": "Feature",
      "geometry": {
        "type": "Point",
        "coordinates": [
          -78.8543019,
          42.9136418
        ]
      },
      "properties": {
        "name": "1412 Jefferson Ave",
        "url": "https://www.google.com/maps/place/1412+Jefferson+Ave/data=!4m2!3m1!1s0x89d312916ef40621:0x293a253a17f36516",
        "Address": "1412 Jefferson Ave, Buffalo, NY 14208, USA",
        "category": "secret_is_out"
      }
    },
    {
      "type": "Feature",
      "geometry": {
        "type": "Point",
        "coordinates": [
          -78.841498,
          42.947459
        ]
      },
      "properties": {
        "name": "Colonie Lounge",
        "url": "https://www.google.com/maps/place/Colonie+Lounge/data=!4m2!3m1!1s0x89d36d577e679053:0x2011b5025362a088",
        "Address": "1795 Hertel Ave, Buffalo, NY 14216, USA",
        "category": "secret_is_out"
      }
    },
    {
      "type": "Feature",
      "geometry": {
        "type": "Point",
        "coordinates": [
          -78.8348955,
          42.9188155
        ]
      },
      "properties": {
        "name": "Buffalo Trade center",
        "url": "https://www.google.com/maps/place/Buffalo+Trade+center/data=!4m2!3m1!1s0x89d30d62ff8c9ec5:0xa9ee0f63929af1fd",
        "Address": "171 Walden Ave, Buffalo, NY 14211, USA",
        "category": "secret_is_out"
      }
    },
    {
      "type": "Feature",
      "geometry": {
        "type": "Point",
        "coordinates": [
          -78.884579,
          42.9402809
        ]
      },
      "properties": {
        "name": "Rohall's Corner",
        "url": "https://www.google.com/maps/place/Rohall's+Corner/data=!4m2!3m1!1s0x89d3132a8dc3c373:0xe13dca3587452333",
        "Address": "540 Amherst St, Buffalo, NY 14207, USA",
        "category": "secret_is_out"
      }
    },
    {
      "type": "Feature",
      "geometry": {
        "type": "Point",
        "coordinates": [
          -78.8771897,
          42.9229337
        ]
      },
      "properties": {
        "name": "McGarrets",
        "url": "https://www.google.com/maps/place/McGarrets/data=!4m2!3m1!1s0x89d312ddefb63d09:0xb9612dd3acd11c72",
        "Address": "946 Elmwood Ave, Buffalo, NY 14222, USA",
        "category": "secret_is_out"
      }
    },
    {
      "type": "Feature",
      "geometry": {
        "type": "Point",
        "coordinates": [
          -78.9053429,
          42.950305
        ]
      },
      "properties": {
        "name": "Prairie",
        "url": "https://www.google.com/maps/place/Prairie/data=!4m2!3m1!1s0x89d313fcfa255769:0xf18778225f656e6f",
        "Address": "106 College St, Buffalo, NY 14201, USA",
        "category": "secret_is_out"
      }
    },
    {
      "type": "Feature",
      "geometry": {
        "type": "Point",
        "coordinates": [
          -78.8607209,
          42.866235
        ]
      },
      "properties": {
        "name": "The Barrel Factory",
        "url": "https://www.google.com/maps/place/The+Barrel+Factory/data=!4m2!3m1!1s0x89d3121f64447fb9:0x11f03b5aad33f4c3",
        "Address": "65 Vandalia St, Buffalo, NY 14204, USA",
        "category": "secret_is_out"
      }
    },
    {
      "type": "Feature",
      "geometry": {
        "type": "Point",
        "coordinates": [
          -78.8636071,
          42.9130136
        ]
      },
      "properties": {
        "name": "Historic Row Houses",
        "url": "",
        "category": "secret_is_out"
      }
    },
    {
      "type": "Feature",
      "geometry": {
        "type": "Point",
        "coordinates": [
          -78.8895058,
          42.8778426
        ]
      },
      "properties": {
        "name": "Buffalo Main Lighthouse",
        "url": "https://www.google.com/maps/place/Buffalo+Main+Lighthouse/data=!4m2!3m1!1s0x89d313ce80a6f821:0x7a94ee20b5b5744a",
        "Address": "1 Fuhrmann Boulevard, Buffalo, NY 14203, USA",
        "category": "secret_is_out"
      }
    },
    {
      "type": "Feature",
      "geometry": {
        "type": "Point",
        "coordinates": [
          -78.8283988,
          42.9087387
        ]
      },
      "properties": {
        "name": "356 Fougeron St",
        "url": "https://www.google.com/maps/place/356+Fougeron+St/data=!4m2!3m1!1s0x89d30d65411a2efb:0x3b8307e48a91ec40",
        "Address": "356 Fougeron St, Buffalo, NY 14211, USA",
        "category": "secret_is_out"
      }
    },
    {
      "type": "Feature",
      "geometry": {
        "type": "Point",
        "coordinates": [
          -78.8623448,
          42.9370203
        ]
      },
      "properties": {
        "name": "The Juicery",
        "url": "https://www.google.com/maps/place/The+Juicery/data=!4m2!3m1!1s0x89d313a3d4a4e4a1:0x79781bc8a281360e",
        "Address": "Meadow Dr, Buffalo, NY 14214, USA",
        "category": "secret_is_out"
      }
    },
    {
      "type": "Feature",
      "geometry": {
        "type": "Point",
        "coordinates": [
          -78.8551583,
          42.8602221
        ]
      },
      "properties": {
        "name": "Concrete Central",
        "url": "https://www.google.com/maps/place/Concrete+Central/data=!4m2!3m1!1s0x89d311f67b599d45:0x91f232fa4fa4267c",
        "Address": "175 Buffalo River, Buffalo, NY 14203, USA",
        "category": "secret_is_out"
      }
    },
    {
      "type": "Feature",
      "geometry": {
        "type": "Point",
        "coordinates": [
          -78.839551,
          42.8911083
        ]
      },
      "properties": {
        "name": "662 Fillmore Ave",
        "url": "https://www.google.com/maps/place/662+Fillmore+Ave/data=!4m2!3m1!1s0x89d31278402e5f9f:0x3c9849ec63613dd6",
        "Address": "662 Fillmore Ave, Buffalo, NY 14212, USA",
        "category": "secret_is_out"
      }
    },
    {
      "type": "Feature",
      "geometry": {
        "type": "Point",
        "coordinates": [
          -78.8856964,
          42.9273635
        ]
      },
      "properties": {
        "name": "427 Hoyt St",
        "url": "https://www.google.com/maps/place/427+Hoyt+St/data=!4m2!3m1!1s0x89d31320d00005b1:0x2300a8d0aa3f98fa",
        "Address": "427 Hoyt St, Buffalo, NY 14213, USA",
        "category": "secret_is_out"
      }
    },
    {
      "type": "Feature",
      "geometry": {
        "type": "Point",
        "coordinates": [
          -78.8760914,
          42.8821918
        ]
      },
      "properties": {
        "name": "Pete\u2019s Place Food Shop",
        "url": "https://www.google.com/maps/place/Pete%E2%80%99s+Place+Food+Shop/data=!4m2!3m1!1s0x89d3132e55bc3823:0x178f3893b29a4d80",
        "Address": "290 Main St, Buffalo, NY 14202, USA",
        "category": "secret_is_out"
      }
    },
    {
      "type": "Feature",
      "geometry": {
        "type": "Point",
        "coordinates": [
          -78.8775987,
          42.8819736
        ]
      },
      "properties": {
        "name": "Maritime Memorial Park",
        "url": "https://www.google.com/maps/place/Maritime+Memorial+Park/data=!4m2!3m1!1s0x89d313bb440c6efb:0xa7fca3b652bdd42d",
        "Address": "Maritime Memorial Park, 47 Erie St, Buffalo, NY 14202, USA",
        "category": "secret_is_out"
      }
    },
    {
      "type": "Feature",
      "geometry": {
        "type": "Point",
        "coordinates": [
          -78.8776628,
          42.8818249
        ]
      },
      "properties": {
        "name": "Buffalo Harbor Museum",
        "url": "https://www.google.com/maps/place/Buffalo+Harbor+Museum/data=!4m2!3m1!1s0x89d3123678de1a17:0x68894aaae67078cf",
        "Address": "66 Erie St, Buffalo, NY 14202, USA",
        "category": "secret_is_out"
      }
    },
    {
      "type": "Feature",
      "geometry": {
        "type": "Point",
        "coordinates": [
          -78.8515534,
          42.8697314
        ]
      },
      "properties": {
        "name": "BriarBrothers Brewing Company",
        "url": "https://www.google.com/maps/place/BriarBrothers+Brewing+Company/data=!4m2!3m1!1s0x89d313af2ac02d27:0x1e856dfd570dfe80",
        "Address": "50 Elk St, Buffalo, NY 14210, USA",
        "category": "secret_is_out"
      }
    },
    {
      "type": "Feature",
      "geometry": {
        "type": "Point",
        "coordinates": [
          -78.830249,
          42.8896451
        ]
      },
      "properties": {
        "name": "Buffalo Central Terminal",
        "url": "https://www.google.com/maps/place/Buffalo+Central+Terminal/data=!4m2!3m1!1s0x89d30d8592e274c7:0x75483b7f4d37ce90",
        "Address": "495 Paderewski Dr, Buffalo, NY 14212, USA",
        "category": "secret_is_out"
      }
    },
    {
      "type": "Feature",
      "geometry": {
        "type": "Point",
        "coordinates": [
          -78.8916156,
          42.9425884
        ]
      },
      "properties": {
        "name": "Ukrainian American Civic Center",
        "url": "https://www.google.com/maps/place/Ukrainian+American+Civic+Center/data=!4m2!3m1!1s0x89d3132cd1faddb1:0xed3ef9dc113e2bb7",
        "Address": "205 Military Rd, Buffalo, NY 14207, USA",
        "category": "secret_is_out"
      }
    },
    {
      "type": "Feature",
      "geometry": {
        "type": "Point",
        "coordinates": [
          -78.8728634,
          42.8951524
        ]
      },
      "properties": {
        "name": "Cyclorama Building",
        "url": "https://www.google.com/maps/place/Cyclorama+Building/data=!4m2!3m1!1s0x89d3133323ac1251:0xe24f44da43d06ef3",
        "Address": "369 Franklin St, Buffalo, NY 14202, USA",
        "category": "secret_is_out"
      }
    },
    {
      "type": "Feature",
      "geometry": {
        "type": "Point",
        "coordinates": [
          -78.872218,
          42.8906212
        ]
      },
      "properties": {
        "name": "Market Arcade",
        "url": "https://www.google.com/maps/place/Market+Arcade/data=!4m2!3m1!1s0x89d31231f6630e8b:0xfc59014f8408a9a5",
        "Address": "617 Main St, Buffalo, NY 14209, USA",
        "category": "secret_is_out"
      }
    },
    {
      "type": "Feature",
      "geometry": {
        "type": "Point",
        "coordinates": [
          -78.87386,
          42.8939996
        ]
      },
      "properties": {
        "name": "Quenelle",
        "url": "https://www.google.com/maps/place/Quenelle/data=!4m2!3m1!1s0x89d313528cbe0919:0xb9bb63e0357d3346",
        "Address": "341 Franklin St, Buffalo, NY 14202, USA",
        "category": "secret_is_out"
      }
    },
    {
      "type": "Feature",
      "geometry": {
        "type": "Point",
        "coordinates": [
          -78.8705824,
          42.9691191
        ]
      },
      "properties": {
        "name": "Nowhere Lounge",
        "url": "https://www.google.com/maps/place/Nowhere+Lounge/data=!4m2!3m1!1s0x89d36db89482203f:0xd7ce61dd465a519c",
        "Address": "3115 Delaware Ave, Buffalo, NY 14217, USA",
        "category": "secret_is_out"
      }
    },
    {
      "type": "Feature",
      "geometry": {
        "type": "Point",
        "coordinates": [
          -78.8729661,
          42.8955075
        ]
      },
      "properties": {
        "name": "Spotted Octopus Brewing Co.",
        "url": "https://www.google.com/maps/place/Spotted+Octopus+Brewing+Co./data=!4m2!3m1!1s0x89d313539ac46021:0xb95ec01c728e2e2a",
        "Address": "41 Edward St, Buffalo, NY 14202, USA",
        "category": "secret_is_out"
      }
    },
    {
      "type": "Feature",
      "geometry": {
        "type": "Point",
        "coordinates": [
          -78.8900282,
          42.9239042
        ]
      },
      "properties": {
        "name": "Black Dots",
        "url": "https://www.google.com/maps/place/Black+Dots/data=!4m2!3m1!1s0x89d31319472fd917:0x6ed2729a969814d9",
        "Address": "368 Grant St, Buffalo, NY 14213, USA",
        "category": "secret_is_out"
      }
    },
    {
      "type": "Feature",
      "geometry": {
        "type": "Point",
        "coordinates": [
          -78.8751269,
          42.9352103
        ]
      },
      "properties": {
        "name": "Japanese Garden",
        "url": "https://www.google.com/maps/place/Japanese+Garden/data=!4m2!3m1!1s0x89d312d1730204fd:0x2a232329872c0471",
        "Address": "1 Museum Ct, Buffalo, NY 14216, USA",
        "category": "secret_is_out"
      }
    },
    {
      "type": "Feature",
      "geometry": {
        "type": "Point",
        "coordinates": [
          -78.8782738,
          42.878312
        ]
      },
      "properties": {
        "name": "Shark Girl",
        "url": "https://www.google.com/maps/place/Shark+Girl/data=!4m2!3m1!1s0x89d31233fce0d395:0xa1def6d89dcb0cf8",
        "Address": "Buffalo, NY 14203, USA",
        "category": "secret_is_out"
      }
    },
    {
      "type": "Feature",
      "geometry": {
        "type": "Point",
        "coordinates": [
          -78.8937888,
          42.9213197
        ]
      },
      "properties": {
        "name": "The Mammoth",
        "url": "https://www.google.com/maps/place/34+Helen+St/data=!4m2!3m1!1s0x89d31319cbf340df:0x1d5c011a3ebcc4ef",
        "Address": "34 Helen St, Buffalo, NY 14213, USA",
        "category": "secret_is_out"
      }
    },
    {
      "type": "Feature",
      "geometry": {
        "type": "Point",
        "coordinates": [
          -78.88283969,
          42.91381749
        ]
      },
      "properties": {
        "name": "The Lorax",
        "url": ""
      }
    }
  ]
}