{
  "type": "FeatureCollection",
  "features": [
    {
      "type": "Feature",
      "geometry": {
        "type": "Point",
        "coordinates": [
          -78.9097251,
          42.9602455
        ]
      },
      "properties": {
        "name": "Flavors of Jean",
        "url": "https://www.google.com/maps/place/Flavors+of+Jean/data=!4m2!3m1!1s0x89d36de1329459bf:0x32d2cdc0390b7a53",
        "Address": "1187 Tonawanda St, Tonawanda Town, NY 14207, USA",
        "category": "unctuous_brunch"
      }
    },
    {
      "type": "Feature",
      "geometry": {
        "type": "Point",
        "coordinates": [
          -78.8734061,
          42.887769
        ]
      },
      "properties": {
        "name": "Misuta Chow's",
        "url": "https://www.google.com/maps/place/Misuta+Chow's/data=!4m2!3m1!1s0x89d313c66eb89e63:0xc3bb2239ebefa4c6",
        "Address": "521 Main St, Buffalo, NY 14203, USA",
        "category": "unctuous_brunch"
      }
    },
    {
      "type": "Feature",
      "geometry": {
        "type": "Point",
        "coordinates": [
          -78.8893045,
          42.9568016
        ]
      },
      "properties": {
        "name": "Sophia's Restaurant",
        "url": "https://www.google.com/maps/place/Sophia's+Restaurant/data=!4m2!3m1!1s0x89d36cdea86fa7e9:0x693c873d2e94c1c0",
        "Address": "715 Military Rd, Buffalo, NY 14216, USA",
        "category": "unctuous_brunch"
      }
    },
    {
      "type": "Feature",
      "geometry": {
        "type": "Point",
        "coordinates": [
          -78.8873215,
          42.905878
        ]
      },
      "properties": {
        "name": "Southern Junction",
        "url": "https://www.google.com/maps/place/Southern+Junction/data=!4m2!3m1!1s0x89d36d7b9973a533:0x5556d97daca2594b",
        "Address": "365 Connecticut St, Buffalo, NY 14213, USA",
        "category": "unctuous_brunch"
      }
    },
    {
      "type": "Feature",
      "geometry": {
        "type": "Point",
        "coordinates": [
          -78.8344633,
          42.9188085
        ]
      },
      "properties": {
        "name": "Manna @ Northland",
        "url": "https://www.google.com/maps/place/Manna+@+Northland/data=!4m2!3m1!1s0x89d30d6032e0fbb7:0x960942a3c38e99de",
        "Address": "1786 Main St, Buffalo, NY 14208, USA",
        "category": "unctuous_brunch"
      }
    },
    {
      "type": "Feature",
      "geometry": {
        "type": "Point",
        "coordinates": [
          -78.8784897,
          42.9133044
        ]
      },
      "properties": {
        "name": "The Place",
        "url": "https://www.google.com/maps/place/The+Place/data=!4m2!3m1!1s0x89d312e351e680e7:0x9b2778d252684b2c",
        "Address": "229 Lexington Ave, Buffalo, NY 14222, USA",
        "category": "unctuous_brunch"
      }
    },
    {
      "type": "Feature",
      "geometry": {
        "type": "Point",
        "coordinates": [
          -78.8769445,
          42.8914308
        ]
      },
      "properties": {
        "name": "Patina 250",
        "url": "https://www.google.com/maps/place/Patina+250/data=!4m2!3m1!1s0x89d3124e62680ff7:0x9b5c3ed009a36c0a",
        "Address": "250 Delaware Ave, Buffalo, NY 14202, USA",
        "category": "unctuous_brunch"
      }
    },
    {
      "type": "Feature",
      "geometry": {
        "type": "Point",
        "coordinates": [
          -78.8771979,
          42.9189738
        ]
      },
      "properties": {
        "name": "Iron Tail Tavern",
        "url": "https://www.google.com/maps/place/Iron+Tail+Tavern/data=!4m2!3m1!1s0x89d313166d9c8bbf:0x516e3419822acea6",
        "Address": "802 Elmwood Ave, Buffalo, NY 14222, USA",
        "category": "unctuous_brunch"
      }
    },
    {
      "type": "Feature",
      "geometry": {
        "type": "Point",
        "coordinates": [
          -78.8396897,
          42.9625594
        ]
      },
      "properties": {
        "name": "The Howling Rooster Restaurant & Bar",
        "url": "https://www.google.com/maps/place/The+Howling+Rooster+Restaurant+%26+Bar/data=!4m2!3m1!1s0x89d37299b2e61eb1:0xf0b8c75d1ab99027",
        "Address": "529 Englewood Ave, Kenmore, NY 14223, USA",
        "category": "unctuous_brunch"
      }
    },
    {
      "type": "Feature",
      "geometry": {
        "type": "Point",
        "coordinates": [
          -78.8773617,
          42.9247083
        ]
      },
      "properties": {
        "name": "Jack Rabbit",
        "url": "https://www.google.com/maps/place/Jack+Rabbit/data=!4m2!3m1!1s0x89d313b4e6701359:0xcf12ccf9de99c505",
        "Address": "1010 Elmwood Ave, Buffalo, NY 14222, USA",
        "category": "unctuous_brunch"
      }
    },
    {
      "type": "Feature",
      "geometry": {
        "type": "Point",
        "coordinates": [
          -78.8756415,
          42.9318143
        ]
      },
      "properties": {
        "name": "Cornelia",
        "url": "https://www.google.com/maps/place/Cornelia/data=!4m2!3m1!1s0x89d31398aedf3a85:0xfa0af809141c10fa",
        "Address": "1285 Elmwood Ave, Buffalo, NY 14222, USA",
        "category": "unctuous_brunch"
      }
    },
    {
      "type": "Feature",
      "geometry": {
        "type": "Point",
        "coordinates": [
          -78.8731697,
          42.932215
        ]
      },
      "properties": {
        "name": "The Terrace at Delaware Park",
        "url": "https://www.google.com/maps/place/The+Terrace+at+Delaware+Park/data=!4m2!3m1!1s0x89d312d075757f6f:0x4688a09d37da03c0",
        "Address": "199 Lincoln Pkwy, Buffalo, NY 14222, USA",
        "category": "unctuous_brunch"
      }
    },
    {
      "type": "Feature",
      "geometry": {
        "type": "Point",
        "coordinates": [
          -78.878722,
          42.8967153
        ]
      },
      "properties": {
        "name": "Betty's",
        "url": "https://www.google.com/maps/place/Betty's/data=!4m2!3m1!1s0x89d31253dba7e5c7:0x2d9b518c6d8a1704",
        "Address": "370 Virginia St, Buffalo, NY 14201, USA",
        "category": "unctuous_brunch"
      }
    },
    {
      "type": "Feature",
      "geometry": {
        "type": "Point",
        "coordinates": [
          -78.8647643,
          42.9152424
        ]
      },
      "properties": {
        "name": "Eggsperience Vasilis Main Street",
        "url": "https://www.google.com/maps/place/Eggsperience+Vasilis+Main+Street/data=!4m2!3m1!1s0x89d36d17a61ce3ab:0xe6b79c425fbefee9",
        "Address": "1526 Main St, Buffalo, NY 14209, USA",
        "category": "unctuous_brunch"
      }
    },
    {
      "type": "Feature",
      "geometry": {
        "type": "Point",
        "coordinates": [
          -78.88283969,
          42.91381749
        ]
      },
      "properties": {
        "name": "The Lorax",
        "url": ""
      }
    }
  ]
}